{"type":"Topology","objects":{"collection":{"type":"GeometryCollection","geometries":[{"type":"Polygon","arcs":[[0]],"properties":{"type":"way","id":40535366,"tags":{"addr:housename":"Milam Hall","addr:street":"Southwest Campus Way","alt_name":"Milm","building":"university","building:levels":"4","name":"Milam Hall","roof:levels":"0","roof:shape":"flat"},"nodes":[491745950,491745952,491745954,491745956,491745958,491745959,491745963,491745965,491745967,491745969,491745971,491745973,491745974,491745976,491745979,491745980,491745982,491745984,491745989,491745991,491745950]}},{"type":"Polygon","arcs":[[1]],"properties":{"type":"way","id":40535372,"tags":{"alt_name":"Gilk","building":"university","name":"Gilkey Hall"},"nodes":[491746622,491746624,1072136287,491746626,491746628,491746622]}},{"type":"Polygon","arcs":[[2]],"properties":{"type":"way","id":40535377,"tags":{"addr:housename":"Learning Innovation Center","addr:housenumber":"165","addr:street":"Southwest 26th Street","alt_name":"WB","building":"university","name":"Women's Building"},"nodes":[491747402,491747403,491747404,491747408,491747402]}},{"type":"Polygon","arcs":[[3]],"properties":{"type":"way","id":40535383,"tags":{"addr:housename":"Memorial Union","addr:street":"Southwest Jefferson Way","alt_name":"MU","building":"university","name":"Memorial Union","wikidata":"Q6815540"},"nodes":[491749063,1042444666,1042444404,2821971177,1042444578,491749064,1042444612,5762227234,491749066,5762227236,1042444580,1042444568,2821971174,1042444629,1042444487,5762227233,491749068,5762227239,491749072,1042444548,1042444505,2821971178,1042444656,1042444485,491749074,5762227240,4630393680,491749075,2821971179,491749077,491749079,1042444637,1042444582,5762227232,1042444488,1042444575,1042444653,1042444514,491749080,491749082,2821971176,491749084,5762227237,5762227238,5762227235,491749063]}},{"type":"Polygon","arcs":[[4]],"properties":{"type":"way","id":40535386,"tags":{"addr:city":"Corvallis","addr:housenumber":"170","addr:postcode":"97331","addr:state":"OR","addr:street":"Southwest Waldo Place","alt_name":"StAg","building":"university","building:levels":"4","name":"Strand Agriculture Hall"},"nodes":[491751156,1072136407,1072136304,1072136274,1072136253,491751158,491751160,1072136246,1072136251,491751161,491751163,491751166,1072136270,1072136262,1072136245,491751170,491751172,1072136224,1072136202,491751173,1072136223,1072136243,1072136323,1072136375,1072136397,5762227191,1072136269,491751175,491751177,5762227182,491751179,1072136279,1072136189,1072136389,1072136282,1072136371,491751187,491751188,5762227171,1072136219,1072136186,1072136281,491751192,491751156]}},{"type":"Polygon","arcs":[[5]],"properties":{"type":"way","id":40535423,"tags":{"alt_name":"MCC","building":"university","building:levels":"1","name":"Milne Computer Center","roof:levels":"0","roof:shape":"flat"},"nodes":[491763004,491763007,491763010,491763013,491763004]}},{"type":"Polygon","arcs":[[6]],"properties":{"type":"way","id":40535424,"tags":{"addr:housenumber":"2000","addr:street":"Southwest Campus Way","alt_name":"Kidd","building":"university","building:levels":"3","name":"Kidder Hall","roof:shape":"hipped"},"nodes":[491763036,491763038,491763042,491763047,491763050,491763054,822349941,491763056,491763061,491763036]}},{"type":"Polygon","arcs":[[7]],"properties":{"type":"way","id":40535501,"tags":{"addr:city":"Corvallis","addr:housenumber":"1650","addr:postcode":"97331","addr:state":"OR","addr:street":"Southwest Pioneer Place","alt_name":"COMH","building":"university","name":"Community Hall","wikidata":"Q19865328","wikipedia":"en:Community Hall (Oregon State University)"},"nodes":[491778544,491778551,1077606360,1077606012,1077606011,1077606334,1077606338,491778555,491778557,1077606010,1077606353,1077606314,1077606291,491778544]}},{"type":"Polygon","arcs":[[8]],"properties":{"type":"way","id":40535502,"tags":{"access":"permissive","amenity":"library","building":"yes","name":"Valley Library","opening_hours":"24/7","wheelchair":"limited","wikidata":"Q7771943"},"nodes":[491778562,9878382604,1042444635,1042444538,2821971175,1042444441,1042444648,491778565,3209505244,3209505243,1042444626,1042444518,3209505237,1042444646,3209505232,491778571,491778572,5762227241,491778574,491778576,491778578,491778584,491778587,1042444663,1042444460,491778589,1042444639,1042444437,1042444564,1042444634,1042444424,1042444571,1042444664,1042444603,491778562]}},{"type":"Polygon","arcs":[[9]],"properties":{"type":"way","id":41375968,"tags":{"addr:city":"Corvallis","addr:housenumber":"2901","addr:postcode":"97331","addr:state":"OR","addr:street":"Southwest Jefferson Way","alt_name":"Sack","building":"dormitory","building:levels":"3","name":"Sackett Hall","roof:levels":"0","roof:shape":"many","wheelchair":"limited"},"nodes":[506068091,506068092,506068093,506068094,506068095,506068096,506068097,506068098,506068099,506068100,506068101,506068102,506068103,506068104,506068105,506068106,506068107,506068108,1162472591,506068109,1077990212,506068110,506068111,506068112,506068113,506068114,506068115,506068116,506068117,506068118,506068119,506068120,506068121,506068122,506068123,506068124,506068125,1077990250,506068126,506068127,506068128,1162472608,1162472647,506068129,506068130,506068091]}},{"type":"Polygon","arcs":[[10]],"properties":{"type":"way","id":41376076,"tags":{"alt_name":"Gill","building":"yes","name":"Gill Coliseum","wikidata":"Q3106019"},"nodes":[506069024,1496025612,1496025713,506069025,1158906127,1158906148,1158906141,1158906149,1158906150,1158906130,1158906147,1158906143,506069026,1042454517,1042454536,1042454530,1042454519,506069027,1496025813,1496025434,1496025568,1496025667,1496025769,1496025392,1496025519,1496025622,1496025725,1496025823,506069024]}},{"type":"Polygon","arcs":[[11]],"properties":{"type":"way","id":41376092,"tags":{"addr:housename":"Nash Hall","addr:housenumber":"2820","addr:street":"Southwest Campus Way","alt_name":"Nash","building":"university","name":"Nash Hall"},"nodes":[506069096,1072217732,1072217770,1072217755,1072217744,506069097,506069094,506069095,1496001280,506069096]}},{"type":"Polygon","arcs":[[12,13]],"properties":{"type":"way","id":41376094,"tags":{"addr:housename":"Agriculture And Life Sciences Building","addr:housenumber":"2750","addr:street":"Southwest Campus Way","alt_name":"ALS","building":"university","building:levels":"4","name":"Agricultural & Life Sciences","roof:shape":"flat"},"nodes":[1072217759,506069140,506069141,1496001318,1496001068,506069142,506069143,506069144,506069147,1072217728,1072217734,1072217773,1072217763,1072217722,1496001036,506069135,506069136,1496000964,1496001212,506069137,506069138,1496001270,1496001023,506069139,1072217747,1072217760,1072217750,1072217759]}},{"type":"Polygon","arcs":[[14]],"properties":{"type":"way","id":41376132,"tags":{"addr:housename":"Wiegand Hall","addr:housenumber":"3051","addr:street":"Southwest Campus Way","alt_name":"Wgnd","building":"university","building:levels":"2","name":"Wiegand Hall","roof:shape":"flat"},"nodes":[506069303,506069304,506069305,506069306,506069303]}},{"type":"Polygon","arcs":[[15]],"properties":{"type":"way","id":41376133,"tags":{"addr:housename":"Withycombe Hall","addr:housenumber":"2921","addr:street":"Southwest Campus Way","alt_name":"With","building":"university","building:levels":"3","name":"Withycombe Hall","roof:levels":"0","roof:shape":"flat"},"nodes":[506069307,506069308,506069309,506069310,506069311,1165170763,1165171238,506069312,506069313,1165171098,1165170848,1165170788,506069314,506069315,506069316,506069317,1165170787,506069318,1165171283,1165171155,1165170845,1165171101,506069307]}},{"type":"Polygon","arcs":[[16]],"properties":{"type":"way","id":41376146,"tags":{"alt_name":"EGrn","building":"greenhouse","name":"East Greenhouses"},"nodes":[506069374,506069376,506069378,506069380,506069382,506069383,506069384,506069385,506069386,506069389,506069391,506069393,506069395,506069396,506069398,506069400,506069403,506069404,506069407,506069410,506069374]}},{"type":"Polygon","arcs":[[17]],"properties":{"type":"way","id":41376185,"tags":{"addr:housename":"Hovland","addr:housenumber":"2700","addr:street":"Southwest Campus Way","alt_name":"Hov","building":"university","name":"Hovland Hall"},"nodes":[506069852,3756459770,506069853,506069855,3756459744,3756459746,3105104285,506069857,506069852]}},{"type":"Polygon","arcs":[[18]],"properties":{"type":"way","id":41376229,"tags":{"addr:housename":"Gilmore Hall","addr:housenumber":"124","addr:street":"Southwest 26th Street","alt_name":"Gilm","building":"university","name":"Gilmore Hall"},"nodes":[506070396,506071004,506071005,506070399,506070400,506070401,506070402,506070404,506070396]}},{"type":"Polygon","arcs":[[19]],"properties":{"type":"way","id":41376282,"tags":{"alt_name":"GmAn","building":"university","name":"Gilmore Annex"},"nodes":[506071006,506071007,506071008,506071009,506071006]}},{"type":"Polygon","arcs":[[20]],"properties":{"type":"way","id":41376290,"tags":{"addr:city":"Corvallis","addr:housenumber":"2591","addr:postcode":"97331","addr:state":"OR","addr:street":"Southwest Campus Way","alt_name":"BalE","building":"university","building:levels":"3","name":"Ballard Extension Hall","roof:shape":"flat"},"nodes":[506071103,506071105,506071107,506071110,506071112,506071114,506071116,506071119,506071122,506071126,506071103]}},{"type":"Polygon","arcs":[[21]],"properties":{"type":"way","id":45088437,"tags":{"access":"yes","amenity":"parking","building":"yes","fee":"yes","name":"Parking Garage","opening_hours":"PH,Mo-Su 04:00+","parking":"multi-storey","source":"Yahoo","wheelchair":"no"},"nodes":[571668761,571668762,571668763,9622735083,571668764,571668761]}},{"type":"Polygon","arcs":[[22]],"properties":{"type":"way","id":45088438,"tags":{"addr:city":"Corvallis","addr:housenumber":"425","addr:postcode":"97331","addr:state":"OR","addr:street":"Southwest 26th Street","alt_name":"DxRC","building":"sports_centre","building:levels":"3","name":"Dixon Recreation Center","source":"Yahoo","wheelchair":"yes","wikidata":"Q20807388","wikipedia":"en:Dixon Recreation Center"},"nodes":[571668765,1072234598,571668766,1496001075,1496001325,1496001030,1496001275,1496000971,1496001088,2821975373,1496001333,1496001044,1496001351,1496001057,1496001303,1496001003,1496001254,1496000947,571668767,1496001161,1496001389,1496001343,1496001051,1496001294,1496000993,571668768,1496001184,1496001153,1496000888,1072234602,1072234581,2821975372,1072234594,1072234590,1496001138,1496001370,1072234601,571668765]}},{"type":"Polygon","arcs":[[23]],"properties":{"type":"way","id":54119130,"tags":{"addr:housename":"Weniger Hall","addr:housenumber":"103","addr:street":"Southwest Memorial Place","alt_name":"Wngr","building":"university","building:levels":"6","name":"Weniger Hall","roof:shape":"flat"},"nodes":[682380721,682380722,682380724,682380726,682380721]}},{"type":"Polygon","arcs":[[24]],"properties":{"type":"way","id":54119132,"tags":{"addr:housename":"Bexell Hall","addr:street":"Southwest Campus Way","alt_name":"Bexl","building":"university","name":"Bexell Hall"},"nodes":[682380727,682380728,3209505300,3209505297,3209505296,3209505299,682380731,682380732,3209505303,682380734,682380735,3209505304,682380727]}},{"type":"Polygon","arcs":[[25,26]],"properties":{"type":"way","id":60813155,"tags":{"addr:housenumber":"2651","addr:street":"Southwest Orchard Avenue","alt_name":"Burt","building":"university","name":"Burt Hall"},"nodes":[1165171227,761329321,761329327,761329331,1165171023,1165171079,761329333,761329338,761329342,1165170864,1072208616,1165170807,761329349,1165171213,761329354,761329357,1165171042,1165170993,761329374,1165171038,1165170740,1165170908,1165171350,761329377,761329382,1165171318,1165171025,761329385,1165171340,1165170742,1165171253,1165171227]}},{"type":"Polygon","arcs":[[27]],"properties":{"type":"way","id":89936033,"tags":{"alt_name":"VFbC","building":"yes","leisure":"sports_centre","name":"Valley Football Center","sport":"american_football"},"nodes":[1042454496,1042454513,8815960226,8815960230,8815960227,8815960228,8815960229,1042454515,1042454528,370704649,370704674,8815886612,1042454547,8815886613,8815886614,8815886615,8815886616,8815960217,8815960218,8815960219,1042454539,8815960225,8815960223,8815960222,8815960221,8815960224,8815960220,1042454496]}},{"type":"Polygon","arcs":[[28,29,30,31]],"properties":{"type":"way","id":91778492,"tags":{"alt_name":"Cau","building":"dormitory","name":"Cauthorn Hall"},"nodes":[1066538097,1066538212,1066538071,1066538132,1066538084,1066538219,1066538097]}},{"type":"Polygon","arcs":[[32,33,34,35]],"properties":{"type":"way","id":91778510,"tags":{"alt_name":"Buxt","building":"dormitory","name":"Buxton Hall"},"nodes":[1066538213,1066538115,1066538210,1066538167,1066538009,1066538232,1066538111,1066538250,1066538213]}},{"type":"Polygon","arcs":[[-31,36,-36,37]],"properties":{"type":"way","id":91778515,"tags":{"alt_name":"Haw","building":"dormitory","name":"Hawley Hall"},"nodes":[1066538071,1066538175,1066538250,1066538213,9696653630,1066538203,1066538132,1066538071]}},{"type":"Polygon","arcs":[[38,39,40,41]],"properties":{"type":"way","id":91778518,"tags":{"addr:housenumber":"300","addr:street":"Southwest 26th Street","alt_name":"Wfd","building":"university","name":"Weatherford Hall"},"nodes":[1066538016,1066538233,1066538252,1066538075,1066538131,1066538224,1066538066,1066538263,1066538205,1066538089,1066538109,1066538215,1066538158,1066538026,1066538247,1066538096,1496001375,1066538195,1066538044,1496000892,1496001192,1066538153,1066538202,1066538248,1496001227,1066538266,1066538041,1066538054,1066538133,1066538207,1496000923,1066538077,1066538254,1496000968,1066538260,1066538244,1066538135,1066538087,1066538091,1066538021,1066538152,1066538218,1066538262,1066538094,1066538013,1496001278,1496001034,1066538016]}},{"type":"Polygon","arcs":[[42]],"properties":{"type":"way","id":91780165,"tags":{"addr:city":"Corvallis","addr:housenumber":"391","addr:postcode":"97331","addr:state":"OR","addr:street":"Southwest 30th Street","alt_name":"WIH","building":"dormitory","building:levels":"6","building:levels:underground":"1","name":"West Hall","wheelchair":"yes"},"nodes":[1066542662,1066542684,1066542666,1066542671,1066542675,1066542678,1066542682,1066542664,1066542687,1066542686,1066542662]}},{"type":"Polygon","arcs":[[43]],"properties":{"type":"way","id":91780166,"tags":{"alt_name":"WsDn","building":"university","name":"West Dining Hall"},"nodes":[1066542672,1066542673,1066542668,1066542661,1066542680,1066542665,1066542679,1066542662,1066542672]}},{"type":"Polygon","arcs":[[44]],"properties":{"type":"way","id":92367091,"tags":{"addr:housenumber":"1600","addr:street":"Monroe Avenue","alt_name":"Mfd","building":"university","building:levels":"2","name":"Merryfield Hall","roof:levels":"1","roof:shape":"gabled","wikidata":"Q21016053"},"nodes":[1072136255,3105102034,1072136409,1072136264,1072136182,1072136212,1072136359,1072136353,1072136377,1072136266,1072136318,1072136255]}},{"type":"Polygon","arcs":[[45]],"properties":{"type":"way","id":92367092,"tags":{"addr:housenumber":"220","addr:street":"Southwest 26th Street","alt_name":"Fair","building":"university","name":"Fairbanks Hall"},"nodes":[1072136391,1072136218,1072136222,1072136276,1072136240,1072136275,1072136319,1072136208,1072136215,1072136235,1072136265,1072136196,1072136206,1072136228,1072136336,1072136260,1072136333,1072136236,1072136288,1072136394,1072136391]}},{"type":"Polygon","arcs":[[46,47]],"properties":{"type":"way","id":92367096,"tags":{"alt_name":"Kear","building":"university","name":"Kearney Hall"},"nodes":[1072136176,1072185373,1072185371,1072136239,1072136338,1072136244,1072136225,1072136180,1072136241,1072136179,1072136200,1072136221,1072136220,1072136194,1072136247,1072136256,1072136297,1072136393,1072136267,1072136210,1072136261,1072136301,1072136250,1072136339,1072136176]}},{"type":"Polygon","arcs":[[48,49,50]],"properties":{"type":"way","id":92367304,"tags":{"alt_name":"GbAn","building":"university","name":"Gilbert Addition"},"nodes":[1072152018,3209505305,1072152035,3529685408,1072152009,1072152024,1072152026,1072152016,1072152011,1072152036,3529685407,1072152019,1072152010,1072152028,1072152022,1072152034,3529685425,1072152008,1072152023,3209505307,1072152033,1072152018]}},{"type":"Polygon","arcs":[[51]],"properties":{"type":"way","id":92369355,"tags":{"addr:housename":"Rogers Hall","addr:street":"Monroe Avenue","alt_name":"Rog","building":"university","name":"Rogers Hall"},"nodes":[1072181534,3209505310,1072181496,1072181491,1072181495,1072181405,1072181428,1072181413,1072152028,3209505306,1072181534]}},{"type":"Polygon","arcs":[[52]],"properties":{"type":"way","id":92369359,"tags":{"addr:housename":"Graf Hall","addr:housenumber":"1680","addr:street":"Monroe Avenue","alt_name":"Graf","building":"university","name":"Graf Hall","opening_hours":"Mo-Th 07:30-21:00, Fr 07:30-02:00"},"nodes":[1072181533,1072181469,1072181498,1072181531,1072181410,1072181527,1072181516,1072181422,1072181533]}},{"type":"Polygon","arcs":[[53]],"properties":{"type":"way","id":92369360,"tags":{"addr:housename":"Gleeson Hall","alt_name":"Glsn","building":"university","name":"Gleeson Hall"},"nodes":[1072181449,1072181403,1072181518,1072181462,1072181434,1072181439,1072181411,1072181483,1072181449]}},{"type":"Polygon","arcs":[[54,55,56,57]],"properties":{"type":"way","id":92369364,"tags":{"alt_name":"Bat","building":"university","name":"Batcheller Hall"},"nodes":[1072181402,3209505298,1072181456,1072181458,1072181429,1072181488,1072181463,1072181508,1072181484,1072181487,1072181489,1072181402]}},{"type":"Polygon","arcs":[[-58,58]],"properties":{"type":"way","id":92369366,"tags":{"alt_name":"Dear","building":"university","name":"Dearborn Hall"},"nodes":[1072181505,1072181478,1072181489,1072181402,1072181437,1072181526,1072181532,1072181530,1072181525,3529685406,1072181454,1072181451,1072181505]}},{"type":"Polygon","arcs":[[59,-56]],"properties":{"type":"way","id":92369367,"tags":{"addr:housenumber":"1691","addr:street":"Southwest Campus Way","alt_name":"Cov","building":"university","name":"Covell Hall"},"nodes":[1072181508,1072181425,1072181467,1072181414,1072181504,1072181447,1072181457,1072181415,1072181510,1072181493,3105102033,1072181537,1072181470,1072181426,1072181484,1072181508]}},{"type":"Polygon","arcs":[[60]],"properties":{"type":"way","id":92369369,"tags":{"alt_name":"Shep","building":"university","name":"Shepard Hall"},"nodes":[1072181482,1072181472,1072181507,1072181445,1072181450,1072181475,1072181464,1072181438,1072181408,1072181416,1078261786,1072181538,1072181528,1072181482]}},{"type":"Polygon","arcs":[[-47,61]],"properties":{"type":"way","id":92369982,"tags":{"alt_name":"Owen","building":"university","name":"Owen Hall","wikidata":"Q21016090"},"nodes":[1072185346,1072185374,1072185365,1072185351,1072185352,1072185353,1072185355,1072185356,1072185348,1072185343,1072185371,1072185373,1072185357,1072185342,1072185368,1072185369,1072185372,1072185358,1072185362,1072185345,1072185359,1072185375,1072185364,1072185350,1072185349,1072185354,1072185367,1072185344,1072185366,1072185347,1072185370,1072185363,1072185360,1072185361,1072185346]}},{"type":"Polygon","arcs":[[62]],"properties":{"type":"way","id":92370508,"tags":{"addr:housename":"Plageman Student Health Center","addr:housenumber":"108","alt_name":"PSHC","building":"university","name":"Plageman Student Health Center"},"nodes":[1072191768,1072191765,1072191818,1072191782,1072191783,1072191804,1072191810,1072191800,1072191768]}},{"type":"Polygon","arcs":[[63]],"properties":{"type":"way","id":92370509,"tags":{"addr:city":"Corvallis","addr:housenumber":"110","addr:postcode":"97331","addr:state":"OR","addr:street":"Southwest Park Terrace Place","alt_name":"KEC","building":"university","building:levels":"4","name":"Kelley Engineering Center"},"nodes":[1072191803,1072191794,1072191801,1072191789,1072191784,1072191793,1072191811,1072191766,3529685394,1072191806,1072191777,1072191780,1072191778,1072191781,1072191796,1072191769,1072191791,1072191819,1072191771,1072191808,1072191820,1072191798,1072191813,1072191803]}},{"type":"Polygon","arcs":[[64,65]],"properties":{"type":"way","id":92370906,"tags":{"building":"university","name":"Gilfillan Auditorium"},"nodes":[1072208628,2821971172,1072208642,1165170980,1072208645,1072208643,1072208649,1072208640,1072208627,1072208618,1072208639,1072208631,1072208605,1072208622,1072208620,1072208601,1165171040,1072208628]}},{"type":"Polygon","arcs":[[-66,66,-26,67]],"properties":{"type":"way","id":92370909,"tags":{"alt_name":"Wlkn","building":"university","name":"Wilkinson Hall"},"nodes":[1072208617,1072208611,1072208603,2821971171,1072208613,1072208604,1072208651,1072208591,1072208628,2821971172,1072208642,1165170807,1072208616,1072208617]}},{"type":"Polygon","arcs":[[-13,68]],"properties":{"type":"way","id":92370910,"tags":{"addr:housename":"Cordley Hall","addr:housenumber":"2701","addr:street":"Southwest Campus Way","building":"university","building:levels":"4","name":"Cordley Hall","roof:levels":"1","roof:shape":"flat"},"nodes":[1072208646,3066932557,1072208621,1072208595,1072208597,1072208615,1072208624,1072208650,1072208630,1072217750,1072217760,1072208633,1072208600,1072208596,1072208585,1072208589,1072208646]}},{"type":"Polygon","arcs":[[69]],"properties":{"type":"way","id":92936975,"tags":{"addr:city":"Corvallis","addr:housenumber":"1601","addr:postcode":"97331","addr:street":"Southwest Jefferson Way","alt_name":"Phar","building":"university","name":"Pharmacy Building","wikidata":"Q21016102"},"nodes":[1077501412,1077501143,1077501101,1077501392,1077501414,1077501360,1077501133,1077501281,1077501416,1077501302,1077501352,1077501156,1077501052,1077501292,1077501420,1077501412]}},{"type":"Polygon","arcs":[[70]],"properties":{"type":"way","id":92936978,"tags":{"addr:city":"Corvallis","addr:housenumber":"1701","addr:postcode":"97331","addr:street":"Southwest Jefferson Way","alt_name":"GVGC","building":"university","name":"Gladys Valley Gymnastics Center"},"nodes":[1077501219,1077501061,1077606007,1077501466,1077501409,1077501219]}},{"type":"Polygon","arcs":[[71,72]],"properties":{"type":"way","id":92946844,"tags":{"addr:housenumber":"1351","addr:street":"Southwest Adams Avenue","alt_name":"Wil","building":"dormitory","name":"Wilson Hall"},"nodes":[1077606310,1077606180,1077606159,1077606232,1077606250,1077606189,1077606300,1077606064,1077606240,1077606107,1077606310]}},{"type":"Polygon","arcs":[[73]],"properties":{"type":"way","id":92946850,"tags":{"building":"yes"},"nodes":[1077606205,1077606312,1077606191,1077605987,1077606205]}},{"type":"Polygon","arcs":[[74,-72,75,76]],"properties":{"type":"way","id":92946852,"tags":{"addr:housenumber":"1300","addr:street":"Southwest Jefferson Avenue","alt_name":"McDN","building":"university","building:levels":"1","name":"McNary Dining Hall","roof:shape":"flat"},"nodes":[1077606207,7918569877,1077606030,7918569876,7918569873,1077606300,1077606064,9878382584,1077606132,1077606090,1077605978,1077606043,7918569863,7918569879,1077606207]}},{"type":"Polygon","arcs":[[77]],"properties":{"type":"way","id":92946855,"tags":{"addr:city":"Corvallis","addr:housenumber":"200 SW 15th Street","addr:postcode":"97331","addr:street":"Southwest Jefferson Avenue","alt_name":"Educ","building":"university","name":"Furman Hall"},"nodes":[1077606025,1077606328,1077606290,1077606144,1077606045,1077606049,1077606219,1077606032,1077606192,1077606051,1077606238,1077606258,1077606140,1077606307,1077606267,1077606230,1077606103,1077606017,1077606351,1077606158,1077606275,1077606269,1077606025]}},{"type":"Polygon","arcs":[[78]],"properties":{"type":"way","id":92946869,"tags":{"addr:housenumber":"1500","addr:street":"Southwest Jefferson Way","alt_name":"KAd","building":"yes","name":"Kerr Administration Building"},"nodes":[1077606129,7122281740,1077606261,1077606083,1077606316,1077606254,1077606169,1077606356,1077606035,1077606128,1077606171,1077606218,1077606047,1077606108,1077606037,1077606127,1077606054,1077606129]}},{"type":"Polygon","arcs":[[79]],"properties":{"type":"way","id":92946871,"tags":{"addr:housenumber":"1700","addr:street":"SW Pioneer Place","alt_name":"HRWG","building":"university","name":"Hattie Redmond Women and Gender Center"},"nodes":[1077606065,1077606248,1077606323,1077606016,1077606036,1077605977,1077606224,1077605975,1077606065]}},{"type":"Polygon","arcs":[[-77,80]],"properties":{"type":"way","id":92946874,"tags":{"addr:housenumber":"1220","addr:street":"Southwest Jefferson Avenue","alt_name":"McNy","building":"university","name":"McNary Hall"},"nodes":[1077606207,1077606175,1077606256,1077606124,1077606111,1077606028,1077606327,1077605999,1077606130,1077606056,1077605986,1077606147,1077606030,7918569877,1077606207]}},{"type":"Polygon","arcs":[[81,82]],"properties":{"type":"way","id":92946876,"tags":{"addr:housenumber":"1800","addr:street":"Southwest Jefferson Way","alt_name":"McAF","building":"university","building:levels":"3","name":"McAlexander Field House"},"nodes":[1077606121,1077635451,1077606173,5090486926,5090486310,1077606221,1077606121]}},{"type":"Polygon","arcs":[[83]],"properties":{"type":"way","id":92946879,"tags":{"addr:housenumber":"1420","addr:street":"Southwest Jefferson Avenue","alt_name":"Cal","building":"dormitory","name":"Callahan Hall"},"nodes":[1077606092,1077606277,1077606318,1077606172,1077606320,1077606244,1077606357,8011210292,1077606201,1077606279,1077606298,1077606092]}},{"type":"Polygon","arcs":[[84]],"properties":{"type":"way","id":92953277,"tags":{"addr:city":"Corvallis","addr:housenumber":"570","addr:postcode":"97331","addr:street":"Southwest 15th Street","building":"yes","name":"Physical Plant Shed"},"nodes":[1077635462,1077635433,1077635549,1077635517,1077635462]}},{"type":"Polygon","arcs":[[85]],"properties":{"type":"way","id":92953284,"tags":{"addr:housenumber":"2150","addr:street":"Southwest Jefferson Way","alt_name":"Snel","building":"university","name":"Snell Hall"},"nodes":[1077635350,1077635334,1077635548,1077635525,1077635435,1077635493,1077635478,1077635551,1077635356,1077635473,1077635371,1077635515,1077635406,1077635375,1077635401,1077635368,1077635415,1077635477,1077635337,1077635494,1077635532,1077635552,1077635550,1077635513,1077635526,1077635534,1077635480,1077635407,1077635373,1077635442,1077635416,1077635382,3171492476,1077635398,1077635474,1077635386,1077635476,1077635445,1077635454,1077635430,1077635446,1077635353,1077635529,1077635553,1077635403,1077635483,1077635554,1077635527,1077635498,1077635471,1077635420,1077635460,1077635448,1077635350]}},{"type":"Polygon","arcs":[[-82,86]],"properties":{"type":"way","id":92953295,"tags":{"alt_name":"Hea","building":"yes","name":"Heating Plant"},"nodes":[1077635479,1077635438,1077635451,1077606173,1077635450,1077635485,1077635412,1077635354,1077635523,1077635547,1077635437,1077635351,1077635479]}},{"type":"Polygon","arcs":[[87]],"properties":{"type":"way","id":92953299,"tags":{"addr:city":"Corvallis","addr:housenumber":"570","addr:postcode":"97331","addr:street":"Southwest 15th Street","building":"yes","name":"Physical Plant Main Building"},"nodes":[3105099792,3105099791,3105099790,1077635457,3209505189,3209505188,3209505183,3209505184,1077635497,1077635443,1077635340,3105099793,3105099792]}},{"type":"Polygon","arcs":[[88]],"properties":{"type":"way","id":92953305,"tags":{"addr:city":"Corvallis","addr:housenumber":"570","addr:postcode":"97331","addr:street":"Southwest 15th Street","building":"yes","name":"Physical Plant Shed B"},"nodes":[1077635468,1077635509,1077635410,1077635505,1077635468]}},{"type":"Polygon","arcs":[[89]],"properties":{"type":"way","id":92953308,"tags":{"addr:street":"Southwest Benton Place","building":"yes","name":"Storage Shed"},"nodes":[1077635502,1077635507,1077635504,1077635475,1077635502]}},{"type":"Polygon","arcs":[[90]],"properties":{"type":"way","id":92953310,"tags":{"addr:street":"Southwest A Avenue","building":"yes","name":"Plumbing Shop"},"nodes":[1077635482,1077635335,1077635349,1077635520,1077635482]}},{"type":"Polygon","arcs":[[91]],"properties":{"type":"way","id":92953312,"tags":{"addr:city":"Corvallis","addr:housenumber":"570","addr:postcode":"97331","addr:street":"Southwest 15th Street","building":"yes","name":"Physical Plant Shed A"},"nodes":[1077635358,1077635365,1077635441,1077635490,1077635358]}},{"type":"Polygon","arcs":[[92,93]],"properties":{"type":"way","id":92962590,"tags":{"addr:housenumber":"725","addr:street":"Southwest 26th Street","alt_name":"CHAC","building":"university","name":"CH2M HILL Alumni Center"},"nodes":[1077660750,1077660810,1496025799,1077661309,3209505074,1077660856,1077661104,3209505073,1077661110,1077661191,1077661188,1077660859,1077660836,1077660804,1077661045,1077661245,1077660753,1077660855,1077661043,1077660750]}},{"type":"Polygon","arcs":[[94]],"properties":{"type":"way","id":92962598,"tags":{"addr:housenumber":"2001","addr:street":"Southwest Western Boulevard","alt_name":"Bss","building":"dormitory","name":"Bloss Hall"},"nodes":[1077661044,1077660808,1077661175,1077661137,1077660919,1077661260,1077660834,5759354220,1077661205,1077660827,1077661085,1077661011,1077660971,1077661044]}},{"type":"Polygon","arcs":[[95]],"properties":{"type":"way","id":92962607,"tags":{"addr:city":"Corvallis","addr:housenumber":"601","addr:postcode":"97331","addr:street":"Southwest 17th Street","alt_name":"Casc","building":"yes","building:levels":"2","name":"Cascade Hall"},"nodes":[1077660677,1077660897,1077660841,1077660659,1077660656,1077661251,1077661310,1077661208,1077660740,1077660677]}},{"type":"Polygon","arcs":[[96]],"properties":{"type":"way","id":92962627,"tags":{"addr:housenumber":"681","addr:street":"Southwest 26th Street","alt_name":"ArnD","building":"retail","building:levels":"1","name":"Arnold Cafeteria","roof:shape":"flat"},"nodes":[1077660700,1077660811,1077661210,1077660662,1077661281,1077661037,1077660660,1077660846,1077660668,1077660714,1077660733,1077660915,1077660815,1077660978,1077660837,1077660800,1077661297,1077660916,1077660861,1077660687,1077660941,1077660700]}},{"type":"Polygon","arcs":[[97]],"properties":{"type":"way","id":92962630,"tags":{"addr:housenumber":"2100","addr:street":"Southwest May Avenue","alt_name":"Finl","building":"dormitory","name":"Finley Hall"},"nodes":[1077661221,1077660958,1077661291,1077661184,1077660925,1077661039,1077661066,1077661099,1077661278,1077661307,1077660931,1077661250,1077660862,1077660866,1077660975,1077660956,1077661181,1077660913,1077660774,1077660996,1077661221]}},{"type":"Polygon","arcs":[[98]],"properties":{"type":"way","id":92962632,"tags":{"addr:housenumber":"644","addr:street":"Southwest 17th Street","alt_name":"Hal","building":"dormitory","name":"Carrie Halsell Residence Hall"},"nodes":[1077660704,1077661262,1077660710,1077660829,1077661069,1077661186,1077660894,1077660831,1077660766,1077660736,1077661287,1077660945,1077660661,1077660751,1077661285,1077661247,1077660785,1077660902,1077661172,1077660676,1077661202,1077660993,1077660923,1077660929,1077660989,1077661276,1077660949,1077661008,1077660765,1077660981,1077660906,1077660939,1077661006,1077660743,1077660843,1077660782,1077661308,1077660806,1077661067,1077661223,1077661040,1077661288,1077660684,1077660986,1077661071,1077660872,1077661148,1077661030,1077661094,1077661264,1077661259,1077661074,1077660703,1077661033,1077660998,1077661087,1077661121,1077660797,1077660943,1077660848,1077661002,1077661102,1077660769,1077661046,1077660885,1077661068,1077661061,1077661019,1077661293,1077660720,1077660704]}},{"type":"Polygon","arcs":[[99]],"properties":{"type":"way","id":92965285,"tags":{"alt_name":"SC","building":"stadium","name":"Softball Complex"},"nodes":[1077673829,1077673839,1077673647,1077673961,1077673922,1077673621,1077673814,1077673837,1077673829]}},{"type":"Polygon","arcs":[[100]],"properties":{"type":"way","id":92965286,"tags":{"alt_name":"PWVS","building":"stadium","name":"Patrick Wayne Valley Stadium"},"nodes":[1077673738,1077673523,1077673912,1077673960,1077673738]}},{"type":"Polygon","arcs":[[-93,101]],"properties":{"type":"way","id":92965301,"tags":{"addr:housenumber":"875","addr:street":"Southwest 26th Street","alt_name":"LSC","building":"university","name":"LaSells Stewart Center","wikidata":"Q7745038"},"nodes":[1077673841,1077673916,1077673643,1077673612,1077673556,1077673731,1077673847,1077673729,1077673653,1077673713,1077673676,1077673777,1077661104,1077660856,1077673841]}},{"type":"Polygon","arcs":[[102]],"properties":{"type":"way","id":92967904,"tags":{"addr:housenumber":"2250","addr:street":"Southwest Jefferson Way","alt_name":"Wald","building":"university","name":"Waldo Hall","wikidata":"Q20712655"},"nodes":[1077726033,1077725846,1077725913,1077725903,1077726036,1077726083,1077725935,1077725807,1077725851,1077726002,1077725946,1077726016,1077725838,1077726086,1077726091,1077725863,1077725901,1077726011,1077725943,1077726043,1077725965,1077725939,1077725976,1077725909,1077726008,1077726071,1077726090,1077726093,1077725840,1077725999,1077726051,1077725937,1077725932,1077726081,1077725963,1077726063,1077726097,1077726033]}},{"type":"Polygon","arcs":[[103]],"properties":{"type":"way","id":92967908,"tags":{"addr:housenumber":"2450","addr:street":"Southwest Jefferson Way","alt_name":"Lang","building":"university","name":"Langton Hall"},"nodes":[1077725967,1077725848,1077725834,1077725888,1077725820,1077725825,1077726039,1077726088,1077726014,1077725855,1077726068,1077725857,1077725970,1077725821,1077725980,1077725894,1077725842,1077725905,1077725973,1077725967]}},{"type":"Polygon","arcs":[[104]],"properties":{"type":"way","id":92994183,"tags":{"addr:housenumber":"2900","addr:street":"Southwest Jefferson Way","alt_name":"HkLg","building":"yes","name":"Heckart Lodge"},"nodes":[1077990206,1077990383,1077990179,1077990149,1077990370,1077990242,1077990143,1077990362,1077990204,1077990361,1077990421,1077990119,1077990206]}},{"type":"Polygon","arcs":[[105]],"properties":{"type":"way","id":92994193,"tags":{"addr:housenumber":"3050","addr:street":"Southwest Campus Way","alt_name":"CrpS","building":"university","building:levels":"4","name":"Crop Science Building","roof:levels":"0","roof:shape":"flat"},"nodes":[1077990140,1077990310,1077990164,1077990186,1077990419,1077990405,1077990300,1077990415,1077990190,1077990382,1077990172,1077990327,1077990140]}},{"type":"Polygon","arcs":[[106]],"properties":{"type":"way","id":92994202,"tags":{"addr:housenumber":"2950","addr:street":"Southwest Jefferson Way","alt_name":"RdLg","building":"yes","name":"Reed Lodge"},"nodes":[1077990366,1077990170,1077990216,1077990192,1077990229,1077990318,1077990188,1077990372,1077990137,1077990436,1077990165,1077990316,1077990353,1077990251,1077990366]}},{"type":"Polygon","arcs":[[107,108]],"properties":{"type":"way","id":92994209,"tags":{"building":"university","name":"Peavy Hall","wikidata":"Q21016099","wikipedia":"en:Peavy Hall"},"nodes":[1077990218,9778133419,9778133420,9778133421,9778133422,1077990153,9778133426,9778133425,9778133424,1077990167,1077990134,9778133447,9778133423,1077990398,1077990183,9778133446,1077990218]}},{"type":"Polygon","arcs":[[109]],"properties":{"type":"way","id":92994898,"tags":{"addr:housenumber":"450","addr:street":"Southwest 30th Street","alt_name":"Dryd","building":"yes","name":"Dryden Hall","wikidata":"Q20807408","wikipedia":"en:Dryden Hall"},"nodes":[9778133417,9778133418,1078034528,1078034772,1078034781,1078034664,9778133417]}},{"type":"Polygon","arcs":[[-108,110]],"properties":{"type":"way","id":92994899,"tags":{"addr:housenumber":"3180","addr:street":"SW Jefferson Way","alt_name":"Rich","building":"university","name":"Richardson Hall"},"nodes":[1078034509,9778133428,9778133427,1077990398,1077990183,9778133446,9778133445,1078034800,1078034440,1078034620,1078034403,1078034325,9778133437,1078034413,9778133436,9778133438,9778133439,9778133440,9778133441,9778133442,9778133443,9778133444,9778133448,1078034468,1078034342,9778133435,1078034352,1078034491,9778133434,9778133433,1078034739,1078034804,1078034347,1078034373,1078034566,1078034677,1078034603,9778133432,9778133431,9778133430,9778133429,1078034561,1078034509]}},{"type":"Polygon","arcs":[[111]],"properties":{"type":"way","id":92994900,"tags":{"alt_name":"FSL","building":"university","name":"Forest Sciences Lab"},"nodes":[1078034532,1078034507,1078034599,9778133465,9778133463,9778133464,1078034496,1078034666,1078034653,1078034340,1078034824,1078034564,1078034784,1078034605,9778133453,9778133454,1078034853,1078034779,9778133456,9778133455,1078034545,1078034484,1078034456,1078034582,1078034834,1078034349,1078034511,1078034778,1078034773,1078034539,1078034541,1078034379,1078034538,1078034420,1078034417,1078034736,1078034810,1078034856,1078034625,1078034657,1078034345,1078034849,1078034660,1078034459,1078034560,1078034375,9778133451,9778133452,1078034694,1078034753,1078034531,1078034355,1078034514,9778133466,1078034576,9778133475,9778133476,9778133477,9778133478,9778133479,9778133488,9778133490,9778133491,9778133489,9778133471,9778133486,9778133487,9778133485,9778133484,9778133483,9778133482,9778133473,9778133481,9778133480,9778133474,9778133472,9778133470,9778133469,9778133467,9778133468,1078034532]}},{"type":"Polygon","arcs":[[112]],"properties":{"type":"way","id":92994901,"tags":{"addr:housenumber":"3101","addr:street":"Southwest Washington Way","alt_name":"VRL","building":"yes","name":"Veterinary Research Lab"},"nodes":[1078034558,1078034527,1078034593,1078034524,1078034535,1078034569,1078034548,1078034405,1078034443,1078034749,1078034558]}},{"type":"Polygon","arcs":[[113]],"properties":{"type":"way","id":92994905,"tags":{"addr:housenumber":"700","addr:street":"Southwest 30th Street","alt_name":"Magr","building":"university","name":"Magruder Hall"},"nodes":[1078034416,1765736564,1765736547,1078034669,1078034690,8086776671,8086776670,1765736518,1765736508,1765736489,1078034461,1078034740,1078034821,1078034411,2692263182,8086776669,1078034470,1765736494,1078034380,1078034534,1078034433,1078034321,1078034552,1078034408,8086776672,1078034385,8086776673,8086776674,1078034622,1078034488,1078034530,1078034629,1078034568,1078034475,1078034416]}},{"type":"Polygon","arcs":[[114]],"properties":{"type":"way","id":100276593,"tags":{"alt_name":"AEL","building":"warehouse","name":"Aero Engineering Lab"},"nodes":[1159008774,1159008819,1159008792,1159008755,1159008774]}},{"type":"Polygon","arcs":[[115]],"properties":{"type":"way","id":100276594,"tags":{"building":"university"},"nodes":[1159008726,1159008789,1159008811,1159008818,1159008726]}},{"type":"Polygon","arcs":[[116]],"properties":{"type":"way","id":100276595,"tags":{"building":"warehouse"},"nodes":[1159008750,1159008790,1159008797,1159008779,1159008858,1159008808,1159008766,1159008776,1159008750]}},{"type":"Polygon","arcs":[[117]],"properties":{"type":"way","id":100276597,"tags":{"building":"warehouse"},"nodes":[1159008828,1159008801,1159008839,1159008807,1159008812,1159008806,1159008810,1159008816,1159008828]}},{"type":"Polygon","arcs":[[118]],"properties":{"type":"way","id":100276599,"tags":{"building":"university"},"nodes":[1159008735,1159008784,1159008685,1159008728,1159008735]}},{"type":"Polygon","arcs":[[119]],"properties":{"type":"way","id":100276601,"tags":{"building":"yes"},"nodes":[1159008817,1159008795,1159008677,1159008713,1159008817]}},{"type":"Polygon","arcs":[[120]],"properties":{"type":"way","id":100276603,"tags":{"building":"university"},"nodes":[1159008716,1159008823,1159008826,1159008821,1159008829,1159008719,1159008716]}},{"type":"Polygon","arcs":[[121]],"properties":{"type":"way","id":100276605,"tags":{"building":"university"},"nodes":[1159008725,1159008838,1159008798,1159008785,1159008725]}},{"type":"Polygon","arcs":[[122]],"properties":{"type":"way","id":100276606,"tags":{"building":"greenhouse"},"nodes":[1159008711,1159008740,1159008772,1159008682,1159008711]}},{"type":"Polygon","arcs":[[123]],"properties":{"type":"way","id":100276613,"tags":{"building":"greenhouse"},"nodes":[1159008743,1159008732,1159008749,1159008794,1159008743]}},{"type":"Polygon","arcs":[[124]],"properties":{"type":"way","id":100276616,"tags":{"addr:housenumber":"3015","addr:street":"Southwest Western Boulevard","building":"university"},"nodes":[1159008773,1159008799,1159008847,1159008783,1159008852,1159008809,1159008804,1159008721,1159008853,1159008861,1159008840,1159008678,1159008699,1159008686,1159008708,1159008865,1159008773]}},{"type":"Polygon","arcs":[[125]],"properties":{"type":"way","id":100276617,"tags":{"building":"warehouse"},"nodes":[1159008815,1159008723,1159008680,1159008702,1159008815]}},{"type":"Polygon","arcs":[[126]],"properties":{"type":"way","id":100276619,"tags":{"building":"university"},"nodes":[1159008705,1159008724,1159008866,1159008827,1159008705]}},{"type":"Polygon","arcs":[[127]],"properties":{"type":"way","id":100276620,"tags":{"alt_name":"OcSB","building":"warehouse","name":"Oceanography Staging"},"nodes":[1159008820,1159008748,1159008824,1159008707,1159008849,1159008859,1159008820]}},{"type":"Polygon","arcs":[[128]],"properties":{"type":"way","id":100276623,"tags":{"building":"university"},"nodes":[1159008833,1159008718,1159008730,1159008841,1159008833]}},{"type":"Polygon","arcs":[[129]],"properties":{"type":"way","id":100277767,"tags":{"alt_name":"Veterinary Horse Barn","building":"yes","name":"Pole Building"},"nodes":[1159031597,1159031341,1159031388,1159031343,1159031432,1159031537,1159031519,1159031315,1159031321,1159031524,1159031451,1159031580,1159031597]}},{"type":"Polygon","arcs":[[130]],"properties":{"type":"way","id":100277768,"tags":{"building":"yes"},"nodes":[1159031447,1159031533,1159031452,1159031420,1159031447]}},{"type":"Polygon","arcs":[[131]],"properties":{"type":"way","id":100277793,"tags":{"alt_name":"VtBn","building":"yes","name":"Veterinary Dairy Barn"},"nodes":[5090486956,5090486955,1159031539,1159031472,1159031344,1159031456,1159031329,1159031502,1159031474,1159031562,1159031473,1159031421,1159031513,1159031508,1159031305,1159031374,1159031385,1159031434,1159031599,1159031463,1159031588,1159031501,1159031379,1159031396,5090486956]}},{"type":"Polygon","arcs":[[132]],"properties":{"type":"way","id":100277794,"tags":{"addr:housenumber":"601","addr:street":"Southwest 35th Street","building":"university","name":"UHDS Maintenance Center"},"nodes":[1159031371,1159031602,1159031504,1159031485,1159031512,1159031442,1159031593,1159031429,1159031591,1159031590,1159031330,1159031423,1159031371]}},{"type":"Polygon","arcs":[[133]],"properties":{"type":"way","id":100277801,"tags":{"addr:housenumber":"3151","addr:street":"Southwest Washington Way","alt_name":"LAR","building":"yes","name":"Laboratory Animal Research Center"},"nodes":[1159031561,1159031331,1159031467,1159031303,1159031520,1159031548,1159031608,1159031484,1159031364,1159031579,1159031413,1159031324,1159031435,1159031561]}},{"type":"Polygon","arcs":[[134]],"properties":{"type":"way","id":100278455,"tags":{"alt_name":"HWRL","building":"yes","name":"Hinsdale Wave Research Lab"},"nodes":[1159040295,1159040275,1159040255,1159040310,1159040296,1159040218,1159040293,1159040254,1159040295]}},{"type":"Polygon","arcs":[[135]],"properties":{"type":"way","id":100278456,"tags":{"building":"yes"},"nodes":[1159040277,1159040287,1159040246,1159040273,1159040277]}},{"type":"Polygon","arcs":[[136]],"properties":{"type":"way","id":100278457,"tags":{"building":"yes"},"nodes":[1159040292,1159040226,1159040176,1159040312,1159040292]}},{"type":"Polygon","arcs":[[137]],"properties":{"type":"way","id":100278461,"tags":{"building":"yes"},"nodes":[1159040316,1159040274,1159040200,1159040289,1159040316]}},{"type":"Polygon","arcs":[[138]],"properties":{"type":"way","id":100278462,"tags":{"building":"yes"},"nodes":[1159040193,1159040278,1159040230,1159040290,1159040193]}},{"type":"Polygon","arcs":[[139]],"properties":{"type":"way","id":100278463,"tags":{"addr:housenumber":"850","addr:street":"Southwest 35th Street","alt_name":"Fund","building":"university","name":"OSU Foundation Center"},"nodes":[1159040237,1159040249,1159040251,1159040313,1159040161,1159040192,1159040182,1159040266,1159040271,1159040233,1159040221,1159040244,1159040225,1159040177,1159040223,1159040196,1159040183,1159040175,1159040206,1159040302,1159040169,1159040199,1159040159,1159040171,1159040181,1159040179,1159040217,1159040166,1159040299,1159040205,1159040270,1159040237]}},{"type":"Polygon","arcs":[[140]],"properties":{"type":"way","id":100458413,"tags":{"building":"shed"},"nodes":[1161339382,1161340029,1161339754,1161340098,1161339926,1161339884,1161339382]}},{"type":"Polygon","arcs":[[141]],"properties":{"type":"way","id":100458418,"tags":{"building":"university","name":"Beef Research"},"nodes":[1161340084,1161339823,1161339643,1161340079,1161340084]}},{"type":"Polygon","arcs":[[142]],"properties":{"type":"way","id":100458420,"tags":{"building":"shed"},"nodes":[1161339826,1161340004,1161340182,1161339558,1161339826]}},{"type":"Polygon","arcs":[[143]],"properties":{"type":"way","id":100458421,"tags":{"addr:city":"Corvallis","addr:housenumber":"500","addr:postcode":"97330","addr:state":"OR","addr:street":"Southwest 35th Street","amenity":"fire_station","building":"yes","name":"Fire Station #2","operator":"Corvallis Fire Department"},"nodes":[1161340093,1161339592,1161340300,1161339447,1161339746,1161340248,1161339708,1161340036,7767776361,7767776363,7767776362,7767776360,1161339788,7767776357,1161339937,1161339575,1161340093]}},{"type":"Polygon","arcs":[[144]],"properties":{"type":"way","id":100459559,"tags":{"addr:housenumber":"2550","addr:street":"Southwest Jefferson Way","alt_name":"More","building":"university","name":"Moreland Hall"},"nodes":[1161349643,1161349632,1161349635,1161349631,1161349638,1161349648,1161349652,1161349636,1161349649,1161349646,1161349633,1161349642,1161349643]}},{"type":"Polygon","arcs":[[145]],"properties":{"type":"way","id":100496628,"tags":{"building":"university"},"nodes":[1161755345,1161755876,1161756576,1161755510,1161755345]}},{"type":"Polygon","arcs":[[146]],"properties":{"type":"way","id":100496629,"tags":{"building":"greenhouse"},"nodes":[1161756047,1161756053,1161756411,1161756093,1161756047]}},{"type":"Polygon","arcs":[[147]],"properties":{"type":"way","id":100496633,"tags":{"building":"university"},"nodes":[1161756593,1161756066,1161756566,1161756142,1161756593]}},{"type":"Polygon","arcs":[[148]],"properties":{"type":"way","id":100496635,"tags":{"addr:housenumber":"3450","addr:street":"Southwest Campus Way","alt_name":"NFSRc","building":"university","building:levels":"3","name":"National Forage Seed Research Center","roof:levels":"0","roof:shape":"flat"},"nodes":[1161755406,1161755450,1161755718,1161755835,1161756518,1161756272,1161755531,1161755528,1161756668,1161756795,1161756595,1161756096,1161755406]}},{"type":"Polygon","arcs":[[149]],"properties":{"type":"way","id":100496637,"tags":{"building":"greenhouse"},"nodes":[1161755941,1161756676,1161755867,1161755374,1161755941]}},{"type":"Polygon","arcs":[[150]],"properties":{"type":"way","id":100496640,"tags":{"building":"greenhouse"},"nodes":[1161756041,1161755780,1161755566,1161756553,1161756041]}},{"type":"Polygon","arcs":[[151]],"properties":{"type":"way","id":100496643,"tags":{"addr:housenumber":"3291","addr:street":"Southwest Campus Way","alt_name":"SL","building":"university","building:levels":"1","name":"Seed Lab","roof:levels":"1","roof:shape":"gabled"},"nodes":[1161756808,1161755950,1161755727,1161755713,1161756808]}},{"type":"Polygon","arcs":[[152]],"properties":{"type":"way","id":100496649,"tags":{"building":"yes","name":"West Greenhouses"},"nodes":[1161756726,1161756662,1161756559,1161756474,1161755884,1161755785,1161755691,1161755914,1161755646,1161755608,1161755552,1161755365,1161756145,1161756609,1161755947,1161756718,1161755414,1161755368,1161755404,5090486972,5090486975,1161756211,1161755839,5090486974,5090486976,5090486977,1161755597,1161756263,1161756573,1161755410,1161755493,1161755402,1161756422,1161756460,1161755366,1161756068,1161755603,1161756498,1161755935,1161756194,1161755523,1161755988,1161755879,1161755956,1161755673,1161755561,1161755448,1161756163,1161755675,1161755490,1161756652,1161755829,1161755557,1161756658,1161755559,1161755999,1161755467,1161755781,1161756214,1161755441,1161755871,5090486979,5090486978,1161756002,5090486980,5090486981,1161755685,1161756730,1161755732,1161756119,1161756726]}},{"type":"Polygon","arcs":[[153]],"properties":{"type":"way","id":100496655,"tags":{"building":"greenhouse"},"nodes":[1161755338,1161756100,1161756493,1161756742,1161755338]}},{"type":"Polygon","arcs":[[154]],"properties":{"type":"way","id":100496656,"tags":{"addr:housename":"University Motor Pool","addr:housenumber":"3200","addr:street":"Southwest Campus Way","alt_name":"MoPl","building":"university","building:levels":"1","name":"University Motor Pool","roof:levels":"0","roof:shape":"round"},"nodes":[1161756320,1161755565,1161755486,1161756206,1161756250,1161756106,1161756790,1161755446,1161755909,1161756291,1161756464,1161756656,1161756320]}},{"type":"Polygon","arcs":[[155]],"properties":{"type":"way","id":100496661,"tags":{"addr:housenumber":"190","addr:street":"Southwest 35th Street","alt_name":"EHSA","building":"yes","name":"Environmental Health & Saftey Annex"},"nodes":[1161755779,1161756505,1161755482,1161756169,1161755779]}},{"type":"Polygon","arcs":[[156]],"properties":{"type":"way","id":100496671,"tags":{"addr:housenumber":"3420","addr:street":"Northwest Orchard Avenue","alt_name":"HCRL","building":"university","name":"Horticulture Crops Research Lab"},"nodes":[1161756348,1161755991,1161755376,1161756115,1161756410,1161756602,1161756365,1161756472,1161756348]}},{"type":"Polygon","arcs":[[157]],"properties":{"type":"way","id":100496677,"tags":{"addr:housenumber":"3260","addr:street":"Southwest Campus Way","alt_name":"ClkL","building":"yes","name":"Clark Laboratory"},"nodes":[1161755960,1161755735,1161755775,1161756155,1161756112,1161755900,1161756234,1161756414,1161756382,1161756509,1161755960]}},{"type":"Polygon","arcs":[[158]],"properties":{"type":"way","id":100496678,"tags":{"building":"shed"},"nodes":[1161756444,1161756316,1161756418,1161755413,1161755911,1161756306,1161755371,1161755904,1161756243,1161756153,1161756444]}},{"type":"Polygon","arcs":[[159]],"properties":{"type":"way","id":100549092,"tags":{"addr:housenumber":"3451","addr:street":"Southwest Jefferson Way","alt_name":"RC","building":"university","name":"Radiation Center"},"nodes":[1162457271,1162457225,1162457283,1162457293,1162457182,1162457178,1162457279,1162457172,1162457220,1162457174,1162457313,1162457275,1162457281,1162457267,1162457210,1162457229,1162457175,1162457310,1162457233,1162457302,1162457308,1162457253,1162457239,1162457299,1162457271]}},{"type":"Polygon","arcs":[[160]],"properties":{"type":"way","id":100550164,"tags":{"building":"shed"},"nodes":[1162509475,1162509165,10187579835,1162509483,1162509475]}},{"type":"Polygon","arcs":[[161]],"properties":{"type":"way","id":100550166,"tags":{"addr:city":"Corvallis","addr:housenumber":"1553","addr:postcode":"97331","addr:street":"Southwest A Avenue","alt_name":"Pride","building":"yes","building:levels":"1","name":"Pride Center"},"nodes":[1162509487,1162509275,1162509422,1162509295,1162509190,1162509442,1162509487]}},{"type":"Polygon","arcs":[[162]],"properties":{"type":"way","id":100550167,"tags":{"building":"shed"},"nodes":[1162509347,1162509274,1162509373,1162509414,1162509347]}},{"type":"Polygon","arcs":[[163]],"properties":{"type":"way","id":100550168,"tags":{"alt_name":"FmSv","building":"yes","name":"Farm Services"},"nodes":[1162509500,1162509288,1162509255,1162509248,1162509362,1162509265,1162509500]}},{"type":"Polygon","arcs":[[164]],"properties":{"type":"way","id":100550169,"tags":{"building":"shed"},"nodes":[1162509185,1162509272,1162509502,1162509445,1162509471,1162509361,1162509427,1162509394,1162509159,1162509506,1162509182,1162509469,1162509185]}},{"type":"Polygon","arcs":[[165]],"properties":{"type":"way","id":100550171,"tags":{"alt_name":"RRL","building":"shed","name":"Rabbit Research Lab"},"nodes":[1162509305,1162509344,1162509286,10119864643,1162509246,1162509297,1162509329,1162509489,1162509371,1162509466,1162509315,1162509332,1162509334,1162509493,1162509416,1162509450,1162509354,1162509464,1162509472,1162509232,1162509155,1162509305]}},{"type":"Polygon","arcs":[[166]],"properties":{"type":"way","id":100550172,"tags":{"addr:city":"Corvallis","addr:housenumber":"606","addr:postcode":"97331","addr:street":"Southwest 15th Street","alt_name":"Adam","building":"yes","name":"Adams Hall"},"nodes":[1162509420,1162509509,1162509348,1162509366,1162509389,1162509183,1162509292,1162509290,1162509449,1162509396,1162509296,1162509277,1162509311,1162509439,1162509227,1162509221,1162509211,1162509180,1162509200,1162509152,1162509293,1162509278,1162509420]}},{"type":"Polygon","arcs":[[167]],"properties":{"type":"way","id":100550173,"tags":{"alt_name":"PrSb","building":"yes","name":"Property Services"},"nodes":[1162509365,1162509368,1162509331,1162509157,1162509178,1162509447,1162509224,1162509484,3209505150,3209505157,1162509365]}},{"type":"Polygon","arcs":[[168]],"properties":{"type":"way","id":100550175,"tags":{"building":"shed"},"nodes":[1162509410,1162509269,1162509236,1162509397,1162509410]}},{"type":"Polygon","arcs":[[169]],"properties":{"type":"way","id":100550176,"tags":{"building":"shed"},"nodes":[1162509452,1162509349,1162509209,1162509392,1162509452]}},{"type":"Polygon","arcs":[[170]],"properties":{"type":"way","id":100813003,"tags":{"building":"roof"},"nodes":[1165171346,1165170986,1165171258,1165171232,1165171346]}},{"type":"Polygon","arcs":[[171]],"properties":{"type":"way","id":100813012,"tags":{"addr:housenumber":"110","addr:street":"Southwest 26th Street","alt_name":"Bate","building":"university","name":"Bates Hall"},"nodes":[1165170897,1165171125,1165170912,1165170792,1165171158,1165170865,1165170820,1165171330,1165170951,1165170721,1165170931,1165170945,1165170772,1165171255,1165171337,1165171019,1165170897]}},{"type":"Polygon","arcs":[[172]],"properties":{"type":"way","id":100813017,"tags":{"addr:housenumber":"2550","addr:street":"Southwest Monroe Avenue","alt_name":"Dgeo","building":"university","name":"Dawes House"},"nodes":[1165170846,1165170932,1165170868,1165171117,1165170846]}},{"type":"Polygon","arcs":[[173]],"properties":{"type":"way","id":100813036,"tags":{"addr:housenumber":"2638","addr:street":"Southwest Jackson Street","building":"university","name":"Corvallis Multicultural Literary Center"},"nodes":[1165170794,1165171003,1165170724,1165171262,1165170765,1165171203,1165171039,1165171285,1165170794]}},{"type":"Polygon","arcs":[[174]],"properties":{"type":"way","id":100974468,"tags":{"addr:housenumber":"155","addr:street":"Northwest Kings Boulevard","alt_name":"GEM","building":"apartments","building:levels":"8","name":"The Gem"},"nodes":[1166379435,1166379118,1166379418,1166379406,1166379266,1166379188,1166379282,1166379113,1166379271,1166379219,1166379092,1166379400,8680454607,1166379107,1166379164,1166379421,1166379239,1166379121,1166379382,1166379183,1166379309,1166379248,1166379391,1166379388,1166379289,1166379274,1166379137,1166379428,1166379430,1166379344,1166379429,1166379424,1166379435]}},{"type":"Polygon","arcs":[[175,176]],"properties":{"type":"way","id":136371833,"tags":{"building":"yes"},"nodes":[1496001349,1077725878,1496001347,1496001110,1496001349]}},{"type":"Polygon","arcs":[[177]],"properties":{"type":"way","id":136371834,"tags":{"addr:housename":"Linus Pauling Science Center","addr:housenumber":"2900","addr:street":"Southwest Campus Way","alt_name":"LPCC","building":"university","building:levels":"4","name":"Linus Pauling Science Center","roof:shape":"flat"},"nodes":[1496001045,1496001169,1496000920,1496001221,1496000973,1496001277,1496001033,1496001327,1496001079,1496001372,1496001118,1496001045]}},{"type":"Polygon","arcs":[[178,179]],"properties":{"type":"way","id":136371844,"tags":{"building":"yes"},"nodes":[1077725919,1496001000,1496001015,1496001127,1077725919]}},{"type":"Polygon","arcs":[[180]],"properties":{"type":"way","id":136371846,"tags":{"addr:housenumber":"2201","addr:street":"Southwest Washington Way","alt_name":"Navy","building":"yes","name":"Naval ROTC Armory"},"nodes":[1496001299,1496001404,1496001174,1496000928,1496001228,1496000979,1496001286,1496001040,1496001329,1496001084,1496001378,1496001149,1496000897,1496001197,1496000950,1496001257,1496001299]}},{"type":"Polygon","arcs":[[181]],"properties":{"type":"way","id":136371847,"tags":{"building":"yes"},"nodes":[1496001080,1496001203,1496000957,1496001260,1496001080]}},{"type":"Polygon","arcs":[[182]],"properties":{"type":"way","id":136371856,"tags":{"building":"yes"},"nodes":[1496000922,1496001223,1496000975,1077726013,1496000922]}},{"type":"Polygon","arcs":[[183]],"properties":{"type":"way","id":136371878,"tags":{"building":"yes"},"nodes":[1496001019,1496001194,1496000945,1496001262,1496001250,1496001312,1496001055,1496001019]}},{"type":"Polygon","arcs":[[176,184,178,185]],"properties":{"type":"way","id":136371892,"tags":{"addr:housenumber":"430","addr:street":"Southwest Langton Place","alt_name":"Goss","building":"stadium","name":"Goss Stadium","wheelchair":"yes"},"nodes":[1077725885,1077725873,1077725879,1077725883,1077725886,1077726048,1496001039,1077725854,1496001165,1496001338,1496001095,1496001284,1077725916,1077725852,1496001204,1496001066,1077725874,1496001015,1496001000,1077725919,1496001408,1077725866,1077725878,1496001349,1496001110,1496001113,1496001394,1496001167,1496001273,7638798750,1496001150,1496001316,1496001020,1496001265,1077725824,1077725885]}},{"type":"Polygon","arcs":[[186]],"properties":{"type":"way","id":136374085,"tags":{"addr:city":"Corvallis","addr:housenumber":"1701","addr:postcode":"97333","addr:state":"OR","addr:street":"Southwest Western Boulevard","alt_name":"INTO","building":"dormitory","name":"International Living Learning Center"},"nodes":[1496025550,1496025830,1496025734,1496025631,1496025525,1496025399,1496025776,1496025693,1496025592,1496025472,1496025835,1496025738,1496025635,1496025529,1496025403,1496025780,1496025677,1496025581,1496025447,1496025822,1496025723,1496025620,1496025516,1496025389,1496025766,1496025664,1496025562,1496025431,1496025810,1496025710,1496025609,1496025500,1496025855,1496025758,1496025653,1496025546,1496025420,1496025798,1496025698,1496025596,1496025475,1496025843,1496025745,1496025640,1496025534,1496025408,1496025785,1496025683,1496025550]}},{"type":"Polygon","arcs":[[187]],"properties":{"type":"way","id":136374093,"tags":{"building":"yes"},"nodes":[1496025839,1496025433,1496025741,1496025812,1496025839]}},{"type":"Polygon","arcs":[[188]],"properties":{"type":"way","id":136374105,"tags":{"addr:housenumber":"1262","addr:street":"Southwest Adams Avenue","alt_name":"CCC","amenity":"childcare","building":"yes","name":"Beaver Beginnings"},"nodes":[1496025787,1496025614,1496025504,1496025858,1496025760,1496025656,1496025548,1496025423,1496025801,1496025701,1496025599,1496025478,1496025847,1496025751,1496025644,1496025538,1496025412,1496025790,1496025689,1496025588,1496025461,1496025831,1496025735,1496025632,1496025526,1496025400,1496025778,1496025675,1496025787]}},{"type":"Polygon","arcs":[[189]],"properties":{"type":"way","id":136374114,"tags":{"building":"yes","name":"Sports Performance Center"},"nodes":[1496025502,1496025584,1496025457,1496025552,1496025426,1496025704,1496025487,1496025849,1496025646,1496025793,1496025692,1496025591,1496025470,1496025634,1496025528,1496025402,1496025779,1496025676,1496025446,1496025722,1496025619,1496025515,1496025388,1496025765,1496025663,1496025558,1496025499,1496025854,1496025652,1496025545,1496025419,1496025797,1496025502]}},{"type":"Polygon","arcs":[[190]],"properties":{"type":"way","id":136957721,"tags":{"brand":"Hilton Garden Inn","brand:wikidata":"Q1162859","brand:wikipedia":"en:Hilton Garden Inn","building":"yes","name":"Hilton Garden Inn Corvallis","tourism":"hotel"},"nodes":[1502474730,1502474953,1502474881,1502474866,1502474781,1502474697,1502474976,1502474830,1502474749,1502474661,1502474946,1502474883,1502474800,1502474715,1502474994,1502474844,1502474761,1502474675,1502474959,1502474949,1502474872,1502474793,1502474703,1502474912,1502474837,1502474755,1502474667,1502474656,1502474936,1502474862,1502474778,1502474982,1502474904,1502474823,1502474741,1502474728,1502475000,1502474868,1502474788,1502474700,3209505040,1502474908,1502474833,3209505037,1502474752,1502474664,1502475007,1502474930,1502474857,1502474771,1502474979,1502474899,1502474820,1502474737,1502474779,1502474694,1502474974,1502474894,1502474742,1502474658,1502474942,1502474863,1502474730]}},{"type":"Polygon","arcs":[[191]],"properties":{"type":"way","id":158428389,"tags":{"addr:housename":"Azalea House","addr:housenumber":"1050","addr:postcode":"97333","addr:street":"Southwest Madison Avenue","building":"residential","name":"Azalea House"},"nodes":[1706214252,1706214221,1706214254,1706214184,1706214305,1706214246,1706214180,1706214283,1706214252]}},{"type":"Polygon","arcs":[[192]],"properties":{"type":"way","id":158428391,"tags":{"addr:housename":"Dixon Lodge","addr:postcode":"97333","addr:street":"Southwest 11th Street","building":"residential","name":"Dixon Lodge"},"nodes":[1706214199,1706214319,1706214260,1706214177,1706214279,1706214295,1706214213,1706214206,1706214249,1706214256,1706214316,1706214178,1706214199]}},{"type":"Polygon","arcs":[[193]],"properties":{"type":"way","id":158428392,"tags":{"addr:housename":"Oxford House","addr:postcode":"97333","building":"yes","name":"Oxford House"},"nodes":[1706214174,1706214203,1706214298,1706214182,1706214179,1706214243,1706214223,1706214219,1706214261,1706214304,1706214217,1706214215,1706214258,1706214259,3105099492,1706214174]}},{"type":"Polygon","arcs":[[194,195]],"properties":{"type":"way","id":164981885,"tags":{"building":"yes"},"nodes":[1765736556,1765736513,1765736511,1765736530,1765736562,1765736495,1765736556]}},{"type":"Polygon","arcs":[[-195,196]],"properties":{"type":"way","id":164981886,"tags":{"building":"yes"},"nodes":[1765736481,1765736537,1765736515,1765736556,1765736495,1765736562,1765736481]}},{"type":"Polygon","arcs":[[197]],"properties":{"type":"way","id":212251538,"tags":{"addr:housenumber":"691","addr:street":"Southwest 26th Street","alt_name":"Centro Cultural Cesar Chavez","building":"university","name":"Centro Cultural Csar Chvez","source":"Bing"},"nodes":[2221311360,2221311357,5762159992,5762159991,5762159990,5762159989,2221311358,2221311356,5762159988,5762159987,5762160006,5762159985,5762159986,2221311360]}},{"type":"Polygon","arcs":[[198]],"properties":{"type":"way","id":212252046,"tags":{"addr:housenumber":"671","addr:street":"Southwest 26th Street","building":"university","name":"Beth Ray Student Success Center"},"nodes":[2221315044,2221315042,2221315048,2221315050,2221315043,2221315046,2221315055,2221315053,2221315044]}},{"type":"Polygon","arcs":[[199]],"properties":{"type":"way","id":222238297,"tags":{"building":"yes","leisure":"sports_centre","name":"Tennis Pavillion","note":"OSU Tennis League Su-Th 9-11pm - OSU Tennis Club Mo-Th 7-9pm","opening_hours":"Su-Th 21:00-23:00; Th 19:00-21:00","sport":"tennis","surface":"asphalt","wifi":"campus"},"nodes":[599127431,3066919210,599127436,599127439,3066919209,599127428,599127431]}},{"type":"Polygon","arcs":[[200]],"properties":{"type":"way","id":265112825,"tags":{"addr:city":"Corvallis","addr:housenumber":"2251","addr:postcode":"97331","addr:state":"OR","addr:street":"Southwest Jefferson Way","building":"school","building:levels":"4","name":"Student Experience Center"},"nodes":[2707714361,5762227215,2707714362,5762227202,5762227203,5762227223,5762227224,5762227210,5762227205,5762227204,2707714363,5762227220,5762227217,5762227231,5762227218,2707714364,5762227199,5762227200,5762227216,5762227201,5762227198,2707714361]}},{"type":"Polygon","arcs":[[201]],"properties":{"type":"way","id":265115620,"tags":{"abbr_name":"TEBE","addr:city":"Corvallis","addr:housenumber":"1351","addr:postcode":"97331","addr:street":"Southwest 13th Street","building":"dormitory","name":"Tebeau Hall"},"nodes":[3105083730,5268582224,5268582228,5268582227,5268582223,5268582222,5268582226,5268582225,5268582221,3105037092,3105037093,5268580719,2707741039,5268580720,5268580718,5268580717,5268580714,5268580716,5268580715,5268580713,2707741040,5268580708,5268580712,5268580711,5268580707,5268580706,5268580710,5268580709,5268580705,5268580701,5268580704,5268580703,5268580700,5268580699,5268580702,5268580698,5268580697,5268580696,5268580695,5268580694,3105083730]}},{"type":"Polygon","arcs":[[202]],"properties":{"type":"way","id":296600790,"tags":{"building":"house"},"nodes":[3003956277,3003956275,3003956272,3003956268,3003956266,3003956265,3003956261,3003956260,3003956258,3003956262,3003956264,3003956263,3003956267,3003956269,3003956270,3003956278,3003956277]}},{"type":"Polygon","arcs":[[203]],"properties":{"type":"way","id":296600916,"tags":{"building":"yes"},"nodes":[3003956236,3003956213,3003956220,3003956245,3003956236]}},{"type":"Polygon","arcs":[[204]],"properties":{"type":"way","id":305818179,"tags":{"addr:city":"Corvallis","addr:housenumber":"2751","addr:postcode":"97331","addr:street":"Southwest Jefferson Way","building":"university","building:levels":"4","name":"Austin Hall","wikidata":"Q20806882"},"nodes":[3105024829,3172600866,3172600865,3105024830,3105027608,3172600864,3172600863,3105024832,3105024829]}},{"type":"Polygon","arcs":[[205]],"properties":{"type":"way","id":305818384,"tags":{"addr:city":"Corvallis","addr:housenumber":"165","addr:postcode":"97321","addr:state":"OR","addr:street":"Southwest Sackett Place","building":"school","building:levels":"4","name":"Learning Innovation Center","note":"Also known as the LInC."},"nodes":[3105027609,3756437622,3756437623,3105027610,3105027611,3756437624,3756459725,3756459726,3105027612,3756459727,3756437621,3756437620,3105027609]}},{"type":"Polygon","arcs":[[206]],"properties":{"type":"way","id":305818416,"tags":{"building":"university","building:levels":"1","name":"Asian Pacific Cultural Center"},"nodes":[3105031307,3105031308,3105031309,3105031310,3105031307]}},{"type":"Polygon","arcs":[[207]],"properties":{"type":"way","id":305818656,"tags":{"addr:housenumber":"311","addr:street":"Southwest 26th Street","building":"university","name":"Native American Longhouse"},"nodes":[3105034450,3105034451,3105034452,3105034453,3105034454,3105034455,3105034450]}},{"type":"Polygon","arcs":[[208]],"properties":{"type":"way","id":305819282,"tags":{"addr:housenumber":"845","addr:street":"Southwest 30th Street","building":"university","name":"Sports Medicine Building"},"nodes":[3105043229,3105043230,3105043231,3105043232,3105043229]}},{"type":"Polygon","arcs":[[209]],"properties":{"type":"way","id":305819290,"tags":{"addr:housenumber":"661","addr:street":"Southwest 30th Street","building":"university","name":"Truax Indoor Practice Center"},"nodes":[3105043452,3105043453,3105043454,3105043455,3105043452]}},{"type":"Polygon","arcs":[[210]],"properties":{"type":"way","id":305821122,"tags":{"addr:housename":"Hallie Ford Center","addr:housenumber":"2631","addr:street":"Southwest Campus Way","building":"university","building:levels":"3","name":"Hallie Ford Center","roof:shape":"flat"},"nodes":[3105063930,3105063931,3105063932,3105063933,3105063934,3105063935,3105063936,3105063937,3105063938,3105063939,3105063940,3105063941,3105063930]}},{"type":"Polygon","arcs":[[211]],"properties":{"type":"way","id":305821351,"tags":{"addr:housename":"Lonnie B Harris Black Cultural Center","addr:housenumber":"100","addr:street":"Monroe Avenue","building":"university","name":"Black Cultural Center"},"nodes":[3105063942,3105063943,3105063944,3105063945,3105063942]}},{"type":"Polygon","arcs":[[-51,212]],"properties":{"type":"way","id":305821499,"tags":{"addr:housename":"Gilbert Hall","addr:housenumber":"2100","addr:street":"Monroe Avenue","building":"university","building:levels":"4","name":"Gilbert Hall","roof:shape":"flat"},"nodes":[3105065983,3105065984,3105065985,3105065986,3105065987,3105065988,1072152033,1072152018,3105065989,3105065990,3105065983]}},{"type":"Polygon","arcs":[[213]],"properties":{"type":"way","id":305824499,"tags":{"addr:housenumber":"3452","addr:street":"Southwest Jefferson Way","building":"university","name":"Co-Gen Steam Plant"},"nodes":[3105104848,3105104849,3105104850,3105104851,3105104852,3105104853,3105104854,3105104855,3105104856,3105104857,3105104858,3105104859,3105104860,3105104861,3105104848]}},{"type":"Polygon","arcs":[[214]],"properties":{"type":"way","id":306006863,"tags":{"addr:city":"Corvallis","addr:housenumber":"1600 SW Western Avenue","addr:postcode":"97333","addr:street":"Southwest Western Boulevard","building":"commercial","name":"University Plaza"},"nodes":[3107567540,3107567541,3107567542,3107567543,3107567544,3107567545,3107567546,3107567547,3107567548,3107567549,3107567540]}},{"type":"Polygon","arcs":[[215]],"properties":{"type":"way","id":307674968,"tags":{"addr:housenumber":"3521","addr:street":"Southwest Campus Way","building":"university","building:levels":"1","name":"Oldfield Animal Teaching Facility","roof:levels":"2","roof:shape":"gabled"},"nodes":[10076243141,3128794420,8086776667,8086776668,3128794421,3128794422,10076243140,10076243139,10076243138,10076243137,10076243136,10076243135,10076243134,10076243133,10076243141]}},{"type":"Polygon","arcs":[[-39,216,-41,217]],"properties":{"type":"way","id":311431835,"tags":{"building":"yes"},"nodes":[1066538248,1066538202,3170775319,3170775320,3170775321,9878382614,3170775322,3170775323,3170775324,1066538041,1066538266,9878382615,1066538248]}},{"type":"Polygon","arcs":[[218]],"properties":{"type":"way","id":312010525,"tags":{"addr:city":"Corvallis","addr:housenumber":"141","addr:postcode":"97330","addr:state":"OR","addr:street":"Southwest 35th Street","building":"apartments"},"nodes":[3178135011,3178135012,3178135013,3178135014,3178135011]}},{"type":"Polygon","arcs":[[219]],"properties":{"type":"way","id":312010526,"tags":{"addr:city":"Corvallis","addr:housenumber":"3428","addr:postcode":"97330","addr:state":"OR","addr:street":"Northwest Jackson Avenue","building":"apartments"},"nodes":[3178135015,3178135016,3178135017,3178135018,3178135019,3178135020,3178135021,3178135022,3178135015]}},{"type":"Polygon","arcs":[[220]],"properties":{"type":"way","id":312010527,"tags":{"addr:city":"Corvallis","addr:housenumber":"3414","addr:postcode":"97330","addr:state":"OR","addr:street":"Northwest Jackson Avenue","building":"apartments"},"nodes":[3178135023,3178135024,3178135025,3178135026,3178135027,3178135028,3178135029,3178135030,3178135031,3178135032,3178135033,3178135034,3178135023]}},{"type":"Polygon","arcs":[[221]],"properties":{"type":"way","id":312010528,"tags":{"building":"apartments"},"nodes":[3178135035,3178135036,3178135037,3178135038,3178135035]}},{"type":"Polygon","arcs":[[222]],"properties":{"type":"way","id":312010529,"tags":{"building":"apartments"},"nodes":[3178135039,3178135040,3178135041,3178135042,3178135039]}},{"type":"Polygon","arcs":[[223]],"properties":{"type":"way","id":312010530,"tags":{"building":"apartments"},"nodes":[3178135043,3178135044,3178135045,3178135046,3178135043]}},{"type":"Polygon","arcs":[[224]],"properties":{"type":"way","id":312010531,"tags":{"building":"apartments"},"nodes":[3178135047,3178135048,3178135049,3178135050,3178135047]}},{"type":"Polygon","arcs":[[225]],"properties":{"type":"way","id":312010532,"tags":{"building":"house"},"nodes":[3178135051,3178135052,3178135053,3178135054,3178135051]}},{"type":"Polygon","arcs":[[226]],"properties":{"type":"way","id":312010533,"tags":{"building":"apartments"},"nodes":[3178135055,3178135056,3178135057,3178135058,3178135059,3178135060,3178137061,3178137062,3178137063,3178137064,3178137065,3178137066,3178135055]}},{"type":"Polygon","arcs":[[227]],"properties":{"type":"way","id":312010534,"tags":{"building":"house"},"nodes":[3178137067,3178137068,3178137069,3178137070,3178137067]}},{"type":"Polygon","arcs":[[228]],"properties":{"type":"way","id":312010535,"tags":{"building":"apartments"},"nodes":[3178137071,3178137072,3178137073,3178137074,3178137075,3178137076,3178137077,3178137078,3178137079,3178137080,3178137081,3178137082,3178137071]}},{"type":"Polygon","arcs":[[229]],"properties":{"type":"way","id":312010536,"tags":{"building":"house"},"nodes":[3178137083,3178137084,3178137085,3178137086,3178137083]}},{"type":"Polygon","arcs":[[230]],"properties":{"type":"way","id":312010537,"tags":{"building":"house"},"nodes":[3178137087,3178137088,3178137089,3178137090,3178137087]}},{"type":"Polygon","arcs":[[231]],"properties":{"type":"way","id":312010538,"tags":{"building":"apartments"},"nodes":[3178137091,3178137092,3178137093,3178137094,3178137091]}},{"type":"Polygon","arcs":[[232]],"properties":{"type":"way","id":312010539,"tags":{"building":"house"},"nodes":[3178137095,3178137096,3178137097,3178137098,3178137095]}},{"type":"Polygon","arcs":[[233]],"properties":{"type":"way","id":312010540,"tags":{"building":"apartments"},"nodes":[3178137099,3178137100,3178137101,3178137102,3178137099]}},{"type":"Polygon","arcs":[[234]],"properties":{"type":"way","id":312010541,"tags":{"building":"house"},"nodes":[3178137103,3178137104,3178137105,3178137106,3178137103]}},{"type":"Polygon","arcs":[[235]],"properties":{"type":"way","id":312010542,"tags":{"building":"apartments"},"nodes":[3178137107,3178137108,3178137109,3178137110,3178137111,3178137112,3178137113,3178137114,3178137115,3178137116,3178137117,3178137118,3178137107]}},{"type":"Polygon","arcs":[[236]],"properties":{"type":"way","id":312010544,"tags":{"building":"apartments"},"nodes":[3178137123,3178137124,3178137125,3178137126,3178137123]}},{"type":"Polygon","arcs":[[237]],"properties":{"type":"way","id":312010545,"tags":{"building":"apartments"},"nodes":[3178137127,3178137128,3178137129,3178137130,3178137127]}},{"type":"Polygon","arcs":[[238]],"properties":{"type":"way","id":312010546,"tags":{"building":"apartments"},"nodes":[3178137131,3178137132,3178137133,3178137134,3178137135,3178137136,3178137137,3178137138,3178137139,3178137140,3178137141,3178137142,3178137131]}},{"type":"Polygon","arcs":[[239]],"properties":{"type":"way","id":312010547,"tags":{"building":"apartments"},"nodes":[3178137143,3178137144,3178137145,3178137146,3178137143]}},{"type":"Polygon","arcs":[[240]],"properties":{"type":"way","id":312010548,"tags":{"building":"apartments"},"nodes":[3178137147,3178137148,3178137149,3178137150,3178137147]}},{"type":"Polygon","arcs":[[241]],"properties":{"type":"way","id":312010549,"tags":{"building":"apartments"},"nodes":[3178137151,3178137152,3178137153,3178137154,3178137155,3178137156,3178137157,3178137158,3178137159,3178137160,3178137261,3178137262,3178137151]}},{"type":"Polygon","arcs":[[242]],"properties":{"type":"way","id":312010550,"tags":{"building":"apartments"},"nodes":[3178137263,3178137264,3178137265,3178137266,3178137267,3178137268,3178137269,3178137270,3178137263]}},{"type":"Polygon","arcs":[[243]],"properties":{"type":"way","id":312010551,"tags":{"building":"apartments"},"nodes":[3178137271,3178137272,3178137273,3178137274,3178137271]}},{"type":"Polygon","arcs":[[244]],"properties":{"type":"way","id":314895667,"tags":{"building":"yes"},"nodes":[3209505137,3209505142,3209505128,3209505125,3209505137]}},{"type":"Polygon","arcs":[[245]],"properties":{"type":"way","id":314895668,"tags":{"building":"yes"},"nodes":[3209505153,3209505152,3209505154,3209505156,3209505153]}},{"type":"Polygon","arcs":[[246]],"properties":{"type":"way","id":314895678,"tags":{"building":"yes"},"nodes":[3209505122,3209505123,3209505113,3209505106,3209505122]}},{"type":"Polygon","arcs":[[247]],"properties":{"type":"way","id":314895682,"tags":{"building":"yes"},"nodes":[3209505149,3209505151,3209505146,3209505144,3209505149]}},{"type":"Polygon","arcs":[[248]],"properties":{"type":"way","id":346414621,"tags":{"building":"yes","power":"substation","substation":"minor_distribution"},"nodes":[3529566939,3529566940,3529566941,3529566942,3529566939]}},{"type":"Polygon","arcs":[[249]],"properties":{"type":"way","id":346414624,"tags":{"addr:city":"Corvallis","addr:housename":"Johnson Hall","addr:state":"OR","addr:street":"Southwest 26th Street","building":"university","building:levels":"3","name":"Johnson Hall"},"nodes":[5852035804,3529566948,3529566949,3529566950,3529566951,3529566952,5852035804]}},{"type":"Polygon","arcs":[[250]],"properties":{"type":"way","id":526906214,"tags":{"building":"house"},"nodes":[5123126921,5123126922,5123126923,5123126924,5123126925,5123126926,5123126927,5123126928,5123126921]}},{"type":"Polygon","arcs":[[251,-29,252,-34]],"properties":{"type":"way","id":788678967,"tags":{"alt_name":"pol","building":"dormitory","name":"Poling Hall"},"nodes":[1066538210,1066538167,1066538009,1066538232,1066538234,1066538097,1066538219,1066538007,1066538210]}},{"type":"Polygon","arcs":[[253,254]],"properties":{"type":"way","id":848663087,"tags":{"amenity":"restaurant","building":"yes","name":"Cooper's Creek BBQ"},"nodes":[7918573552,7918573551,7918573550,7918573549,7918573548,7918573552]}},{"type":"Polygon","arcs":[[255]],"properties":{"type":"way","id":848663093,"tags":{"amenity":"restaurant","building":"yes","name":"Calabaloo's"},"nodes":[7918573580,7918573579,7918573578,7918573577,7918573580]}},{"type":"Polygon","arcs":[[256]],"properties":{"type":"way","id":867482368,"tags":{"building":"yes","source":"microsoft/BuildingFootprints"},"nodes":[8085811750,8085811751,8085811752,8085811753,8085811754,8085811755,8085811750]}},{"type":"Polygon","arcs":[[257]],"properties":{"type":"way","id":867482369,"tags":{"building":"yes","source":"microsoft/BuildingFootprints"},"nodes":[8085811756,8085811757,8085811758,8085811759,8085811756]}},{"type":"Polygon","arcs":[[258]],"properties":{"type":"way","id":867484758,"tags":{"building":"yes"},"nodes":[8085833533,8085833534,8085833535,8085833536,8085833533]}},{"type":"Polygon","arcs":[[259]],"properties":{"type":"way","id":867484776,"tags":{"building":"yes","source":"microsoft/BuildingFootprints"},"nodes":[8085833629,8085833630,8085833631,8085833632,8085833629]}},{"type":"Polygon","arcs":[[260]],"properties":{"type":"way","id":867484777,"tags":{"building":"yes","source":"microsoft/BuildingFootprints"},"nodes":[8085833633,8085833634,8085833635,8085833636,8085833637,8085833638,8085833633]}},{"type":"Polygon","arcs":[[261]],"properties":{"type":"way","id":867484778,"tags":{"building":"yes","source":"microsoft/BuildingFootprints"},"nodes":[8085833639,8085833640,8085833641,8085833642,8085833639]}},{"type":"Polygon","arcs":[[262]],"properties":{"type":"way","id":867484779,"tags":{"building":"yes","source":"microsoft/BuildingFootprints"},"nodes":[8085833643,8085833644,8085833645,8085833646,8085833643]}},{"type":"Polygon","arcs":[[263]],"properties":{"type":"way","id":867484785,"tags":{"building":"yes","source":"microsoft/BuildingFootprints"},"nodes":[8085833659,8085833660,8085833661,8085833662,8085833659]}},{"type":"Polygon","arcs":[[264]],"properties":{"type":"way","id":867484786,"tags":{"addr:housenumber":"3010","addr:street":"Northwest Orchard Avenue","building":"detached","source":"microsoft/BuildingFootprints"},"nodes":[8085833663,8085833664,8085833665,8085833666,8085833663]}},{"type":"Polygon","arcs":[[265]],"properties":{"type":"way","id":867484787,"tags":{"addr:housenumber":"3020","addr:street":"Northwest Orchard Avenue","building":"detached","source":"microsoft/BuildingFootprints"},"nodes":[8085833667,8085833668,8085833669,8085833670,8085833671,8085833672,8085833673,8085833674,8085833667]}},{"type":"Polygon","arcs":[[266]],"properties":{"type":"way","id":867484788,"tags":{"building":"greenhouse"},"nodes":[8085833675,8085833676,8085833677,8085833678,8085833675]}},{"type":"Polygon","arcs":[[267]],"properties":{"type":"way","id":867489502,"tags":{"building":"roof","source":"microsoft/BuildingFootprints"},"nodes":[8085861507,8085861508,8085861509,8085861510,8085861507]}},{"type":"Polygon","arcs":[[268]],"properties":{"type":"way","id":867540218,"tags":{"building":"shed","source":"microsoft/BuildingFootprints"},"nodes":[8086284940,8086284941,8086284942,8086284943,8086284940]}},{"type":"Polygon","arcs":[[269]],"properties":{"type":"way","id":867540219,"tags":{"building":"yes","source":"microsoft/BuildingFootprints"},"nodes":[8086284944,8086284945,8086284946,8086284947,8086284944]}},{"type":"Polygon","arcs":[[270]],"properties":{"type":"way","id":867540220,"tags":{"building":"yes","source":"microsoft/BuildingFootprints"},"nodes":[8086284948,8086284949,8086284950,8086284951,8086284948]}},{"type":"Polygon","arcs":[[271]],"properties":{"type":"way","id":867540221,"tags":{"building":"yes"},"nodes":[10187579806,8086284955,10187579805,8086284952,8086284953,8086284954,10187579804,10187579803,10187579802,10187579801,10187579800,10187579799,10187579806]}},{"type":"Polygon","arcs":[[272]],"properties":{"type":"way","id":867540222,"tags":{"building":"shed","source":"microsoft/BuildingFootprints"},"nodes":[8086284956,8086284957,8086284958,8086284959,8086284960,8086284961,8086284956]}},{"type":"Polygon","arcs":[[273]],"properties":{"type":"way","id":867540223,"tags":{"building":"shed","source":"microsoft/BuildingFootprints"},"nodes":[8086284962,8086284963,8086284964,8086284965,8086284962]}},{"type":"Polygon","arcs":[[274]],"properties":{"type":"way","id":867540224,"tags":{"building":"shed","source":"microsoft/BuildingFootprints"},"nodes":[8086284966,8086284967,8086284968,8086284969,8086284966]}},{"type":"Polygon","arcs":[[275]],"properties":{"type":"way","id":867593515,"tags":{"building":"university","name":"Hogg Animal Metabolism Lab"},"nodes":[8086776658,8086776655,8086776656,8086776657,8086776658]}},{"type":"Polygon","arcs":[[276]],"properties":{"type":"way","id":867593516,"tags":{"building":"university"},"nodes":[8086776659,8086776660,8086776661,8086776662,8086776659]}},{"type":"Polygon","arcs":[[277]],"properties":{"type":"way","id":867593517,"tags":{"building":"shed"},"nodes":[8086776663,8086776664,8086776665,8086776666,8086776663]}},{"type":"Polygon","arcs":[[278]],"properties":{"type":"way","id":867593518,"tags":{"building":"service","source":"microsoft/BuildingFootprints"},"nodes":[8086776676,8086776677,8086776678,8086776679,8086776676]}},{"type":"Polygon","arcs":[[279]],"properties":{"type":"way","id":867593519,"tags":{"building":"detached","source":"microsoft/BuildingFootprints"},"nodes":[8086776680,8086776681,8086776682,8086776683,8086776680]}},{"type":"Polygon","arcs":[[280]],"properties":{"type":"way","id":949880015,"tags":{"building":"shed","name":"Feed"},"nodes":[8793534867,8793534866,8793534865,8793534864,8793534863,8793534862,8793534867]}},{"type":"Polygon","arcs":[[281]],"properties":{"type":"way","id":1011291699,"tags":{"building":"house"},"nodes":[9330330079,9330330080,9330330081,9330330082,9330330079]}},{"type":"Polygon","arcs":[[282]],"properties":{"type":"way","id":1011379142,"tags":{"addr:city":"Corvallis","addr:housenumber":"3420","addr:postcode":"97330","addr:state":"OR","addr:street":"Northwest Jackson Avenue","building":"yes"},"nodes":[9331311074,9331311075,9331311076,9331311077,9331311074]}},{"type":"Polygon","arcs":[[283]],"properties":{"type":"way","id":1011379143,"tags":{"addr:city":"Corvallis","addr:housenumber":"143","addr:postcode":"97330","addr:state":"OR","addr:street":"Southwest 35th Street","building":"yes"},"nodes":[9331311078,9331311079,9331311080,9331311081,9331311078]}},{"type":"Polygon","arcs":[[284]],"properties":{"type":"way","id":1064695149,"tags":{"building":"yes"},"nodes":[9778133457,9778133458,9778133459,9778133460,9778133461,9778133462,9778133457]}},{"type":"Polygon","arcs":[[-254,285]],"properties":{"type":"way","id":1077367313,"tags":{"amenity":"restaurant","building":"yes","description":"Ring of Fire offers entrees such as teriyaki chicken, thai noodles, grilled satay, and Vietnamese bowls (curry bowl or pho bowl) with items such as beef, chicken, shrimp, tofu, or pork. The menu also includes appetizers, side dishes, and beverages.","name":"Ring of Fire"},"nodes":[7918573547,7918573552,7918573551,7918573546,7918573547]}},{"type":"Polygon","arcs":[[286]],"properties":{"type":"way","id":1100972271,"tags":{"building":"yes"},"nodes":[10076133720,10076133717,10076133718,10076133719,10076133720]}},{"type":"Polygon","arcs":[[287]],"properties":{"type":"way","id":1100972272,"tags":{"building":"industrial"},"nodes":[10076133724,10076133721,10076133722,10076133723,10076133724]}},{"type":"Polygon","arcs":[[288]],"properties":{"type":"way","id":1113524485,"tags":{"building":"yes"},"nodes":[10187569391,10187569388,10187569389,10187569390,10187569391]}},{"type":"Polygon","arcs":[[289]],"properties":{"type":"way","id":1113524486,"tags":{"building":"yes"},"nodes":[10187579628,10187579626,10187579625,10187579624,10187579627,10187579623,10187579622,10187579621,10187579628]}},{"type":"Polygon","arcs":[[290]],"properties":{"type":"way","id":1113524487,"tags":{"building":"yes"},"nodes":[10187579636,10187579634,10187579633,10187579632,10187579635,10187579631,10187579630,10187579629,10187579636]}},{"type":"Polygon","arcs":[[291]],"properties":{"type":"way","id":1113524488,"tags":{"building":"yes"},"nodes":[10187579644,10187579642,10187579641,10187579640,10187579643,10187579639,10187579638,10187579637,10187579644]}},{"type":"Polygon","arcs":[[292]],"properties":{"type":"way","id":1113524489,"tags":{"building":"yes"},"nodes":[10187579652,10187579650,10187579649,10187579648,10187579651,10187579647,10187579646,10187579645,10187579652]}},{"type":"Polygon","arcs":[[293]],"properties":{"type":"way","id":1113524490,"tags":{"building":"yes"},"nodes":[10187579660,10187579658,10187579657,10187579656,10187579659,10187579655,10187579654,10187579653,10187579660]}},{"type":"Polygon","arcs":[[294]],"properties":{"type":"way","id":1113524491,"tags":{"building":"yes"},"nodes":[10187579668,10187579666,10187579665,10187579664,10187579667,10187579663,10187579662,10187579661,10187579668]}},{"type":"Polygon","arcs":[[295]],"properties":{"type":"way","id":1113524492,"tags":{"building":"yes"},"nodes":[10187579676,10187579674,10187579673,10187579672,10187579675,10187579671,10187579670,10187579669,10187579676]}},{"type":"Polygon","arcs":[[296]],"properties":{"type":"way","id":1113524493,"tags":{"building":"yes"},"nodes":[10187579684,10187579682,10187579681,10187579680,10187579683,10187579679,10187579678,10187579677,10187579684]}},{"type":"Polygon","arcs":[[297]],"properties":{"type":"way","id":1113524494,"tags":{"building":"yes"},"nodes":[10187579691,10187579690,10187579689,10187579688,10187579692,10187579687,10187579686,10187579685,10187579691]}},{"type":"Polygon","arcs":[[298]],"properties":{"type":"way","id":1113524495,"tags":{"building":"yes"},"nodes":[10187579699,10187579698,10187579697,10187579696,10187579700,10187579695,10187579694,10187579693,10187579699]}},{"type":"Polygon","arcs":[[299]],"properties":{"type":"way","id":1113524496,"tags":{"building":"yes"},"nodes":[10187579708,10187579706,10187579705,10187579704,10187579707,10187579703,10187579702,10187579701,10187579708]}},{"type":"Polygon","arcs":[[300]],"properties":{"type":"way","id":1113524497,"tags":{"building":"yes"},"nodes":[10187579716,10187579714,10187579713,10187579712,10187579715,10187579711,10187579710,10187579709,10187579716]}},{"type":"Polygon","arcs":[[301]],"properties":{"type":"way","id":1113524498,"tags":{"building":"yes"},"nodes":[10187579724,10187579722,10187579721,10187579720,10187579723,10187579719,10187579718,10187579717,10187579724]}},{"type":"Polygon","arcs":[[302]],"properties":{"type":"way","id":1113524499,"tags":{"building":"yes"},"nodes":[10187579732,10187579730,10187579729,10187579728,10187579731,10187579727,10187579726,10187579725,10187579732]}},{"type":"Polygon","arcs":[[303]],"properties":{"type":"way","id":1113524500,"tags":{"building":"yes"},"nodes":[10187579740,10187579738,10187579737,10187579736,10187579739,10187579735,10187579734,10187579733,10187579740]}},{"type":"Polygon","arcs":[[304]],"properties":{"type":"way","id":1113524501,"tags":{"building":"yes"},"nodes":[10187579748,10187579746,10187579745,10187579744,10187579747,10187579743,10187579742,10187579741,10187579748]}},{"type":"Polygon","arcs":[[305]],"properties":{"type":"way","id":1113524502,"tags":{"building":"yes"},"nodes":[10187579756,10187579754,10187579753,10187579752,10187579755,10187579751,10187579750,10187579749,10187579756]}},{"type":"Polygon","arcs":[[306]],"properties":{"type":"way","id":1113524503,"tags":{"building":"yes"},"nodes":[10187579764,10187579762,10187579761,10187579760,10187579763,10187579759,10187579758,10187579757,10187579764]}},{"type":"Polygon","arcs":[[307]],"properties":{"type":"way","id":1113524504,"tags":{"building":"yes"},"nodes":[10187579772,10187579770,10187579769,10187579768,10187579771,10187579767,10187579766,10187579765,10187579772]}},{"type":"Polygon","arcs":[[308]],"properties":{"type":"way","id":1113524505,"tags":{"building":"yes"},"nodes":[10187579780,10187579778,10187579777,10187579776,10187579779,10187579775,10187579774,10187579773,10187579780]}},{"type":"Polygon","arcs":[[309]],"properties":{"type":"way","id":1113524506,"tags":{"building":"yes"},"nodes":[10187579788,10187579786,10187579785,10187579784,10187579787,10187579783,10187579782,10187579781,10187579788]}},{"type":"Polygon","arcs":[[310]],"properties":{"type":"way","id":1113524507,"tags":{"building":"yes"},"nodes":[10187579798,10187579797,10187579796,10187579795,10187579794,10187579793,10187579792,10187579791,10187579790,10187579789,10187579798]}},{"type":"Polygon","arcs":[[311]],"properties":{"type":"way","id":1113524508,"tags":{"building":"yes"},"nodes":[10187579828,10187579827,10187579826,10187579825,10187579828]}},{"type":"Polygon","arcs":[[312]],"properties":{"type":"way","id":1113524509,"tags":{"building":"yes"},"nodes":[10187579832,10187579829,10187579830,10187579831,10187579832]}},{"type":"Polygon","arcs":[[313]],"properties":{"type":"way","id":1113524510,"tags":{"building":"yes"},"nodes":[10187579839,10187579838,10187579837,10187579836,10187579839]}},{"type":"Polygon","arcs":[[314]],"properties":{"type":"way","id":1113524511,"tags":{"building":"yes"},"nodes":[10187579847,10187579846,10187579845,10187579843,10187579841,10187579840,10187579842,10187579844,10187579847]}},{"type":"Polygon","arcs":[[315]],"properties":{"type":"way","id":1113524512,"tags":{"building":"yes"},"nodes":[10187579851,10187579850,10187579849,10187579848,10187579851]}}]}},"arcs":[[[-123.2795868,44.5666684],[-123.2795782,44.5663382],[-123.2793293,44.5663382],[-123.2793293,44.5664299],[-123.2791748,44.5664299],[-123.2791748,44.5663688],[-123.27878,44.5663688],[-123.27878,44.5664238],[-123.278634,44.5664238],[-123.278634,44.5663565],[-123.2783766,44.5663565],[-123.2783766,44.5666684],[-123.2786426,44.5666684],[-123.2786426,44.5665644],[-123.2787885,44.5665644],[-123.2787885,44.5666072],[-123.2791834,44.5666072],[-123.2791834,44.5665705],[-123.2793293,44.5665705],[-123.2793293,44.5666684],[-123.2795868,44.5666684]],[[-123.2773668,44.5666847],[-123.2773668,44.5663117],[-123.2771694,44.5663117],[-123.2771694,44.566482],[-123.2771694,44.5666847],[-123.2773668,44.5666847]],[[-123.2808162,44.5661081],[-123.280812,44.5654103],[-123.2803027,44.5654119],[-123.2803069,44.5661097],[-123.2808162,44.5661081]],[[-123.2798146,44.5651687],[-123.2798153,44.5651333],[-123.2798221,44.5648892],[-123.2798243,44.5647431],[-123.2798241,44.564696],[-123.2796884,44.5646966],[-123.279567,44.5646972],[-123.2795666,44.5647977],[-123.2792524,44.5647979],[-123.2792529,44.5647564],[-123.2787031,44.5647576],[-123.2787063,44.5647948],[-123.2785521,44.5647941],[-123.2783932,44.5647934],[-123.2783933,44.5648158],[-123.2783493,44.5648152],[-123.2783453,44.5646947],[-123.2782201,44.5646956],[-123.2780952,44.5646965],[-123.2780941,44.5650485],[-123.2780939,44.5651353],[-123.2780937,44.5651703],[-123.2781425,44.5651703],[-123.2781444,44.5652037],[-123.2782239,44.5652027],[-123.278298,44.5652025],[-123.2782972,44.5651683],[-123.2783517,44.5651682],[-123.2783502,44.565132],[-123.2783516,44.5650794],[-123.2785496,44.5650806],[-123.2788858,44.5650818],[-123.2788898,44.5650995],[-123.2789953,44.5650992],[-123.2790891,44.565099],[-123.279091,44.5650859],[-123.2793986,44.5650841],[-123.2795679,44.5650842],[-123.2795672,44.5651324],[-123.2795665,44.5651652],[-123.2796183,44.5651658],[-123.2796203,44.5651975],[-123.2796947,44.5651972],[-123.2797633,44.5651969],[-123.279762,44.5651682],[-123.2798146,44.5651687]],[[-123.2774708,44.5661155],[-123.2774708,44.5659127],[-123.2773698,44.5659126],[-123.2773698,44.565929],[-123.2772448,44.5659289],[-123.2772448,44.5658812],[-123.2772448,44.5658395],[-123.2773478,44.5658396],[-123.2773478,44.5654612],[-123.2772478,44.5654612],[-123.2772478,44.5653767],[-123.2773578,44.5653768],[-123.2773578,44.5654042],[-123.2774848,44.5654043],[-123.2774858,44.5652361],[-123.2774858,44.5651905],[-123.2773588,44.5651905],[-123.2773588,44.565206],[-123.2772375,44.565206],[-123.2771168,44.5652059],[-123.2771168,44.5651875],[-123.2769618,44.5651874],[-123.2769608,44.5654009],[-123.2770938,44.565401],[-123.2770938,44.5653808],[-123.2771878,44.5653808],[-123.2771878,44.5654483],[-123.2770758,44.5654483],[-123.2770748,44.5655743],[-123.2771228,44.5655743],[-123.2771218,44.5657394],[-123.2770838,44.5657394],[-123.2770838,44.5658417],[-123.2771998,44.5658418],[-123.2771998,44.5659273],[-123.2770658,44.5659272],[-123.2770658,44.5659088],[-123.2769808,44.5659088],[-123.2769808,44.5661128],[-123.2770878,44.5661128],[-123.2770878,44.5660977],[-123.2773528,44.5660978],[-123.2773528,44.5661154],[-123.2774708,44.5661155]],[[-123.2755664,44.566544],[-123.2755689,44.5662409],[-123.2751009,44.5662389],[-123.2750984,44.5665419],[-123.2755664,44.566544]],[[-123.276662,44.5666817],[-123.276662,44.5664677],[-123.2763101,44.5664677],[-123.2763101,44.5663796],[-123.2763101,44.5663576],[-123.2757264,44.5663576],[-123.2757264,44.5666267],[-123.2763273,44.5666267],[-123.2763273,44.5666817],[-123.276662,44.5666817]],[[-123.2744241,44.5664052],[-123.2744722,44.5663079],[-123.2744416,44.5663002],[-123.2744865,44.5662094],[-123.2745126,44.566216],[-123.2745615,44.5661169],[-123.2742455,44.5660377],[-123.2742063,44.5661172],[-123.2742306,44.5661233],[-123.2742071,44.5661709],[-123.2741846,44.5662164],[-123.2741671,44.566212],[-123.2741105,44.5663266],[-123.2744241,44.5664052]],[[-123.2765792,44.5653786],[-123.2765787,44.5651884],[-123.2766385,44.5651879],[-123.2766386,44.5650555],[-123.2765713,44.5650555],[-123.276571,44.5648509],[-123.2766642,44.5648508],[-123.2766635,44.5648092],[-123.2766504,44.5648099],[-123.2766512,44.5647434],[-123.2757665,44.5647363],[-123.2757678,44.5648779],[-123.2756966,44.5648766],[-123.2756993,44.5650608],[-123.2756504,44.5650567],[-123.2755997,44.5651554],[-123.2756635,44.5651532],[-123.2756624,44.5651626],[-123.2756614,44.565172],[-123.2755752,44.5651744],[-123.2755235,44.5651969],[-123.2754956,44.5652241],[-123.275477,44.5652554],[-123.2754808,44.5652931],[-123.2755025,44.5653231],[-123.2755467,44.5653521],[-123.2755983,44.5653642],[-123.2755998,44.5653752],[-123.2759793,44.5653777],[-123.2759786,44.5653955],[-123.2760521,44.5653952],[-123.2761181,44.565396],[-123.2761181,44.5653792],[-123.2762068,44.5653791],[-123.2765792,44.5653786]],[[-123.2841323,44.5656226],[-123.2841344,44.5653648],[-123.2838517,44.5653636],[-123.2838521,44.5653197],[-123.2838534,44.5651534],[-123.2838536,44.5651293],[-123.2841486,44.5651305],[-123.2841508,44.5648448],[-123.2840445,44.5648463],[-123.2839909,44.5648441],[-123.2839894,44.5650325],[-123.2838663,44.565032],[-123.2838671,44.5649398],[-123.2836951,44.5649391],[-123.2836938,44.5650972],[-123.2836295,44.5650969],[-123.2836297,44.5650723],[-123.2834864,44.5650717],[-123.2834861,44.5650959],[-123.2834252,44.5650957],[-123.2834267,44.5649356],[-123.2832601,44.5649348],[-123.2832591,44.5650381],[-123.2831464,44.5650376],[-123.2831482,44.5648529],[-123.2830688,44.5648582],[-123.2829636,44.564852],[-123.2829619,44.5650254],[-123.2829609,44.5651313],[-123.2832791,44.5651328],[-123.2832767,44.5653871],[-123.2829829,44.5653857],[-123.2829806,44.5656286],[-123.2831128,44.5656292],[-123.2831146,44.5654388],[-123.28329,44.5654397],[-123.2832891,44.5655388],[-123.2834151,44.5655394],[-123.2834171,44.5653201],[-123.2836936,44.5653214],[-123.2836916,44.5655423],[-123.2838492,44.565543],[-123.28385,44.5654446],[-123.2839941,44.5654452],[-123.2839927,44.5656221],[-123.2841323,44.5656226]],[[-123.2810622,44.561686],[-123.2810619,44.5616224],[-123.2810858,44.5616223],[-123.2810856,44.5615757],[-123.2811549,44.5615756],[-123.2811543,44.5614504],[-123.2810875,44.5614505],[-123.2810858,44.5610832],[-123.2811496,44.561083],[-123.281149,44.560955],[-123.2810837,44.5609552],[-123.2810834,44.5608974],[-123.2809276,44.5608977],[-123.2809274,44.5608461],[-123.2803497,44.5608475],[-123.2801928,44.5608478],[-123.2801931,44.5609057],[-123.2801933,44.5609562],[-123.2801054,44.5609564],[-123.280106,44.5610737],[-123.2800723,44.5610738],[-123.2800741,44.5614679],[-123.2801171,44.5614678],[-123.2801176,44.5615769],[-123.2802088,44.5615767],[-123.280209,44.5616236],[-123.2803399,44.5616233],[-123.2803401,44.5616877],[-123.2810622,44.561686]],[[-123.2825286,44.5660145],[-123.282529,44.566323],[-123.2825291,44.5664345],[-123.2829733,44.5664342],[-123.2829728,44.566013],[-123.2828548,44.5660131],[-123.2828546,44.5658938],[-123.2827374,44.5658939],[-123.2827375,44.5660143],[-123.2825286,44.5660145]],[[-123.2818638,44.5669423],[-123.2818999,44.5669425]],[[-123.2818999,44.5669425],[-123.2819003,44.5668664],[-123.2820175,44.5668667],[-123.2820182,44.5667443],[-123.2819909,44.5667442],[-123.2819912,44.5666893],[-123.2822888,44.5666902],[-123.2822897,44.5665483],[-123.2822525,44.5665482],[-123.2822529,44.5664883],[-123.2824113,44.5664887],[-123.2824123,44.5663231],[-123.2824135,44.5661217],[-123.2817796,44.5661198],[-123.28178,44.5660462],[-123.2817046,44.566046],[-123.2817038,44.5661812],[-123.2817889,44.5661814],[-123.281788,44.5663323],[-123.2816622,44.5663319],[-123.2816601,44.566693],[-123.2817282,44.5666933],[-123.2817279,44.5667445],[-123.2817009,44.5667444],[-123.2817001,44.5668654],[-123.2818642,44.5668659],[-123.2818638,44.5669423]],[[-123.2857844,44.5673589],[-123.2858016,44.5668941],[-123.2849433,44.566888],[-123.2849433,44.5673589],[-123.2857844,44.5673589]],[[-123.2841312,44.5673529],[-123.2841276,44.5669097],[-123.2839182,44.5669113],[-123.2839212,44.5669766],[-123.2838654,44.5669764],[-123.2838694,44.5669487],[-123.2837929,44.5669499],[-123.2837256,44.5669508],[-123.2837291,44.5669735],[-123.2831232,44.5669754],[-123.2831228,44.5674082],[-123.2832588,44.5673773],[-123.2832985,44.5673735],[-123.2832988,44.5674534],[-123.283533,44.5674521],[-123.2835328,44.567429],[-123.2836566,44.5674257],[-123.2836621,44.5673066],[-123.2836811,44.5673066],[-123.2836883,44.5671771],[-123.2839056,44.5671804],[-123.2839044,44.567353],[-123.2841312,44.5673529]],[[-123.2828662,44.5675094],[-123.2828662,44.5674238],[-123.2822739,44.5674238],[-123.2822739,44.5672832],[-123.2828233,44.5672832],[-123.2828233,44.5669163],[-123.2826945,44.5669163],[-123.2826945,44.5671976],[-123.2826344,44.5671976],[-123.2826344,44.5669163],[-123.2825057,44.5669163],[-123.2825057,44.5671976],[-123.2824456,44.5671976],[-123.2824456,44.5669163],[-123.2823169,44.5669163],[-123.2823169,44.5671976],[-123.2822568,44.5671976],[-123.2822568,44.5669163],[-123.2821452,44.5669163],[-123.2821452,44.5675094],[-123.2828662,44.5675094]],[[-123.2815965,44.5664905],[-123.2815981,44.5663672],[-123.281525,44.566368],[-123.2814007,44.5663626],[-123.2812418,44.5663625],[-123.2810797,44.5663638],[-123.2810781,44.5664872],[-123.2811888,44.5664879],[-123.2815965,44.5664905]],[[-123.2808044,44.5665314],[-123.2808044,44.5663785],[-123.2803495,44.5663785],[-123.2803495,44.5666965],[-123.2804696,44.5666965],[-123.2804696,44.5664947],[-123.280667,44.5664947],[-123.280667,44.5665314],[-123.2808044,44.5665314]],[[-123.2810774,44.5667011],[-123.2810774,44.5665788],[-123.2807856,44.5665788],[-123.2807856,44.5667011],[-123.2810774,44.5667011]],[[-123.2798529,44.5675232],[-123.2798529,44.5674498],[-123.2797499,44.5674498],[-123.2797499,44.5669729],[-123.2798357,44.5669729],[-123.2798357,44.5669117],[-123.2794752,44.5669117],[-123.2794752,44.5669729],[-123.2795782,44.5669729],[-123.2795782,44.5675232],[-123.2798529,44.5675232]],[[-123.2793559,44.5616716],[-123.2793484,44.5608714],[-123.2789783,44.5608732],[-123.2784204,44.5608758],[-123.2784279,44.561676],[-123.2793559,44.5616716]],[[-123.279072,44.5635698],[-123.2791598,44.5635698],[-123.2791598,44.5634734],[-123.2792036,44.5634734],[-123.2792038,44.5632179],[-123.279085,44.5632179],[-123.279085,44.5631987],[-123.2790851,44.563095],[-123.2791752,44.563095],[-123.2791756,44.5626569],[-123.279168,44.5626569],[-123.2791504,44.5626569],[-123.2791504,44.5625568],[-123.2789729,44.5625567],[-123.2789729,44.5626014],[-123.2789573,44.5626014],[-123.278958,44.5625735],[-123.2788921,44.5625735],[-123.2788921,44.56259],[-123.2782919,44.5625898],[-123.2782917,44.562867],[-123.2785745,44.5628671],[-123.2785745,44.5629137],[-123.2784626,44.5629137],[-123.2784626,44.5629446],[-123.2781808,44.5629445],[-123.2781805,44.5632407],[-123.2783263,44.5632407],[-123.2783263,44.5632553],[-123.2783263,44.5632675],[-123.2782335,44.5632675],[-123.2782334,44.5633124],[-123.2782047,44.5633124],[-123.2782047,44.563384],[-123.2782523,44.563384],[-123.278252,44.5637017],[-123.2790719,44.563702],[-123.279072,44.5635698]],[[-123.2777575,44.5683187],[-123.2777467,44.5675008],[-123.2772425,44.5675008],[-123.2772532,44.5683187],[-123.2777575,44.5683187]],[[-123.277725,44.5672554],[-123.2777272,44.5669611],[-123.2773938,44.5669598],[-123.277394,44.5669355],[-123.2773072,44.5669351],[-123.277307,44.5669594],[-123.2770043,44.5669582],[-123.277002,44.567254],[-123.2771179,44.5672545],[-123.2771187,44.5671572],[-123.2776115,44.5671592],[-123.2776108,44.567255],[-123.277725,44.5672554]],[[-123.2806243,44.5682695],[-123.2806322,44.5683904]],[[-123.2806322,44.5683904],[-123.280634,44.5684233],[-123.2805741,44.5684254],[-123.2805791,44.5687066],[-123.2805448,44.5687078],[-123.2805448,44.5687499],[-123.2805451,44.5687703],[-123.2805455,44.568792],[-123.2803755,44.5687934],[-123.280376,44.5688244],[-123.2803522,44.5688246],[-123.280354,44.5689461],[-123.2805806,44.5689444],[-123.2805802,44.5689128],[-123.2806199,44.5689125],[-123.2806192,44.5688662],[-123.2807521,44.5688651],[-123.2807518,44.5688501],[-123.2808991,44.568849],[-123.2808997,44.5688877],[-123.2811228,44.568886],[-123.2811198,44.5686886],[-123.2808068,44.56869],[-123.2807941,44.56842],[-123.2807398,44.5684204],[-123.2807401,44.5683458],[-123.2812018,44.5683412],[-123.2812072,44.5681483],[-123.2807139,44.5681683],[-123.2807125,44.5682656],[-123.2806243,44.5682695]],[[-123.2826903,44.5599802],[-123.2827324,44.5600177],[-123.2827592,44.5600158],[-123.2828155,44.5599193],[-123.2828477,44.5598237],[-123.2828202,44.5598213],[-123.2828316,44.5597788],[-123.282751,44.559783],[-123.2827444,44.5597415],[-123.2826197,44.5597587],[-123.2826211,44.5597931],[-123.2825902,44.5598056],[-123.2825741,44.5598629],[-123.2825406,44.559838],[-123.2825158,44.5598543],[-123.2824951,44.5598431],[-123.2825225,44.5598242],[-123.282477,44.5597999],[-123.2818021,44.5603017],[-123.2817304,44.5603546],[-123.2817484,44.5603678],[-123.2817051,44.5604009],[-123.2817265,44.5604162],[-123.2816809,44.5604501],[-123.2817976,44.5605308],[-123.2818466,44.5604998],[-123.2818827,44.5605275],[-123.2826903,44.5599802]],[[-123.2822154,44.5636274],[-123.282214,44.5637514]],[[-123.282214,44.5637514],[-123.2827485,44.5637539],[-123.2827428,44.5640557]],[[-123.2827428,44.5640557],[-123.2828943,44.5640571]],[[-123.2828943,44.5640571],[-123.2829013,44.5636316],[-123.2822154,44.5636274]],[[-123.282212,44.5643608],[-123.2817038,44.5643587],[-123.2817072,44.5640054]],[[-123.2817072,44.5640054],[-123.2816178,44.564005],[-123.2816175,44.5640334],[-123.2815042,44.5640329]],[[-123.2815042,44.5640329],[-123.2815001,44.5644627],[-123.28221,44.5644672]],[[-123.28221,44.5644672],[-123.282212,44.5643608]],[[-123.2827428,44.5640557],[-123.2827372,44.5643657],[-123.2825755,44.5643642],[-123.282212,44.5643608]],[[-123.28221,44.5644672],[-123.2828867,44.5644735],[-123.2828943,44.5640571]],[[-123.2807656,44.5640298],[-123.2807146,44.5640627]],[[-123.2807146,44.5640627],[-123.2806696,44.5640293],[-123.2806213,44.5639966]],[[-123.2806213,44.5639966],[-123.2806687,44.5639591]],[[-123.2806687,44.5639591],[-123.280662,44.5639535],[-123.2806081,44.5639173],[-123.2805908,44.563928],[-123.2805083,44.5639848],[-123.2805086,44.5639633],[-123.2803689,44.563962],[-123.2803688,44.5639459],[-123.2803681,44.5637276],[-123.2804924,44.5637268],[-123.2804933,44.5636256],[-123.280199,44.5636265],[-123.2801999,44.5637291],[-123.2802208,44.5637285],[-123.2802194,44.5637539],[-123.2802204,44.5639614],[-123.2802051,44.5639621],[-123.2802044,44.564068],[-123.2804145,44.5640705],[-123.280449,44.5640917],[-123.2804466,44.5641281],[-123.2804981,44.5641656],[-123.2805578,44.564208],[-123.2806143,44.5642092],[-123.280622,44.5642221],[-123.2806203,44.5643043],[-123.2806201,44.5643684],[-123.2807703,44.5643696],[-123.2807703,44.5643577],[-123.2810958,44.5643573],[-123.2810959,44.5643677],[-123.2812407,44.564369],[-123.2812416,44.564198],[-123.2812425,44.5641642],[-123.2810975,44.5641648],[-123.2810975,44.5642508],[-123.2807939,44.5642514],[-123.2807748,44.5642391],[-123.2807748,44.564229],[-123.2807729,44.5641511],[-123.2807384,44.5641512],[-123.2807221,44.5641396],[-123.2808236,44.5640697],[-123.2807656,44.5640298]],[[-123.2840898,44.5638645],[-123.2841699,44.5638648],[-123.2841698,44.5638917],[-123.2842593,44.563892],[-123.2842619,44.5634954],[-123.2834951,44.5634928],[-123.2834947,44.5635586],[-123.283564,44.5635588],[-123.2835637,44.5636088],[-123.2840915,44.5636106],[-123.2840898,44.5638645]],[[-123.2840898,44.5638645],[-123.2831119,44.5638619],[-123.2831107,44.5640902],[-123.2840824,44.5640928],[-123.2840827,44.5640434],[-123.2841343,44.5640436],[-123.2841349,44.5639203],[-123.2840896,44.5639202],[-123.2840898,44.5638645]],[[-123.274567,44.5670034],[-123.2743989,44.5669616],[-123.2741628,44.5674439],[-123.2734121,44.5672575],[-123.2733536,44.567377],[-123.2740832,44.5675582],[-123.2740722,44.5675805],[-123.2742864,44.5676337],[-123.2743577,44.5674881],[-123.2743328,44.567482],[-123.2744246,44.5672944],[-123.274567,44.5670034]],[[-123.2805076,44.5648222],[-123.2802375,44.5648269],[-123.2802399,44.5648965],[-123.2802816,44.5648958],[-123.2802843,44.564976],[-123.2802547,44.5649765],[-123.2802598,44.5651266],[-123.2802906,44.5651261],[-123.2802933,44.5652027],[-123.2802669,44.5652032],[-123.2802699,44.5652867],[-123.2805126,44.5652824],[-123.2805097,44.5652012],[-123.2804696,44.5652019],[-123.2804654,44.565083],[-123.2805131,44.5650821],[-123.2805107,44.5650114],[-123.2804641,44.5650122],[-123.2804601,44.5648951],[-123.2805101,44.5648942],[-123.2805076,44.5648222]],[[-123.2734265,44.567063],[-123.2734439,44.5670268]],[[-123.2734439,44.5670268],[-123.2734869,44.566947],[-123.2732121,44.5668812],[-123.2731972,44.5669088],[-123.2731781,44.5669028],[-123.2731521,44.566903],[-123.2731328,44.5669126],[-123.2731248,44.5669279],[-123.2731275,44.5669432],[-123.2731386,44.5669508],[-123.2731515,44.5669555],[-123.273165,44.5669584],[-123.2730712,44.5671381],[-123.273042,44.5671336],[-123.2730223,44.5671376],[-123.2730154,44.5671427],[-123.2730095,44.5671514],[-123.2730044,44.5671599],[-123.2730068,44.5671706],[-123.2730229,44.567182],[-123.2730417,44.5671858],[-123.2730336,44.5672011],[-123.2733233,44.5672756],[-123.2734265,44.567063]],[[-123.2765522,44.5675452],[-123.2765149,44.5675449],[-123.2763966,44.5675439],[-123.2763978,44.5674658],[-123.2763995,44.5673519],[-123.2764688,44.5673524],[-123.2764693,44.5673182],[-123.2761151,44.5673154],[-123.2761139,44.5673933],[-123.2760917,44.5673931],[-123.2760907,44.5674574],[-123.2760898,44.5675122],[-123.2761092,44.5675123],[-123.2761081,44.5675824]],[[-123.2761081,44.5675824],[-123.2762033,44.5675832],[-123.2762025,44.5676383],[-123.2763604,44.5676396],[-123.2764384,44.5676402],[-123.2764393,44.5675799],[-123.2765154,44.5675805],[-123.2765516,44.5675808]],[[-123.2765516,44.5675808],[-123.2765522,44.5675452]],[[-123.2761081,44.5675824],[-123.2754303,44.5675779],[-123.275359,44.5675777],[-123.2753587,44.567667],[-123.2753584,44.5677618],[-123.2754637,44.567762],[-123.2754638,44.567743],[-123.2761602,44.5677444],[-123.2761604,44.5676946],[-123.2761074,44.5676945],[-123.2761081,44.5675824]],[[-123.2752622,44.5678505],[-123.2753145,44.5677431],[-123.2752947,44.5677382],[-123.2753284,44.5676689],[-123.2745525,44.5674772],[-123.2745228,44.5675382],[-123.2745064,44.5675342],[-123.2744501,44.5676498],[-123.2752622,44.5678505]],[[-123.2768011,44.5669765],[-123.276742,44.5669765],[-123.276742,44.5669651],[-123.2766398,44.5669652],[-123.2766399,44.5669844],[-123.276589,44.5669844],[-123.2765899,44.5674193],[-123.276802,44.567419],[-123.2768011,44.5669765]],[[-123.2754231,44.5669683],[-123.2754231,44.5669498],[-123.2753134,44.5669498],[-123.2753134,44.5669335],[-123.2751905,44.5669335],[-123.2751905,44.5669501],[-123.2751019,44.5669502],[-123.2751019,44.5669713]],[[-123.2751019,44.5669713],[-123.275102,44.567115]],[[-123.275102,44.567115],[-123.2751021,44.5671398],[-123.2754233,44.5671397]],[[-123.2754233,44.5671397],[-123.2754231,44.5669683]],[[-123.2754233,44.5671397],[-123.2754237,44.5675576],[-123.2756956,44.5675574],[-123.2756956,44.567494],[-123.2757195,44.567494],[-123.2757195,44.5674518],[-123.2757194,44.5674053],[-123.275695,44.5674053],[-123.2756947,44.5671219],[-123.2758686,44.5671218],[-123.2758685,44.566968],[-123.2754231,44.5669683]],[[-123.2751019,44.5669713],[-123.2747957,44.5669666],[-123.2747901,44.5671057],[-123.2747259,44.5672464],[-123.2746608,44.5672278],[-123.2746048,44.5673395],[-123.2746973,44.567362],[-123.2746911,44.5673772],[-123.2748207,44.56741],[-123.2748276,44.5673951],[-123.2749175,44.5674189],[-123.2749798,44.5672864],[-123.2749381,44.5672762],[-123.2750161,44.5671176],[-123.275102,44.567115]],[[-123.2759386,44.5670677],[-123.275871,44.5672061],[-123.2759422,44.5672238],[-123.2759338,44.5672411],[-123.2760909,44.56728],[-123.276099,44.5672633],[-123.2761653,44.5672797],[-123.2762335,44.5671401],[-123.2761687,44.567124],[-123.2761862,44.5670882],[-123.2760821,44.5670624],[-123.2760356,44.5670508],[-123.2760178,44.5670873],[-123.2759386,44.5670677]],[[-123.2734265,44.567063],[-123.2735584,44.5670954],[-123.2735279,44.5671588],[-123.2737226,44.5672064],[-123.2737423,44.5671656],[-123.2737794,44.5671746],[-123.2737871,44.5671586],[-123.2738994,44.5671861],[-123.2738721,44.5672426],[-123.2740543,44.5672873],[-123.2742077,44.5669693],[-123.2741604,44.5669577],[-123.2741645,44.5669392],[-123.2741563,44.5669203],[-123.274145,44.5669088],[-123.2741243,44.5669022],[-123.2741016,44.5669037],[-123.2740855,44.5669106],[-123.2740716,44.5669194],[-123.2740594,44.566933],[-123.2740185,44.566923],[-123.2739694,44.5670249],[-123.2738258,44.5669897],[-123.2738508,44.5669378],[-123.2738049,44.5669266],[-123.2738015,44.5669087],[-123.2737905,44.5668892],[-123.2737702,44.5668776],[-123.2737375,44.5668783],[-123.2737186,44.5668887],[-123.2737062,44.5669024],[-123.2736465,44.5668878],[-123.2735652,44.5670565],[-123.2734439,44.5670268]],[[-123.2787129,44.567699],[-123.2783299,44.5676987],[-123.2783301,44.5675782],[-123.2781383,44.567578],[-123.2781376,44.5679389],[-123.2783232,44.5679391],[-123.2783234,44.5678302],[-123.2787127,44.5678306],[-123.2787129,44.567699]],[[-123.2793121,44.5669695],[-123.2781728,44.5669622],[-123.2781714,44.5670721],[-123.2781254,44.5670718],[-123.278124,44.5671852],[-123.2781906,44.5671857],[-123.2781893,44.5672894],[-123.2781432,44.5672891],[-123.2781412,44.5673414],[-123.2781421,44.5673826],[-123.2781874,44.5673829],[-123.2781867,44.5674388],[-123.2788962,44.5674433],[-123.2788967,44.5674035],[-123.2789211,44.5674037],[-123.2789222,44.5673165],[-123.2790846,44.5673176],[-123.2790862,44.567185],[-123.2792894,44.5671863],[-123.2792892,44.5672017],[-123.2793597,44.5672022],[-123.2793609,44.5671086],[-123.2793104,44.5671083],[-123.2793121,44.5669695]],[[-123.2802036,44.5684006],[-123.2802199,44.5685062],[-123.2802246,44.568556],[-123.2801199,44.568684],[-123.2801629,44.5687031],[-123.2802111,44.5687165],[-123.2802675,44.5687318],[-123.280305,44.5687318],[-123.2803426,44.5687299],[-123.2803935,44.5687261],[-123.2804338,44.5687127],[-123.280474,44.5687012],[-123.2805196,44.5686783],[-123.2803882,44.5685484],[-123.2803886,44.5685042],[-123.2803552,44.5683956]],[[-123.2803552,44.5683956],[-123.2802871,44.5683986],[-123.2802036,44.5684006]],[[-123.2803552,44.5683956],[-123.2806322,44.5683904]],[[-123.2806243,44.5682695],[-123.2806138,44.5680483],[-123.2804138,44.5680483],[-123.2804122,44.5680228],[-123.2803164,44.5680259],[-123.2802508,44.568028],[-123.2802528,44.56806],[-123.2801526,44.5680632],[-123.2801498,44.5684023],[-123.2802036,44.5684006]],[[-123.2818638,44.5669423],[-123.2809211,44.5669388],[-123.2809189,44.5672717],[-123.2808947,44.5672716],[-123.2808944,44.567318],[-123.2809115,44.567318],[-123.2809109,44.5674151],[-123.280909,44.5677034],[-123.280977,44.5677036],[-123.2820046,44.567707],[-123.2820056,44.5675469],[-123.2817013,44.5675459],[-123.2817041,44.5671127],[-123.2819682,44.5671136],[-123.2819693,44.5669423],[-123.2818999,44.5669425]],[[-123.27475,44.5650399],[-123.274742,44.5654088],[-123.2748117,44.5654088],[-123.2748144,44.5654661],[-123.2747581,44.5654661],[-123.2747581,44.5655788],[-123.2748439,44.5655788],[-123.2748439,44.5656018],[-123.2749083,44.5656018],[-123.2749083,44.5655846],[-123.2749834,44.5655827],[-123.274986,44.5653954],[-123.2750102,44.5653954],[-123.2750146,44.5652015],[-123.2750182,44.5650399],[-123.27475,44.5650399]],[[-123.2750782,44.564787],[-123.2749943,44.5649703],[-123.2751172,44.5649985],[-123.2754853,44.5650844],[-123.2755692,44.5649011],[-123.2750782,44.564787]],[[-123.2718324,44.5638832],[-123.2724083,44.5638783]],[[-123.2724083,44.5638783],[-123.2724308,44.5638769],[-123.2724295,44.5638224],[-123.2729308,44.5638163],[-123.2729282,44.5637066],[-123.2724408,44.5637125],[-123.2722938,44.5637143],[-123.2722954,44.5637821],[-123.2718395,44.5637876],[-123.2718324,44.5638832]],[[-123.2753278,44.5656186],[-123.27526,44.5655998],[-123.2752368,44.5656423],[-123.2753045,44.5656611],[-123.2753278,44.5656186]],[[-123.2724268,44.5642504],[-123.2724251,44.5641793],[-123.2724242,44.564109],[-123.2724241,44.5640899],[-123.2724878,44.5640893],[-123.272485,44.563923],[-123.2724091,44.5639236],[-123.2724084,44.5638972],[-123.2724083,44.5638783]],[[-123.2718324,44.5638832],[-123.2718357,44.5641403],[-123.2718366,44.5641847],[-123.2718387,44.5642555]],[[-123.2718387,44.5642555],[-123.2721973,44.5642524],[-123.2724268,44.5642504]],[[-123.2744028,44.5650383],[-123.274077,44.5649564],[-123.2740325,44.5650463],[-123.274075,44.565057],[-123.2740635,44.5650801],[-123.2740386,44.5650733],[-123.2740224,44.5650745],[-123.2740104,44.5650791],[-123.2740027,44.5650879],[-123.2740008,44.5651039],[-123.2740072,44.5651159],[-123.2740215,44.5651227],[-123.2740415,44.5651249],[-123.2740268,44.5651542],[-123.2740048,44.5651987],[-123.2739536,44.5651859],[-123.273903,44.5652881],[-123.2742409,44.5653731],[-123.2743073,44.565239],[-123.2743322,44.5652453],[-123.2743644,44.5651803],[-123.274336,44.5651732],[-123.2744028,44.5650383]],[[-123.2750182,44.5637456],[-123.2745621,44.5637509],[-123.2743521,44.5637534],[-123.2743601,44.5641024],[-123.2746598,44.5640989],[-123.2746603,44.5641198],[-123.2747857,44.5641183],[-123.2747876,44.5641992],[-123.2747375,44.5641998],[-123.2747379,44.5642173],[-123.2745426,44.5642196],[-123.2745459,44.5643617],[-123.2752192,44.5643538],[-123.2752159,44.5642131],[-123.2748317,44.5642176],[-123.2748289,44.5640947],[-123.2750262,44.5640924],[-123.2750182,44.5637456]],[[-123.2748764,44.5658167],[-123.2746607,44.5657707],[-123.2746294,44.5658452],[-123.2746564,44.565851],[-123.2746366,44.5658983],[-123.2747446,44.5659213],[-123.2747556,44.5658953],[-123.2748361,44.5659125],[-123.2748764,44.5658167]],[[-123.2718387,44.5642555],[-123.2718399,44.5643673],[-123.2713464,44.5643711],[-123.2713437,44.5644819],[-123.2718453,44.5644762],[-123.2718453,44.5644896],[-123.2720089,44.5644896],[-123.2720062,44.5644131],[-123.2724515,44.5644093],[-123.2724488,44.5643367],[-123.2724837,44.5643367],[-123.2724783,44.5642507],[-123.2724268,44.5642504]],[[-123.2755149,44.5631156],[-123.2752069,44.5631152]],[[-123.2752069,44.5631152],[-123.2752067,44.564082],[-123.2753098,44.564082],[-123.2756667,44.5640822],[-123.2756676,44.5631149],[-123.2755149,44.5631156]],[[-123.2739085,44.5639604],[-123.2733055,44.563968],[-123.2733075,44.5640302],[-123.2728115,44.5640365],[-123.2728122,44.5640792],[-123.2728145,44.5641421],[-123.2733275,44.5641356],[-123.2733285,44.5641601],[-123.2734685,44.5641583],[-123.2734655,44.5640727],[-123.2739115,44.5640671],[-123.2739085,44.5639604]],[[-123.2750093,44.5627156],[-123.2750095,44.5626612],[-123.2746529,44.5626604],[-123.2746526,44.5627149],[-123.2750093,44.5627156]],[[-123.2767672,44.5636552],[-123.2766635,44.5636548],[-123.2766648,44.5635026],[-123.2760858,44.5635002],[-123.2760855,44.5635401],[-123.2760557,44.5635399],[-123.2760548,44.563657],[-123.2760532,44.5638454],[-123.2761232,44.5638457],[-123.2761214,44.5640651],[-123.2760944,44.564065],[-123.2760938,44.5641338],[-123.2761202,44.5641339],[-123.276119,44.5642858],[-123.2761001,44.5642857],[-123.2760989,44.5644346],[-123.2762308,44.5644351],[-123.2762309,44.564423],[-123.276416,44.5644237],[-123.2764159,44.5644403],[-123.2765124,44.5644407],[-123.2765125,44.5644266],[-123.2767697,44.5644277],[-123.2767702,44.5643718],[-123.2767309,44.5643717],[-123.2767313,44.5643299],[-123.2766702,44.5643296],[-123.2766713,44.5641987],[-123.2767156,44.5641989],[-123.2767172,44.5640035],[-123.2764617,44.5640024],[-123.2764614,44.5640441],[-123.2763609,44.5640437],[-123.2763596,44.5640093],[-123.2762992,44.5640103],[-123.2763006,44.5641077],[-123.2763582,44.5641068],[-123.2763596,44.5643294],[-123.2762952,44.5643276],[-123.2762954,44.5643049],[-123.2762816,44.5643048],[-123.2762848,44.5639171],[-123.2762281,44.5639168],[-123.2762283,44.5638874],[-123.2761985,44.5638872],[-123.2761988,44.5638478],[-123.2763515,44.5638485],[-123.2763513,44.5638809],[-123.2764517,44.5638813],[-123.2764519,44.563851],[-123.2766282,44.5638518],[-123.276628,44.5638787],[-123.2767654,44.5638792],[-123.2767672,44.5636552]],[[-123.2755149,44.5631156],[-123.275515,44.5630816],[-123.2757408,44.5630819],[-123.2757425,44.5625346],[-123.2753796,44.562534],[-123.2753787,44.5628206],[-123.2755232,44.5628208],[-123.2755224,44.5630696],[-123.2754021,44.5630694],[-123.2754026,44.5629277],[-123.2752075,44.5629274],[-123.2752069,44.5631152]],[[-123.2750098,44.5634585],[-123.2750124,44.5632306],[-123.2750335,44.5632308],[-123.2750385,44.5627838],[-123.2746476,44.5627815],[-123.274645,44.5630095],[-123.2745302,44.5630089],[-123.2745296,44.563065],[-123.2746444,44.5630656],[-123.2746425,44.5632367],[-123.2746979,44.5632365],[-123.274699,44.5634593],[-123.2750098,44.5634585]],[[-123.2745237,44.5627078],[-123.2745243,44.5626553],[-123.2742843,44.5626538],[-123.2742837,44.5627064],[-123.2745237,44.5627078]],[[-123.2746769,44.5625149],[-123.274835,44.5625144],[-123.2748332,44.5622609],[-123.274675,44.5622615],[-123.2746769,44.5625149]],[[-123.2750978,44.5625252],[-123.2750969,44.5622691],[-123.2749408,44.5622693],[-123.2749417,44.5625255],[-123.2750978,44.5625252]],[[-123.2743484,44.5632374],[-123.2743425,44.5627862],[-123.2742607,44.5627868],[-123.2742718,44.5632376],[-123.2743484,44.5632374]],[[-123.2789165,44.5593025],[-123.2788344,44.5593026]],[[-123.2788344,44.5593026],[-123.2788347,44.5593545],[-123.2788368,44.5596832],[-123.2786018,44.5596839],[-123.2786046,44.5601364],[-123.2788606,44.5601356],[-123.2788613,44.560246],[-123.2789744,44.5602456],[-123.2789738,44.5601381],[-123.2794144,44.5601367],[-123.2794133,44.5599616],[-123.2793567,44.5599618],[-123.2793561,44.5598584],[-123.2794184,44.5598582],[-123.2794173,44.5596816],[-123.2791507,44.5596825],[-123.2789189,44.5596832],[-123.2789168,44.5593545],[-123.2789165,44.5593025]],[[-123.2776602,44.5602451],[-123.2776609,44.5601959],[-123.2778669,44.5601975],[-123.2778681,44.5601185],[-123.277838,44.5601183],[-123.2778388,44.5600644],[-123.277167,44.5600594],[-123.2771011,44.5600589],[-123.2771002,44.5601194],[-123.2770704,44.5601192],[-123.2770693,44.5601903],[-123.277279,44.5601919],[-123.2772782,44.5602422],[-123.2776602,44.5602451]],[[-123.2762319,44.5616852],[-123.2762363,44.5614988],[-123.2757666,44.5614931],[-123.2755238,44.5614902],[-123.2755262,44.5613892],[-123.2754365,44.5613881],[-123.2754373,44.5613531],[-123.275076,44.5613488],[-123.2750684,44.5616712],[-123.2762319,44.5616852]],[[-123.2778273,44.5603803],[-123.2774514,44.5603792],[-123.277451,44.5604344],[-123.2773675,44.5604342],[-123.2773673,44.5604755],[-123.2773671,44.5605056],[-123.2774473,44.5605058],[-123.277446,44.5607328],[-123.2773598,44.5607325],[-123.2773595,44.5607958],[-123.2774396,44.560796],[-123.2774392,44.5608632],[-123.2778104,44.5608643],[-123.277811,44.5607539],[-123.2781018,44.5607548],[-123.2781025,44.5606406],[-123.278221,44.5606409],[-123.2782215,44.5605619],[-123.2781253,44.5605616],[-123.2781257,44.5604964],[-123.2778266,44.5604955],[-123.2778273,44.5603803]],[[-123.277941,44.5611136],[-123.2781891,44.5611153],[-123.2781895,44.5610875],[-123.2782229,44.5610877],[-123.2782239,44.5610154],[-123.2779523,44.5610135],[-123.2779526,44.5609916],[-123.2775844,44.560989],[-123.2775841,44.5610076],[-123.2774035,44.5610063],[-123.2774029,44.5610467],[-123.2773829,44.5610466],[-123.277382,44.561112],[-123.2775978,44.5611135],[-123.2775977,44.5611248],[-123.2775802,44.5611247],[-123.2775795,44.5611752],[-123.27795,44.5611778],[-123.2779507,44.5611262],[-123.2779408,44.5611261],[-123.277941,44.5611136]],[[-123.2772694,44.5611185],[-123.2772265,44.5611185],[-123.2772292,44.5610974],[-123.2770612,44.5610973],[-123.2770629,44.5611204],[-123.2770387,44.5611185],[-123.2770387,44.5610955],[-123.2769324,44.5610939],[-123.27693,44.5611185],[-123.2768966,44.5611185],[-123.2768966,44.5610917],[-123.2767502,44.5610899],[-123.2767517,44.5611146],[-123.2767078,44.5610854],[-123.2766713,44.5610611],[-123.2767034,44.5610535],[-123.2766873,44.5609465],[-123.2766498,44.5609503],[-123.2766468,44.5609323],[-123.2766844,44.5609284],[-123.2766739,44.5608414],[-123.2766283,44.5608452],[-123.2766246,44.5608312],[-123.2766659,44.560828],[-123.2766498,44.5607362],[-123.2766122,44.5607401],[-123.2766096,44.5607229],[-123.2766483,44.5607192],[-123.2766239,44.5606027],[-123.2765797,44.5606074],[-123.276572,44.5605623],[-123.2764324,44.5605757],[-123.2764378,44.5606111],[-123.2763655,44.5606158],[-123.2763762,44.5607286],[-123.2764191,44.5607248],[-123.2764245,44.5607515],[-123.2763869,44.5607573],[-123.2764004,44.5608624],[-123.2764406,44.5608566],[-123.2764433,44.5608738],[-123.2763977,44.5608796],[-123.2764111,44.5609522],[-123.276462,44.5609465],[-123.2764674,44.5609656],[-123.2764299,44.5609732],[-123.2764406,44.5610745],[-123.2764835,44.5610726],[-123.2765613,44.5610726],[-123.2765613,44.5610936],[-123.2765801,44.5611127],[-123.2765264,44.5611529],[-123.2766283,44.5612217],[-123.276682,44.5611796],[-123.2767115,44.5611949],[-123.2767169,44.5612331],[-123.2767303,44.5612618],[-123.2768805,44.5612656],[-123.2768801,44.56124],[-123.2769273,44.5612399],[-123.2769268,44.5612669],[-123.2770317,44.5612658],[-123.2770334,44.5612408],[-123.2770575,44.5612389],[-123.2770575,44.5612656],[-123.2772023,44.5612656],[-123.2772023,44.5612484],[-123.2772318,44.5612465],[-123.2772345,44.5612217],[-123.2772721,44.5612217],[-123.2772694,44.5611185]],[[-123.2776656,44.5585557],[-123.2775686,44.55849],[-123.2773293,44.5586525],[-123.2772525,44.558657],[-123.2770164,44.5584914],[-123.2769306,44.5585519],[-123.2772069,44.5587564],[-123.2773893,44.5587545],[-123.2776656,44.5585557]],[[-123.2767651,44.5588452],[-123.2767163,44.5586128],[-123.2765236,44.5586333],[-123.2765724,44.5588657],[-123.2767651,44.5588452]],[[-123.2789165,44.5593025],[-123.2792348,44.5592989],[-123.2792346,44.5591977],[-123.2790709,44.5591979],[-123.2790706,44.5590217],[-123.2794349,44.5590213],[-123.2794345,44.5587726],[-123.2786228,44.5587734],[-123.278623,44.5589189],[-123.2788486,44.5589187],[-123.2788488,44.5590185],[-123.2782085,44.5590191],[-123.278209,44.5592999],[-123.2788344,44.5593026]],[[-123.2771588,44.56392],[-123.2771588,44.5640099],[-123.2771395,44.5640074],[-123.2771222,44.5640088],[-123.2771132,44.5640137],[-123.2771084,44.5640244],[-123.2771078,44.5640366],[-123.2771131,44.5640491],[-123.2771208,44.5640614],[-123.2770944,44.5640615],[-123.2770944,44.5641455],[-123.2771212,44.5641455],[-123.2771212,44.5641666],[-123.2771161,44.5641808],[-123.2771172,44.5641916],[-123.2771227,44.5641995],[-123.2771339,44.5642089],[-123.2771507,44.5642143],[-123.2771534,44.564285],[-123.2770783,44.564287],[-123.2770756,44.564436],[-123.2775021,44.5644341],[-123.2774994,44.564287],[-123.2773653,44.564285],[-123.277368,44.5641551],[-123.2774458,44.5641551],[-123.2774454,44.5640561],[-123.277376,44.5640576],[-123.2773733,44.5639277],[-123.2775101,44.5639239],[-123.2775101,44.5637748],[-123.2773304,44.563771],[-123.2773304,44.5637098],[-123.2772258,44.5637098],[-123.2772258,44.5637748],[-123.277081,44.5637748],[-123.2770783,44.5639181],[-123.2771588,44.56392]],[[-123.2789585,44.5640041],[-123.2787583,44.5640034],[-123.2787588,44.5639324],[-123.2787161,44.5639322],[-123.2787165,44.5638651],[-123.2780978,44.5638628],[-123.2780972,44.563943],[-123.2781506,44.5639432],[-123.2781502,44.5640092],[-123.2779286,44.5640083],[-123.2777701,44.5640078],[-123.277769,44.5641714],[-123.2779211,44.5641719],[-123.2779204,44.5642775],[-123.278158,44.5642783],[-123.2781574,44.5643743],[-123.2787566,44.5643763],[-123.2787571,44.5642946],[-123.2789565,44.5642952],[-123.2789585,44.5640041]],[[-123.2836021,44.5643773],[-123.2836035,44.5643008],[-123.2835241,44.5643001],[-123.2835262,44.564182],[-123.2833416,44.5641803],[-123.28334,44.564267],[-123.2832259,44.564266],[-123.2832237,44.5643879],[-123.2833455,44.564389],[-123.2833447,44.5644336],[-123.2834842,44.5644349],[-123.2834853,44.5643762],[-123.2836021,44.5643773]],[[-123.2854802,44.5665276],[-123.2855664,44.5665277],[-123.2855674,44.5661961],[-123.2851803,44.5661955],[-123.2851797,44.5663956],[-123.2850128,44.5663954],[-123.2850122,44.5665954],[-123.2853696,44.566596],[-123.2853698,44.5665274],[-123.2854135,44.5665275],[-123.2854135,44.5665561],[-123.2854801,44.5665562],[-123.2854802,44.5665276]],[[-123.28421,44.564182],[-123.2841218,44.564181],[-123.2841244,44.5642049],[-123.2840695,44.5642056],[-123.2840681,44.5642775],[-123.2839098,44.5642775],[-123.2839071,44.5643864],[-123.2840056,44.5643865],[-123.2840037,44.5644418],[-123.2841271,44.5644399],[-123.2841271,44.5643883],[-123.2842424,44.5643864],[-123.2842424,44.5643253],[-123.2842075,44.5643253],[-123.28421,44.564182]],[[-123.2859172,44.563991],[-123.2859175,44.5638325],[-123.28577,44.5638324]],[[-123.28577,44.5638324],[-123.2857012,44.5638321],[-123.2856924,44.5638356],[-123.2856878,44.5638422],[-123.2856865,44.5641853],[-123.2852138,44.5641844],[-123.2852135,44.5642464],[-123.285138,44.5642463],[-123.2851375,44.5643863],[-123.2860301,44.5643882],[-123.2860306,44.5642762],[-123.2861098,44.5642764],[-123.2861102,44.5641853],[-123.2859157,44.5641848],[-123.2859172,44.563991]],[[-123.2852982,44.5632136],[-123.2852992,44.5631319],[-123.2851572,44.5631316],[-123.2851582,44.5628745],[-123.2849452,44.5628741],[-123.2849442,44.5632129],[-123.2852982,44.5632136]],[[-123.2859172,44.563991],[-123.2860003,44.5639911],[-123.2860003,44.5640028],[-123.2860149,44.5640028],[-123.2860148,44.5640399],[-123.2860685,44.5640399],[-123.2860685,44.564061],[-123.2864926,44.5640612],[-123.2864926,44.5640403],[-123.2865423,44.5640403],[-123.2865424,44.5639964],[-123.2865559,44.5639964],[-123.2865559,44.5639129],[-123.2865328,44.5639128],[-123.2865328,44.563889],[-123.2865681,44.563889],[-123.2865917,44.5638767],[-123.2865914,44.5638493],[-123.2865665,44.5638377],[-123.2860794,44.5638378],[-123.2860794,44.5637954],[-123.286095,44.5637954],[-123.2860951,44.5635546],[-123.2861588,44.5635539],[-123.2861587,44.5636067],[-123.2865704,44.563607],[-123.2865716,44.5633039],[-123.286502,44.5633039],[-123.2865018,44.5634983],[-123.2862487,44.5634982],[-123.2862489,44.5633046],[-123.2860878,44.5633045],[-123.2860878,44.5632548],[-123.2860149,44.5632548],[-123.2860149,44.5632488],[-123.2857723,44.5632486],[-123.2857722,44.5633194],[-123.2857407,44.5633194],[-123.2857397,44.5637919],[-123.2857701,44.5637919],[-123.28577,44.5638324]],[[-123.2875103,44.5641626],[-123.2875593,44.5641626],[-123.2875594,44.5642185],[-123.2873395,44.5642187],[-123.2873394,44.5641725],[-123.2873001,44.5641726],[-123.2873001,44.5642029],[-123.2872585,44.5642029],[-123.2872584,44.564137],[-123.287071,44.5641371],[-123.2870712,44.5642322],[-123.2870579,44.5642322],[-123.2870579,44.5642522],[-123.2870044,44.5642522],[-123.2870044,44.5643194],[-123.2870599,44.5643194],[-123.2870599,44.5643713],[-123.2870978,44.5643713],[-123.2870978,44.5643783],[-123.2872195,44.5643782],[-123.2872195,44.5643712],[-123.2872556,44.5643712],[-123.2872556,44.5643656],[-123.2872994,44.5643655],[-123.2872995,44.5643807],[-123.2873434,44.5643807],[-123.2873434,44.5643445],[-123.2874355,44.5643444],[-123.2874354,44.5643225],[-123.2878202,44.5643221],[-123.28782,44.5641965],[-123.2877799,44.5641965],[-123.2877798,44.5641649],[-123.2877998,44.5641649],[-123.2877998,44.564148],[-123.2879404,44.5641478],[-123.287941,44.5643565],[-123.2880048,44.5643564],[-123.2880049,44.564393],[-123.2881772,44.5643928],[-123.2881771,44.5643575],[-123.2882405,44.5643574],[-123.2882404,44.5643139],[-123.2882674,44.5643139],[-123.2882673,44.5642863],[-123.2882406,44.5642863],[-123.2882398,44.5640684],[-123.2881937,44.5640685],[-123.2881935,44.5640008],[-123.2880765,44.564001],[-123.2880762,44.5639261],[-123.2883399,44.5639256],[-123.2883391,44.5636843],[-123.2881729,44.5636846],[-123.2881733,44.563815],[-123.2880767,44.5638151],[-123.2880765,44.563769],[-123.2879381,44.5637692],[-123.2879382,44.5638138],[-123.2879,44.5638139],[-123.2879002,44.5639027],[-123.2879382,44.5639027],[-123.2879382,44.5639357],[-123.2879785,44.5639357],[-123.2879786,44.5640663],[-123.2879427,44.5640663],[-123.2879427,44.5640575],[-123.2878055,44.5640574],[-123.2878057,44.5639028],[-123.2877374,44.5639028],[-123.2877374,44.5638677],[-123.2875743,44.5638676],[-123.2875742,44.5639018],[-123.2875072,44.5639018],[-123.2875072,44.5639331],[-123.287515,44.5639331],[-123.287515,44.5639483],[-123.2874747,44.5639484],[-123.2874747,44.5639741],[-123.28751,44.5639741],[-123.2875103,44.5641626]],[[-123.285739,44.5626568],[-123.2857376,44.562446],[-123.2856501,44.5624463],[-123.2856505,44.5625019],[-123.2855216,44.5625024],[-123.2855208,44.5623845],[-123.2853655,44.562385],[-123.2853665,44.5625269],[-123.2854177,44.5625267],[-123.2854186,44.5626579],[-123.285739,44.5626568]],[[-123.2861562,44.5607797],[-123.2861618,44.5602009],[-123.2857424,44.5601989],[-123.2857442,44.5600161],[-123.2854641,44.5600147],[-123.2854636,44.5600696],[-123.2852274,44.5600685],[-123.2852261,44.5601982],[-123.284902,44.5601965],[-123.2849001,44.5603866],[-123.2853019,44.5603887],[-123.2853014,44.5604416],[-123.2850043,44.56044],[-123.2850026,44.5605999],[-123.2850692,44.5606002],[-123.2850687,44.5606503],[-123.285173,44.5607636],[-123.2852288,44.5607855],[-123.2853057,44.5607872],[-123.2853035,44.5608382],[-123.2849769,44.5608312],[-123.2849648,44.561116],[-123.2852333,44.5611218],[-123.2852907,44.5611474],[-123.2853894,44.561148],[-123.2853899,44.5610995],[-123.285554,44.5611004],[-123.2855538,44.5611222],[-123.285649,44.5611227],[-123.2856479,44.5612321],[-123.2857593,44.5612327],[-123.2857611,44.561051],[-123.2858595,44.5610515],[-123.2858622,44.5607782],[-123.2861562,44.5607797]],[[-123.2859003,44.5587826],[-123.2858113,44.5586807],[-123.2854715,44.5588314],[-123.2855604,44.5589332],[-123.2859003,44.5587826]],[[-123.2858603,44.5580628],[-123.2858665,44.557521],[-123.2856318,44.5575196],[-123.2856256,44.5580614],[-123.2858603,44.5580628]],[[-123.2854125,44.5583535],[-123.2854115,44.558265],[-123.2854704,44.5582646],[-123.2854694,44.5581765],[-123.28541,44.5581768],[-123.2854091,44.558101],[-123.2853005,44.5581016],[-123.2853033,44.5583541],[-123.2854125,44.5583535]],[[-123.2849693,44.5580991],[-123.2848606,44.5580996],[-123.2848648,44.5584966],[-123.2852087,44.5584948],[-123.2852045,44.5580957],[-123.2850812,44.5580964],[-123.2850841,44.558366],[-123.2849721,44.5583666],[-123.2849693,44.5580991]],[[-123.2887112,44.5594752],[-123.2887106,44.5594255],[-123.2884801,44.559427],[-123.2884808,44.5594766],[-123.2887112,44.5594752]],[[-123.2861366,44.557759],[-123.2861372,44.5576319],[-123.285936,44.5576314],[-123.2859354,44.5577585],[-123.2861366,44.557759]],[[-123.2882909,44.5596532],[-123.2882976,44.559437],[-123.2881229,44.5594342],[-123.2881182,44.559584],[-123.2881549,44.5595846],[-123.2881528,44.559651],[-123.2882909,44.5596532]],[[-123.2887159,44.5596084],[-123.2887128,44.5595405],[-123.2884864,44.5595459],[-123.2884896,44.5596138],[-123.2887159,44.5596084]],[[-123.2868079,44.557515],[-123.2868081,44.557471],[-123.2862811,44.5574702],[-123.286281,44.5575141],[-123.2868079,44.557515]],[[-123.2868094,44.5574431],[-123.2868096,44.5573962],[-123.2862785,44.5573953],[-123.2862784,44.5574422],[-123.2868094,44.5574431]],[[-123.2852189,44.5580224],[-123.285227,44.5574758],[-123.2859673,44.5574758],[-123.2859673,44.5574529],[-123.2859887,44.5574529],[-123.2859887,44.5574758],[-123.2862247,44.5574758],[-123.2862221,44.5571815],[-123.2859673,44.5571834],[-123.2859646,44.5573573],[-123.2853021,44.5573554],[-123.2853021,44.557256],[-123.2850231,44.557256],[-123.2850202,44.5573024],[-123.2849802,44.5573019],[-123.2849748,44.5580205],[-123.2852189,44.5580224]],[[-123.2864182,44.5582175],[-123.2864149,44.5581258],[-123.2860127,44.558133],[-123.2860159,44.5582247],[-123.2864182,44.5582175]],[[-123.2886959,44.5592927],[-123.2884895,44.5592941],[-123.2884902,44.5593514],[-123.2886966,44.55935],[-123.2886959,44.5592927]],[[-123.2859522,44.5591584],[-123.2859496,44.5589637],[-123.2856741,44.5589656],[-123.2856759,44.5591016],[-123.2857842,44.5591008],[-123.2857849,44.5591595],[-123.2859522,44.5591584]],[[-123.2889627,44.5596121],[-123.288961,44.5595395],[-123.2888228,44.5595412],[-123.2888245,44.5596138],[-123.2889627,44.5596121]],[[-123.2871368,44.5610247],[-123.2869604,44.5610254],[-123.2869616,44.5611752],[-123.2868416,44.5611757],[-123.2868425,44.5613012],[-123.2869719,44.5613007],[-123.2869721,44.5613274],[-123.2871288,44.5613268],[-123.2871286,44.5612961],[-123.2871793,44.5612959],[-123.2871785,44.5611957],[-123.2871381,44.5611958],[-123.2871368,44.5610247]],[[-123.2872746,44.5615358],[-123.2872737,44.561403],[-123.2871825,44.5614033],[-123.2871834,44.5615361],[-123.2872746,44.5615358]],[[-123.2869224,44.5622094],[-123.2868872,44.5622134],[-123.2869918,44.5621771],[-123.2872386,44.5621733],[-123.287252,44.5622001],[-123.2875229,44.5622001],[-123.2875229,44.5621408],[-123.2869972,44.5621408],[-123.2868309,44.5622115],[-123.2867375,44.5622101],[-123.2867382,44.5623022],[-123.2867008,44.5623023],[-123.2867011,44.5623365],[-123.2867442,44.5623364],[-123.2867447,44.5624119],[-123.2867051,44.562412],[-123.286705,44.5623949],[-123.286646,44.5623951],[-123.2866465,44.5624633],[-123.2867093,44.5624631],[-123.2867091,44.5624343],[-123.2867356,44.5624343],[-123.2867364,44.562556],[-123.2869246,44.5625554],[-123.2869224,44.5622094]],[[-123.289521,44.5616326],[-123.2895162,44.561355],[-123.2891089,44.5613586],[-123.2891083,44.5613264],[-123.288914,44.5613281],[-123.2889182,44.5613644],[-123.2888966,44.5613628],[-123.2889012,44.5616449],[-123.2891283,44.5616428],[-123.2891289,44.5616767],[-123.2893681,44.5616746],[-123.2893674,44.561634],[-123.289521,44.5616326]],[[-123.2864261,44.5625536],[-123.2864236,44.5622915],[-123.2862669,44.5622923],[-123.2862665,44.5622506],[-123.28622,44.5622508],[-123.2861224,44.5622513],[-123.2861234,44.562363],[-123.2860116,44.5623635],[-123.2860138,44.5625854],[-123.2860758,44.5625851],[-123.2860766,44.5626669],[-123.2862564,44.562666],[-123.2862553,44.5625544],[-123.2864261,44.5625536]],[[-123.291795,44.5643476],[-123.2917881,44.563306],[-123.2913329,44.5633075],[-123.2913355,44.5636953],[-123.2903959,44.5636985],[-123.2903977,44.5639757],[-123.2913191,44.5639726],[-123.2913216,44.5643492],[-123.291795,44.5643476]],[[-123.2920369,44.5632875],[-123.2920944,44.5632082],[-123.2916681,44.5630514],[-123.2916106,44.5631308],[-123.2920369,44.5632875]],[[-123.2909846,44.5625544],[-123.2911575,44.5625519],[-123.2911529,44.5623847],[-123.2909799,44.5623871],[-123.2909846,44.5625544]],[[-123.2918945,44.5629254],[-123.2917053,44.5626187],[-123.2916047,44.5626502],[-123.2917939,44.5629569],[-123.2918945,44.5629254]],[[-123.291459,44.5627175],[-123.2913113,44.5624587],[-123.2912227,44.5624844],[-123.2913704,44.5627432],[-123.291459,44.5627175]],[[-123.2913255,44.5574398],[-123.29107,44.5574405],[-123.2910696,44.5573777],[-123.2909269,44.5573781],[-123.2909263,44.5572773],[-123.2902669,44.5572791],[-123.2902671,44.5573117],[-123.2902189,44.5573119],[-123.2902197,44.5574634],[-123.2903114,44.5574632],[-123.2903116,44.5574849],[-123.2901999,44.5574852],[-123.2901996,44.5574357],[-123.2900875,44.557436],[-123.2900885,44.5576201],[-123.2901924,44.5576198],[-123.2901918,44.5575181],[-123.2902817,44.5575178],[-123.2902818,44.5575542],[-123.2902822,44.5576232],[-123.2904626,44.5576228],[-123.2904624,44.5575771],[-123.2904961,44.557577],[-123.2904971,44.5577679],[-123.2905723,44.5577677],[-123.2905714,44.5575848],[-123.2905949,44.5575848],[-123.2905956,44.5577344],[-123.2909429,44.5577334],[-123.2909423,44.5576264],[-123.2913265,44.5576253],[-123.2913255,44.5574398]],[[-123.2929949,44.5673485],[-123.2931979,44.5673481],[-123.2931974,44.5672135],[-123.2931452,44.5672136],[-123.2931449,44.5671487],[-123.2929941,44.567149],[-123.2929949,44.5673485]],[[-123.293224,44.5672255],[-123.2939052,44.5672264],[-123.2939057,44.5670628],[-123.2932244,44.5670619],[-123.293224,44.5672255]],[[-123.2932229,44.5670218],[-123.2939058,44.567024],[-123.2939064,44.566929],[-123.2932235,44.5669268],[-123.2932229,44.5670218]],[[-123.2904127,44.5624441],[-123.290412,44.5623571],[-123.2904563,44.5623571],[-123.2904546,44.562326],[-123.2904644,44.5623265],[-123.2904644,44.5622846],[-123.2904906,44.5622837],[-123.2904898,44.5622512],[-123.2904655,44.5622512],[-123.2904632,44.5622203],[-123.2901289,44.5622206],[-123.290126,44.5623264],[-123.290142,44.5623278],[-123.2901428,44.562344],[-123.2900929,44.5623441],[-123.2900949,44.5624491],[-123.2904127,44.5624441]],[[-123.279676,44.5643747],[-123.2796704,44.5641475],[-123.279517,44.5641497],[-123.2795158,44.5641741],[-123.2792995,44.5641743],[-123.2793007,44.5641491],[-123.2791558,44.5641491],[-123.2791609,44.5643746],[-123.2793052,44.5643751],[-123.279306,44.5643421],[-123.2795152,44.5643421],[-123.279514,44.564377],[-123.279676,44.5643747]],[[-123.288312,44.5669303],[-123.2883081,44.5672571],[-123.2886259,44.567259],[-123.2886299,44.5669323],[-123.288312,44.5669303]],[[-123.288239,44.5669413],[-123.288121,44.5669413],[-123.2881183,44.5672375],[-123.288239,44.5672375],[-123.288239,44.5669413]],[[-123.2887914,44.5671208],[-123.288793,44.5673167],[-123.2889741,44.5673159],[-123.2889724,44.5671201],[-123.2887914,44.5671208]],[[-123.2892877,44.5664502],[-123.2891536,44.5664521],[-123.2891536,44.5663719],[-123.2890222,44.5663738],[-123.2890222,44.5664177],[-123.2889452,44.566418],[-123.2889444,44.5664406],[-123.2887593,44.5664426],[-123.2887593,44.5665343],[-123.2888398,44.5665343],[-123.2888398,44.5665954],[-123.289285,44.5665992],[-123.2892877,44.5664502]],[[-123.2892888,44.5673663],[-123.2892921,44.5670204],[-123.2891835,44.5670199],[-123.2891802,44.5673657],[-123.2892888,44.5673663]],[[-123.2891255,44.5673186],[-123.2891228,44.5671715],[-123.2890141,44.5671725],[-123.2890168,44.5673196],[-123.2891255,44.5673186]],[[-123.2875661,44.5669263],[-123.2875654,44.5672167],[-123.2879074,44.5672172],[-123.2879081,44.5669267],[-123.2875661,44.5669263]],[[-123.2860652,44.5672225],[-123.2860584,44.5673732],[-123.2861093,44.5673732],[-123.2861013,44.5677936],[-123.2863348,44.5677949],[-123.2867718,44.5677974],[-123.2867692,44.5674012],[-123.2867691,44.5673789],[-123.2869891,44.5673751],[-123.2869888,44.5673983],[-123.286981,44.5678012],[-123.287327,44.5678012],[-123.2873244,44.5677248],[-123.2872895,44.5677228],[-123.2872895,44.5673942],[-123.2871768,44.5673942],[-123.2871768,44.5673751],[-123.2873431,44.5673751],[-123.2873404,44.5677171],[-123.2874343,44.5677171],[-123.2874343,44.5676044],[-123.2874692,44.5676006],[-123.2874692,44.5675012],[-123.287488,44.5674993],[-123.2874853,44.5673751],[-123.2875255,44.5673751],[-123.2875228,44.5678031],[-123.287834,44.5678031],[-123.2878259,44.567377],[-123.2881263,44.567377],[-123.288129,44.5678031],[-123.2884455,44.5678012],[-123.2884455,44.5677362],[-123.2884643,44.5677362],[-123.2884643,44.5677993],[-123.2887808,44.5677993],[-123.2887808,44.5674458],[-123.2886386,44.5674458],[-123.2886413,44.5675948],[-123.2886038,44.5675948],[-123.2886064,44.5674649],[-123.2886225,44.5674649],[-123.2886172,44.5673732],[-123.288526,44.5673732],[-123.288526,44.5673292],[-123.2869891,44.5673273],[-123.2869891,44.5672069],[-123.2868362,44.5672069],[-123.2868362,44.5672298],[-123.2867691,44.5672298],[-123.2867691,44.5672063],[-123.2867691,44.5669222],[-123.2866458,44.5669222],[-123.2866458,44.5672279],[-123.2865975,44.567226],[-123.2866028,44.566926],[-123.2864714,44.566926],[-123.2864714,44.5672241],[-123.2864285,44.5672241],[-123.2864231,44.566926],[-123.2862971,44.566926],[-123.2862971,44.567226],[-123.2862568,44.567226],[-123.2862542,44.5669298],[-123.2861254,44.5669298],[-123.2861227,44.5672243],[-123.2860832,44.5672222],[-123.2860771,44.5669298],[-123.2859537,44.5669298],[-123.2859564,44.5672184],[-123.2860652,44.5672225]],[[-123.2891386,44.5671064],[-123.2891377,44.5669297],[-123.2890144,44.56693],[-123.2890153,44.5671068],[-123.2891386,44.5671064]],[[-123.2867879,44.5666451],[-123.286784,44.5663649],[-123.2866404,44.5663642],[-123.286635,44.5662859],[-123.2864875,44.5662859],[-123.2864875,44.5663623],[-123.2864446,44.5663642],[-123.2864392,44.5667349],[-123.2865572,44.5667349],[-123.2865572,44.5667101],[-123.286636,44.5667107],[-123.286637,44.5666477],[-123.2867879,44.5666451]],[[-123.2889211,44.5659566],[-123.289298,44.5659587],[-123.2893003,44.5657476],[-123.2889235,44.5657454],[-123.2889211,44.5659566]],[[-123.289465,44.5675278],[-123.2892907,44.5675282],[-123.2892911,44.5675972],[-123.2892035,44.5675974],[-123.2892025,44.5673765],[-123.2888591,44.5673774],[-123.2888607,44.5677175],[-123.2894659,44.5677161],[-123.289465,44.5675278]],[[-123.2871098,44.5658158],[-123.2871098,44.5658903],[-123.2870803,44.5658903],[-123.2870803,44.5659457],[-123.2870642,44.5659457],[-123.2870615,44.566003],[-123.2875926,44.5660011],[-123.2875979,44.5658349],[-123.2875738,44.5658349],[-123.2875738,44.5658177],[-123.2871098,44.5658158]],[[-123.2869309,44.5666438],[-123.2869349,44.5662549],[-123.2869807,44.5662551],[-123.2869819,44.5661362],[-123.2869283,44.5661359],[-123.2869301,44.5659572],[-123.286749,44.5659563],[-123.2867473,44.5661274],[-123.2868412,44.5661278],[-123.286836,44.5666433],[-123.2869309,44.5666438]],[[-123.2894767,44.5652891],[-123.2894785,44.5647512],[-123.2888219,44.56475],[-123.2888205,44.5651826],[-123.2887654,44.5651825],[-123.2887664,44.5648857],[-123.2886338,44.5648855],[-123.2886327,44.5652237],[-123.2887628,44.5652239],[-123.2887628,44.565201],[-123.2888361,44.5652011],[-123.2888358,44.5652873],[-123.2890204,44.5652877],[-123.2890203,44.5653347],[-123.288867,44.5653345],[-123.2888667,44.5654088],[-123.2887082,44.5654085],[-123.2887078,44.5655162],[-123.2888949,44.5655165],[-123.2888948,44.5655511],[-123.289169,44.5655516],[-123.2891697,44.5653418],[-123.2891376,44.5653418],[-123.2891378,44.5652885],[-123.2894767,44.5652891]],[[-123.2918358,44.5662634],[-123.2918365,44.5664014],[-123.2919553,44.5664011],[-123.2919547,44.5662631],[-123.2918358,44.5662634]],[[-123.27489,44.5610172],[-123.274869,44.5609042],[-123.2747585,44.5609146],[-123.2747807,44.5610343],[-123.2747866,44.5610651],[-123.2748971,44.5610543],[-123.27489,44.5610172]],[[-123.2909481,44.5664414],[-123.2907877,44.5664412],[-123.2907871,44.5666681],[-123.2909475,44.5666683],[-123.2909481,44.5664414]],[[-123.2932232,44.5661419],[-123.29187,44.5661417],[-123.29187,44.5662148],[-123.2930361,44.566215],[-123.2930361,44.566308],[-123.2932231,44.566308],[-123.2932232,44.5661419]],[[-123.2945677,44.5666627],[-123.2947293,44.5666638],[-123.2947318,44.5664834],[-123.294728,44.5664833],[-123.2947318,44.5661972],[-123.2946668,44.5661967],[-123.2946629,44.5664808],[-123.2946381,44.5664807],[-123.2946419,44.566196],[-123.2945823,44.5661956],[-123.2945784,44.5664824],[-123.2945702,44.5664824],[-123.2945677,44.5666627]],[[-123.2941297,44.5665069],[-123.2943041,44.5665081],[-123.2943021,44.5666626],[-123.2943839,44.5666632],[-123.2944598,44.5666637],[-123.2944622,44.5664793],[-123.2944544,44.5664793],[-123.2944582,44.5661914],[-123.2943975,44.566191],[-123.2943937,44.5664787],[-123.2943686,44.5664785],[-123.2943724,44.5661905],[-123.2943137,44.5661901],[-123.2943099,44.5664777],[-123.2942824,44.5664775],[-123.2942862,44.56619],[-123.2942282,44.5661896],[-123.2942244,44.5664784],[-123.2941969,44.5664782],[-123.2942007,44.566191],[-123.2941339,44.5661905],[-123.2941297,44.5665069]],[[-123.2747912,44.5615341],[-123.2747727,44.5614611],[-123.2747928,44.5614585],[-123.274759,44.5613248],[-123.2745798,44.5613478],[-123.2745729,44.5613208],[-123.2744818,44.5613325],[-123.2744915,44.5613708],[-123.2744631,44.5613745],[-123.2744724,44.5614115],[-123.2745002,44.5614079],[-123.2745073,44.5614362],[-123.2745782,44.5614271],[-123.2745854,44.5614554],[-123.2745129,44.5614647],[-123.2745356,44.5615546],[-123.274572,44.5615499],[-123.2745755,44.5615637],[-123.2746138,44.5615588],[-123.2746193,44.5615807],[-123.2747128,44.5615687],[-123.2747068,44.5615449],[-123.2747912,44.5615341]],[[-123.2728473,44.5617154],[-123.2727201,44.5610791],[-123.2724655,44.5611049],[-123.2724776,44.5611654],[-123.272373,44.561176],[-123.272417,44.5613959],[-123.2725319,44.5613842],[-123.2725665,44.5615571],[-123.2726805,44.5615455],[-123.2727136,44.561711],[-123.2728473,44.5617154]],[[-123.2934911,44.5665881],[-123.2934859,44.5664266],[-123.2933009,44.5664296],[-123.293306,44.5665911],[-123.2934911,44.5665881]],[[-123.2937918,44.56621],[-123.2937898,44.5665988],[-123.2938994,44.5665991],[-123.2939014,44.5662102],[-123.2937918,44.56621]],[[-123.2806624,44.5673895],[-123.2805698,44.5673265],[-123.280488,44.5673876],[-123.2805805,44.5674505],[-123.2806624,44.5673895]],[[-123.2804129,44.5672693],[-123.2803894,44.5672696],[-123.2803944,44.5672256],[-123.2803539,44.5672254],[-123.2803539,44.5672044],[-123.2803273,44.5672045],[-123.2803287,44.5671853],[-123.2802333,44.5671872],[-123.280236,44.5673171],[-123.2801716,44.5673171],[-123.2801716,44.5674585],[-123.280228,44.5674585],[-123.2802253,44.5675846],[-123.2803351,44.5675865],[-123.2803365,44.5675087],[-123.2804156,44.5675063],[-123.2804129,44.5672693]],[[-123.2797398,44.5687964],[-123.2797321,44.5686885],[-123.2795671,44.5686945],[-123.2795748,44.5688024],[-123.2797398,44.5687964]],[[-123.2812276,44.5696489],[-123.2812229,44.5695239],[-123.2811095,44.5695266],[-123.2811095,44.5695648],[-123.2810398,44.5695686],[-123.2810398,44.5696106],[-123.2811095,44.5696106],[-123.2811095,44.5696527],[-123.2812276,44.5696489]],[[-123.2748952,44.5683631],[-123.2747421,44.5683668],[-123.274726,44.5683917],[-123.2746939,44.5683859],[-123.2746637,44.5684069],[-123.2745595,44.568405],[-123.2744573,44.5686305],[-123.2745547,44.568678],[-123.2745162,44.568728],[-123.2743988,44.5687337],[-123.2743961,44.5687089],[-123.2741803,44.5687043],[-123.274147,44.5688002],[-123.2742452,44.5688254],[-123.2742805,44.5688522],[-123.2746965,44.5688503],[-123.2746989,44.5688712],[-123.2747094,44.5689075],[-123.2747173,44.5689439],[-123.274876,44.5689801],[-123.2750102,44.5689744],[-123.2750108,44.5689249],[-123.2750344,44.5689248],[-123.2750344,44.5688694],[-123.2749807,44.5688694],[-123.2749807,44.5687012],[-123.2749593,44.5687012],[-123.2749485,44.5686152],[-123.2749297,44.568564],[-123.2748573,44.5685464],[-123.2748681,44.5684547],[-123.2748976,44.5684547],[-123.2748952,44.5683631]],[[-123.2778711,44.5631914],[-123.2778762,44.5630496],[-123.2778449,44.5630511]],[[-123.2778449,44.5630511],[-123.2778592,44.5631907],[-123.2778711,44.5631914]],[[-123.2831982,44.5664031],[-123.2831981,44.5664909],[-123.2831257,44.5664909],[-123.2831255,44.5666862],[-123.2841149,44.5666866],[-123.2841149,44.566674],[-123.2841775,44.566674],[-123.2841775,44.5666538],[-123.2842172,44.5666538],[-123.2842174,44.5664036],[-123.2841908,44.5664036],[-123.2831982,44.5664031]],[[-123.2775903,44.5633822],[-123.2775904,44.5633651],[-123.2773639,44.5633603]],[[-123.2773639,44.5633603],[-123.2773622,44.5633772],[-123.2775903,44.5633822]],[[-123.2783,44.5621522],[-123.2783017,44.5620355],[-123.2780584,44.5620336],[-123.2780588,44.5620089],[-123.2780164,44.5620086],[-123.278016,44.5620307],[-123.277755,44.5620287],[-123.2777532,44.5621475],[-123.2779461,44.562149],[-123.2779437,44.562306],[-123.2778136,44.562305],[-123.2778124,44.5623799],[-123.2780915,44.562382],[-123.2780925,44.5623164],[-123.2781049,44.5623165],[-123.2781074,44.5621507],[-123.2783,44.5621522]],[[-123.2764558,44.56342],[-123.2764566,44.5633695],[-123.2763407,44.5633686],[-123.27634,44.5634192],[-123.2764558,44.56342]],[[-123.2763403,44.5633171],[-123.2763924,44.5633037],[-123.2763794,44.562882],[-123.2763254,44.5628821],[-123.2763403,44.5633171]],[[-123.2820704,44.5627813],[-123.2820704,44.5626641],[-123.2820704,44.5625091],[-123.2820704,44.5624751],[-123.2820424,44.5624751],[-123.2819314,44.5624751],[-123.2819314,44.5627813],[-123.2820704,44.5627813]],[[-123.2778711,44.5631914],[-123.2778722,44.5632796],[-123.2777234,44.5633885],[-123.2775903,44.5633822]],[[-123.2773639,44.5633603],[-123.2773633,44.5633524],[-123.2771001,44.5633044],[-123.2768766,44.5633036],[-123.2768599,44.5633036],[-123.2768249,44.5634031],[-123.2769935,44.5634303],[-123.2773304,44.5634901],[-123.2777673,44.5635016],[-123.2777677,44.5634951],[-123.2778488,44.5634969],[-123.2778644,44.5634872],[-123.277887,44.5634987],[-123.278063,44.5633791],[-123.2780312,44.5633536],[-123.278059,44.5633245],[-123.2780347,44.5630195],[-123.2781029,44.5630067],[-123.2780255,44.5627941],[-123.2780535,44.5627903],[-123.2780298,44.5627273],[-123.2779444,44.5627399],[-123.2778964,44.562628],[-123.2777649,44.562652],[-123.2777389,44.5626564],[-123.2777437,44.5628296],[-123.2778185,44.5630261],[-123.2778424,44.563025],[-123.2778449,44.5630511]],[[-123.2766611,44.5597939],[-123.2761934,44.5598384],[-123.2761934,44.559861],[-123.2761363,44.5598633],[-123.2761363,44.5598459],[-123.2759468,44.559864],[-123.2759574,44.5599311],[-123.2759828,44.5599281],[-123.2759849,44.5599749],[-123.2760696,44.5599681],[-123.2760696,44.5599786],[-123.2760558,44.5599786],[-123.2760431,44.560379],[-123.2760146,44.560382],[-123.2760146,44.5603692],[-123.2757765,44.5603926],[-123.2757701,44.5603383],[-123.2757024,44.5603496],[-123.2757013,44.5603308],[-123.2756061,44.5603421],[-123.2756283,44.5604778],[-123.275659,44.5604748],[-123.2756654,44.5605607],[-123.2761289,44.560517],[-123.2761289,44.5604959],[-123.2761839,44.5604929],[-123.2761839,44.5605132],[-123.2763855,44.5604944],[-123.2763752,44.5604168],[-123.276346,44.5604222],[-123.2763449,44.5604087],[-123.2763395,44.5604098],[-123.27634,44.560377],[-123.2762636,44.5603832],[-123.2762728,44.5601712],[-123.2762641,44.5601709],[-123.2762641,44.5601531],[-123.276275,44.5601531],[-123.2762766,44.559974],[-123.2763113,44.5599724],[-123.2763118,44.5599871],[-123.2765443,44.5599655],[-123.2765497,44.5600172],[-123.2766185,44.560006],[-123.276619,44.5600265],[-123.2767149,44.5600176],[-123.2766965,44.559879],[-123.2766705,44.5598829],[-123.2766611,44.5597939]],[[-123.2761775,44.5614315],[-123.2761799,44.5613466],[-123.2757603,44.5613406],[-123.2757579,44.5614254],[-123.2761775,44.5614315]],[[-123.2719466,44.5629011],[-123.2718141,44.5629006],[-123.2718134,44.5629941],[-123.2715502,44.5629932],[-123.2715501,44.5630011],[-123.2714804,44.5630009],[-123.2714804,44.5630098],[-123.2714297,44.5630097],[-123.2714295,44.5630387],[-123.2714144,44.5630386],[-123.2714141,44.5630817],[-123.2714304,44.5630818],[-123.2714299,44.5631545],[-123.2714129,44.5631544],[-123.2714126,44.5631935],[-123.2714313,44.5631936],[-123.271431,44.5632353],[-123.2715328,44.5632356],[-123.2715327,44.563247],[-123.271616,44.5632473],[-123.2716162,44.5632166],[-123.2717477,44.5632171],[-123.2717473,44.563271],[-123.2717954,44.5632712],[-123.2717957,44.5632288],[-123.2718132,44.5632289],[-123.2718132,44.5632412],[-123.2719442,44.5632417],[-123.2719466,44.5629011]],[[-123.2819485,44.5607743],[-123.2815101,44.5607773],[-123.2815112,44.5608571],[-123.281528,44.5608997],[-123.2815171,44.5608994],[-123.2815154,44.5609315],[-123.281528,44.5609639],[-123.2815123,44.5609641],[-123.2815137,44.5610239],[-123.281528,44.5610635],[-123.2815139,44.5610637],[-123.2815152,44.5611069],[-123.2815289,44.5611067],[-123.2815341,44.5612708],[-123.2815345,44.5612898],[-123.2815345,44.5613466],[-123.2815227,44.5613466],[-123.281522,44.5617362],[-123.28196,44.5617352],[-123.2819512,44.5611018],[-123.2819369,44.5611019],[-123.2819366,44.5610875],[-123.2819358,44.5610695],[-123.2819349,44.5610579],[-123.2819451,44.5610575],[-123.2819439,44.5610431],[-123.2819345,44.5609628],[-123.2819472,44.5609621],[-123.2819399,44.5608913],[-123.2819323,44.5608823],[-123.2819321,44.5608657],[-123.2819497,44.5608656],[-123.2819485,44.5607743]],[[-123.2788006,44.5575259],[-123.2788041,44.5573986],[-123.2787711,44.5573982],[-123.2787718,44.5573733],[-123.2786151,44.5573712],[-123.2786149,44.5573785],[-123.2784314,44.557376],[-123.2784317,44.5573634],[-123.2783151,44.5573618],[-123.2783149,44.5573693],[-123.2782086,44.5573678],[-123.2782051,44.5574994],[-123.2781948,44.5574992],[-123.2781924,44.5575861],[-123.2782015,44.5575862],[-123.278198,44.5577125],[-123.2781873,44.5577123],[-123.2781851,44.5577931],[-123.2781924,44.5577932],[-123.278189,44.5579174],[-123.2781786,44.5579172],[-123.2781764,44.5579971],[-123.2781855,44.5579972],[-123.2781844,44.5580351],[-123.2782154,44.5580355],[-123.2782147,44.5580616],[-123.2783914,44.5580641],[-123.278392,44.55804],[-123.2784254,44.5580405],[-123.2784264,44.5580053],[-123.2784356,44.5580054],[-123.2784377,44.5579273],[-123.2784295,44.5579272],[-123.2784306,44.5578843],[-123.278569,44.5578862],[-123.2785688,44.5578937],[-123.2786704,44.5578951],[-123.2786717,44.5578475],[-123.2787081,44.557848],[-123.2787089,44.5578178],[-123.2787929,44.5578179],[-123.2788747,44.5578201],[-123.2788761,44.5577687],[-123.2787936,44.5577684],[-123.2787126,44.5577665],[-123.2787135,44.5577353],[-123.278672,44.5577347],[-123.2786733,44.5576863],[-123.2785798,44.557685],[-123.2785793,44.5577022],[-123.2784359,44.5577002],[-123.278439,44.5575837],[-123.2784537,44.5575839],[-123.2784558,44.5575076],[-123.278446,44.5575074],[-123.278447,44.5574719],[-123.278506,44.5574727],[-123.278504,44.5575479],[-123.2786522,44.5575499],[-123.278652,44.5575575],[-123.2787612,44.557559],[-123.2787621,44.5575254],[-123.2788006,44.5575259]],[[-123.2697076,44.5652823],[-123.2697854,44.5651332],[-123.269662,44.5650988],[-123.269654,44.5651122],[-123.269536,44.5650759],[-123.2695569,44.5650403],[-123.2694205,44.5650058],[-123.2693267,44.5651829],[-123.2697076,44.5652823]],[[-123.2697235,44.5648927],[-123.2697841,44.5649083],[-123.2697566,44.5649628],[-123.2698858,44.5649959],[-123.2699158,44.5649365],[-123.2699826,44.5649537],[-123.270109,44.5647036],[-123.2700449,44.5646871],[-123.2700643,44.5646487],[-123.2699325,44.5646149],[-123.2699135,44.5646526],[-123.2698527,44.564637],[-123.2697235,44.5648927]],[[-123.2687256,44.5644992],[-123.268786,44.5645147],[-123.2688107,44.564521],[-123.2687984,44.5645453],[-123.2688818,44.5645666],[-123.2688924,44.5645456],[-123.2689186,44.5645523],[-123.2689523,44.5644855],[-123.2690383,44.5645075],[-123.2690684,44.5644479],[-123.2689891,44.5644276],[-123.2690029,44.5644002],[-123.2688817,44.5643692],[-123.2688683,44.5643958],[-123.268788,44.5643752],[-123.2687256,44.5644992]],[[-123.2865187,44.5609246],[-123.2866883,44.5609231],[-123.2866889,44.5609532]],[[-123.2866889,44.5609532],[-123.2867233,44.5609529],[-123.2867198,44.5607554],[-123.2865157,44.5607573],[-123.2865187,44.5609246]],[[-123.2865187,44.5609246],[-123.2863857,44.5609246],[-123.286383,44.5612744],[-123.2866888,44.5612763],[-123.2866889,44.5609532]],[[-123.2793362,44.5604364],[-123.2791841,44.5604354],[-123.2791832,44.5605088],[-123.2791482,44.5605086],[-123.2791477,44.5605457],[-123.2791728,44.5605459],[-123.2791718,44.5606222],[-123.2793863,44.5606237],[-123.2793872,44.5605582],[-123.2793679,44.560558],[-123.2793682,44.5605366],[-123.2793685,44.5605141],[-123.2793351,44.5605139],[-123.2793362,44.5604364]],[[-123.2787156,44.56082],[-123.278713,44.560639],[-123.2787821,44.5606385],[-123.2787798,44.5604773],[-123.2787202,44.5604777],[-123.2787188,44.5603794],[-123.278389,44.5603818],[-123.2783953,44.5608224],[-123.2787156,44.56082]],[[-123.2824115,44.5624611],[-123.2832683,44.5624633],[-123.2832691,44.5623145],[-123.2832698,44.5621671],[-123.2824129,44.562165],[-123.2824122,44.5623049],[-123.2824115,44.5624611]],[[-123.277738,44.5650599],[-123.2777367,44.5648934],[-123.2777351,44.5647248],[-123.2776337,44.5647253],[-123.2776339,44.5647435],[-123.2776055,44.5647436],[-123.2774585,44.5647444],[-123.277364,44.5647441],[-123.277219,44.5647457],[-123.2772189,44.5647308],[-123.2771045,44.5647314],[-123.2771045,44.5648521],[-123.2771057,44.5648846],[-123.2771071,44.564976],[-123.2771077,44.565019],[-123.277109,44.5650569],[-123.2772102,44.5650575],[-123.277209,44.5650434],[-123.2772619,44.5650432],[-123.2776208,44.5650418],[-123.2776209,44.5650604],[-123.277738,44.5650599]],[[-123.2725405,44.5634562],[-123.2725428,44.563339],[-123.2725626,44.5633392],[-123.2725652,44.5632082],[-123.2725411,44.5632079],[-123.2725425,44.5631355],[-123.272564,44.5631357],[-123.2725664,44.5630054],[-123.2725443,44.5630052],[-123.2725469,44.562864],[-123.2728914,44.5628672],[-123.2728931,44.5627728],[-123.2729335,44.5627732],[-123.2729348,44.5627005],[-123.2726954,44.5626984],[-123.2726945,44.5627508],[-123.2726041,44.56275],[-123.2726051,44.5626956],[-123.2724087,44.5626938],[-123.2724077,44.5627502],[-123.2723709,44.5627499],[-123.2723702,44.5627908],[-123.2723486,44.5627906],[-123.2723464,44.5629181],[-123.2723689,44.5629183],[-123.2723678,44.5629874],[-123.2723452,44.5629872],[-123.272343,44.5631147],[-123.272369,44.5631149],[-123.2723677,44.5631851],[-123.2723442,44.5631849],[-123.2723419,44.5633129],[-123.2723643,44.5633132],[-123.272363,44.5633833],[-123.2723373,44.563383],[-123.2723361,44.5634454],[-123.2723611,44.5634456],[-123.2723605,44.5634806],[-123.2724684,44.5634817],[-123.272469,44.5634555],[-123.2725405,44.5634562]],[[-123.2682387,44.5649826],[-123.2682453,44.5649843],[-123.2682749,44.5649265],[-123.2682758,44.5649248],[-123.2682479,44.5649175],[-123.2682539,44.5649058],[-123.2682584,44.564907],[-123.2682765,44.5648715],[-123.2680909,44.564823],[-123.2680772,44.5648498],[-123.2680714,44.5648612],[-123.2680464,44.5649101],[-123.2680732,44.5649171],[-123.2680715,44.5649205],[-123.2682004,44.5649542],[-123.2681921,44.5649704],[-123.2682387,44.5649826]],[[-123.2687119,44.5646619],[-123.2687679,44.5646762],[-123.2688199,44.5645731],[-123.2687638,44.5645588],[-123.2687119,44.5646619]],[[-123.2824929,44.5650363],[-123.2824979,44.5647674],[-123.2817529,44.5647603],[-123.2817509,44.5648479],[-123.2814199,44.5648448],[-123.2814149,44.5651228],[-123.2821339,44.5651296],[-123.2821359,44.5650329],[-123.2824929,44.5650363]],[[-123.2822679,44.5658993],[-123.2822679,44.5658199],[-123.2822199,44.5658199],[-123.2822199,44.5656554],[-123.2821899,44.5656554],[-123.2821899,44.5656414],[-123.2810109,44.5656413],[-123.2810109,44.5656645],[-123.2809679,44.5656645],[-123.2809679,44.565881],[-123.2812109,44.565881],[-123.2812109,44.5658992],[-123.2822679,44.5658993]],[[-123.2811603,44.5649722],[-123.2811633,44.5647983],[-123.2809133,44.5647964],[-123.2809113,44.5649703],[-123.2811603,44.5649722]],[[-123.2797223,44.5640762],[-123.2797247,44.5639442],[-123.2794694,44.5639418],[-123.2794685,44.5639909],[-123.2792945,44.5639892],[-123.279293,44.5640721],[-123.2797223,44.5640762]],[[-123.2844271,44.5595322],[-123.2844289,44.5591539],[-123.2841474,44.5591533],[-123.2841456,44.5595316],[-123.2844271,44.5595322]],[[-123.2843378,44.5617234],[-123.2843253,44.5605903],[-123.2835311,44.5605947],[-123.2835436,44.5617278],[-123.2843378,44.5617234]],[[-123.2805763,44.5671461],[-123.2805764,44.5671145],[-123.2806199,44.5671146],[-123.2806202,44.5669645],[-123.2805819,44.5669645],[-123.280582,44.5669291],[-123.2802117,44.5669288],[-123.2802117,44.5669575],[-123.2801707,44.5669574],[-123.2801705,44.5671205],[-123.2802147,44.5671205],[-123.2802147,44.5671459],[-123.2805763,44.5671461]],[[-123.2783722,44.568544],[-123.278435,44.56838],[-123.2780458,44.5683044],[-123.277983,44.5684684],[-123.2783722,44.568544]],[[-123.2765516,44.5675808],[-123.2765518,44.5679494],[-123.2765142,44.5679724],[-123.2760952,44.5678704],[-123.2760284,44.5680098],[-123.2766912,44.5681711],[-123.276769,44.568131],[-123.2767773,44.5674831],[-123.2765578,44.5674817],[-123.2765522,44.5675452]],[[-123.288934,44.5643996],[-123.2891649,44.5643993],[-123.289165,44.5644283],[-123.2892775,44.5644282],[-123.2892775,44.5644051],[-123.2893552,44.5644051],[-123.2893551,44.564342],[-123.2894757,44.5643419],[-123.2894754,44.5638688],[-123.2894378,44.5638688],[-123.2894378,44.5636508],[-123.288975,44.5636508],[-123.2889766,44.5643379],[-123.2889338,44.564338],[-123.288934,44.5643996]],[[-123.2751842,44.5596093],[-123.2751186,44.5592628],[-123.274142,44.5593566],[-123.2741909,44.5596147],[-123.2743906,44.5595955],[-123.2744076,44.559685],[-123.2745764,44.5596688],[-123.274565,44.5596084],[-123.2749772,44.5595687],[-123.2749884,44.5596281],[-123.2751842,44.5596093]],[[-123.2905619,44.5671131],[-123.2904894,44.5671132],[-123.2904894,44.5670923],[-123.290389,44.5670924],[-123.290389,44.5670851],[-123.2902379,44.5670852],[-123.2902379,44.5670951],[-123.2901459,44.5670952],[-123.2901459,44.5670854],[-123.2900074,44.5670855],[-123.2900081,44.5675077],[-123.2903887,44.5675074],[-123.2903885,44.5674191],[-123.2905625,44.5674189],[-123.2905619,44.5671131]],[[-123.2807656,44.5640298],[-123.2807889,44.5640134],[-123.2807779,44.5639888],[-123.2807631,44.5639744],[-123.2807493,44.5639647],[-123.2807403,44.5639582],[-123.2807138,44.563947],[-123.280689,44.5639441],[-123.2806687,44.5639591]],[[-123.2806213,44.5639966],[-123.280669,44.5640293],[-123.2807146,44.5640627]],[[-123.2895924,44.5693461],[-123.2895897,44.5692267],[-123.2893591,44.5692286],[-123.2893604,44.5693471],[-123.2895924,44.5693461]],[[-123.2895867,44.5695858],[-123.2895856,44.5695295],[-123.2896068,44.5695293],[-123.2896044,44.5694101],[-123.2893823,44.5694124],[-123.2893846,44.5695276],[-123.2894214,44.5695272],[-123.2894226,44.5695875],[-123.2895867,44.5695858]],[[-123.2892992,44.5696254],[-123.2892992,44.5695302],[-123.2892134,44.5695302],[-123.2892133,44.5695082],[-123.2890582,44.5695083],[-123.2890582,44.5695283],[-123.2889738,44.5695283],[-123.2889738,44.5696245],[-123.2890644,44.5696245],[-123.2890644,44.5696063],[-123.2891977,44.5696063],[-123.2891977,44.5696254],[-123.2892992,44.5696254]],[[-123.2890396,44.5694969],[-123.2890408,44.569378],[-123.2889309,44.5693774],[-123.2889296,44.5694963],[-123.2890396,44.5694969]],[[-123.288908,44.5696124],[-123.2889069,44.5695345],[-123.2887426,44.5695357],[-123.2887437,44.5696135],[-123.288908,44.5696124]],[[-123.2884092,44.5695872],[-123.288662,44.5695834],[-123.2886593,44.5694903],[-123.2884065,44.5694941],[-123.2884092,44.5695872]],[[-123.2883134,44.5696187],[-123.2883119,44.5695418],[-123.2880947,44.5695441],[-123.2880962,44.569621],[-123.2883134,44.5696187]],[[-123.2882333,44.5694661],[-123.2882385,44.5693095],[-123.2881164,44.5693074],[-123.2881113,44.5694641],[-123.2882333,44.5694661]],[[-123.2884074,44.5693467],[-123.2887087,44.5693454],[-123.2887084,44.5693144],[-123.2888161,44.5693139],[-123.2888146,44.5691373],[-123.2887206,44.5691377],[-123.2887203,44.5691084],[-123.2884049,44.5691097],[-123.2884056,44.5691952],[-123.2886996,44.569194],[-123.2887002,44.5692637],[-123.2884068,44.5692649],[-123.2884074,44.5693467]],[[-123.2883112,44.5691738],[-123.2883135,44.5690973],[-123.2881165,44.5690942],[-123.2881141,44.5691707],[-123.2883112,44.5691738]],[[-123.2884065,44.569012],[-123.2887103,44.569012],[-123.2887103,44.5689805],[-123.2888216,44.5689805],[-123.2888216,44.5688042],[-123.2887103,44.5688042],[-123.2887103,44.5687784],[-123.2884025,44.5687784],[-123.2884025,44.5688601],[-123.2886948,44.5688601],[-123.2886948,44.5689331],[-123.2884065,44.5689331],[-123.2884065,44.569012]],[[-123.2883113,44.5690258],[-123.2883113,44.5689508],[-123.2881122,44.5689508],[-123.2881122,44.5690258],[-123.2883113,44.5690258]],[[-123.2883107,44.5688353],[-123.2883105,44.5687622],[-123.2881147,44.5687625],[-123.288115,44.5688356],[-123.2883107,44.5688353]],[[-123.2885292,44.5687339],[-123.2885266,44.5684029],[-123.2883898,44.5684034],[-123.2883924,44.5687345],[-123.2885292,44.5687339]],[[-123.2883079,44.5686986],[-123.2883094,44.5686217],[-123.2881183,44.5686199],[-123.2881168,44.5686968],[-123.2883079,44.5686986]],[[-123.2888536,44.568643],[-123.288854,44.5684668],[-123.2887333,44.5684666],[-123.2887329,44.5686429],[-123.2888536,44.568643]],[[-123.2882265,44.5684868],[-123.2882265,44.5683205],[-123.2881018,44.5683205],[-123.2881018,44.5684868],[-123.2882265,44.5684868]],[[-123.2884047,44.5683579],[-123.2887133,44.5683568],[-123.2887131,44.568329],[-123.2888174,44.5683287],[-123.2888163,44.5681468],[-123.2887085,44.5681472],[-123.2887083,44.5681215],[-123.2884019,44.5681225],[-123.2884024,44.5682076],[-123.2886907,44.5682067],[-123.2886912,44.5682818],[-123.2884042,44.5682828],[-123.2884047,44.5683579]],[[-123.2888589,44.5680592],[-123.2888601,44.5679608],[-123.2884001,44.5679579],[-123.2883989,44.5680563],[-123.2888589,44.5680592]],[[-123.289577,44.5680637],[-123.2895763,44.5679515],[-123.289121,44.5679529],[-123.2891217,44.5680652],[-123.289577,44.5680637]],[[-123.289565,44.56836],[-123.2895643,44.5682773],[-123.2892917,44.5682786],[-123.2892911,44.5682125],[-123.2895747,44.5682111],[-123.2895739,44.5681204],[-123.289271,44.5681218],[-123.2892712,44.5681478],[-123.2891673,44.5681483],[-123.289169,44.5683305],[-123.2892648,44.5683301],[-123.2892651,44.5683614],[-123.289565,44.56836]],[[-123.2895975,44.5687101],[-123.289594,44.5684073],[-123.2894472,44.5684081],[-123.2894507,44.568711],[-123.2895975,44.5687101]],[[-123.2892368,44.568628],[-123.2892372,44.5685076],[-123.2891158,44.5685074],[-123.2891154,44.5686278],[-123.2892368,44.568628]],[[-123.2895702,44.5690079],[-123.2895705,44.5689314],[-123.2892815,44.5689308],[-123.2892818,44.5688559],[-123.2895696,44.5688565],[-123.2895699,44.5687722],[-123.2892802,44.5687717],[-123.2892801,44.5687917],[-123.2891659,44.5687915],[-123.2891652,44.5689736],[-123.2892615,44.5689738],[-123.2892614,44.5690073],[-123.2895702,44.5690079]],[[-123.2891788,44.5693279],[-123.2891779,44.5691133],[-123.2891652,44.5691133],[-123.2891651,44.5690933],[-123.2890732,44.5690935],[-123.2890733,44.5691141],[-123.2890599,44.5691142],[-123.2890608,44.5693281],[-123.2891788,44.5693279]],[[-123.2892667,44.5692758],[-123.2892669,44.5692123],[-123.2892063,44.5692122],[-123.2892061,44.5692757],[-123.2892667,44.5692758]],[[-123.2731546,44.5613452],[-123.273133,44.5612306],[-123.2728109,44.5612615],[-123.2728325,44.561376],[-123.2731546,44.5613452]],[[-123.2730789,44.5615969],[-123.2731029,44.5617065],[-123.2732754,44.5616873],[-123.2732514,44.5615777],[-123.2730789,44.5615969]],[[-123.2731149,44.5611757],[-123.2730958,44.5610598],[-123.2727786,44.5610863],[-123.2727977,44.5612022],[-123.2731149,44.5611757]],[[-123.2731882,44.5615233],[-123.2731673,44.5614047],[-123.2728417,44.5614338],[-123.2728626,44.5615524],[-123.2731882,44.5615233]],[[-123.2798812,44.5677014],[-123.2798812,44.5676108],[-123.279743,44.5676108],[-123.279743,44.5677014],[-123.2798812,44.5677014]],[[-123.2798571,44.5680072],[-123.2798599,44.5677444],[-123.279519,44.5677425],[-123.2795206,44.5675952],[-123.279106,44.567593],[-123.2791016,44.5680031],[-123.2798571,44.5680072]],[[-123.2743187,44.5600013],[-123.2743369,44.5601092],[-123.2745007,44.5600952],[-123.2745133,44.5601697],[-123.2746244,44.5601602],[-123.274613,44.5600925],[-123.2745308,44.5600995],[-123.2745115,44.5599848],[-123.2743187,44.5600013]],[[-123.2817072,44.5640054],[-123.2817086,44.5637486],[-123.282214,44.5637514]],[[-123.2822154,44.5636274],[-123.2815128,44.5636247],[-123.2815042,44.5640329]],[[-123.283298,44.564064],[-123.283297,44.564017]],[[-123.283297,44.564017],[-123.283204,44.564017],[-123.283162,44.564004],[-123.283166,44.564066],[-123.283298,44.564064]],[[-123.28365,44.564063],[-123.283648,44.564012],[-123.283549,44.564011],[-123.283549,44.564065],[-123.28365,44.564063]],[[-123.276097,44.5612702],[-123.2760823,44.5611798],[-123.2759252,44.561192],[-123.2759351,44.5612556],[-123.275963,44.5612536],[-123.2759669,44.5612815],[-123.276097,44.5612702]],[[-123.274751,44.56109],[-123.274757,44.561147],[-123.27482,44.561144],[-123.274814,44.561087],[-123.274751,44.56109]],[[-123.2867683,44.5577333],[-123.2867646,44.5576206],[-123.2862538,44.557629],[-123.2862575,44.5577417],[-123.2867683,44.5577333]],[[-123.2884912,44.5583872],[-123.2884732,44.5584572],[-123.2886122,44.5584752],[-123.2886302,44.5584052],[-123.2884912,44.5583872]],[[-123.285795,44.559565],[-123.285947,44.559573],[-123.285958,44.559468],[-123.285868,44.559464],[-123.285875,44.559394],[-123.285813,44.559391],[-123.285795,44.559565]],[[-123.285557,44.559544],[-123.285557,44.559651],[-123.285648,44.559651],[-123.285648,44.559544],[-123.285557,44.559544]],[[-123.285887,44.559762],[-123.285887,44.559836],[-123.285989,44.559836],[-123.285989,44.559762],[-123.285887,44.559762]],[[-123.282866,44.567121],[-123.282866,44.567171],[-123.282963,44.567171],[-123.282963,44.567121],[-123.282866,44.567121]],[[-123.285034,44.567813],[-123.285034,44.567685],[-123.284932,44.567685],[-123.284932,44.567813],[-123.285034,44.567813]],[[-123.285286,44.567704],[-123.285168,44.567704],[-123.285168,44.567776],[-123.285318,44.567776],[-123.285318,44.567746],[-123.285388,44.567746],[-123.285388,44.567669],[-123.285286,44.567669],[-123.285286,44.567704]],[[-123.285942,44.5677763],[-123.2859445,44.5676805],[-123.2857865,44.5676785],[-123.2857841,44.5677743],[-123.285942,44.5677763]],[[-123.274746,44.568247],[-123.274713,44.568311],[-123.27478,44.568329],[-123.274814,44.568265],[-123.274746,44.568247]],[[-123.289473,44.565842],[-123.289352,44.565842],[-123.289352,44.565963],[-123.289473,44.565963],[-123.289473,44.565842]],[[-123.288,44.563593],[-123.288105,44.563593],[-123.288105,44.563421],[-123.288,44.563421],[-123.288,44.563593]],[[-123.288384,44.563383],[-123.288287,44.563383],[-123.288287,44.563593],[-123.288384,44.563593],[-123.288384,44.563383]],[[-123.2924242,44.565427],[-123.2924573,44.5654265],[-123.2924571,44.5654217],[-123.2925082,44.5654208],[-123.2925062,44.5653604],[-123.2924556,44.5653612],[-123.2924555,44.5653577],[-123.2924057,44.5653585],[-123.2924068,44.5653895],[-123.2923964,44.5653897],[-123.2923973,44.5654163],[-123.2924239,44.5654159],[-123.2924242,44.565427]],[[-123.29249,44.566002],[-123.29249,44.566089],[-123.29281,44.566091],[-123.29281,44.566102],[-123.292916,44.566103],[-123.292917,44.566003],[-123.29249,44.566002]],[[-123.292359,44.566083],[-123.292453,44.566083],[-123.292453,44.566039],[-123.292359,44.566039],[-123.292359,44.566083]],[[-123.2919642,44.5665057],[-123.2918442,44.5665057],[-123.2918442,44.5666127],[-123.2919642,44.5666127],[-123.2919642,44.5665057]],[[-123.2917504,44.5675042],[-123.2923965,44.5675048],[-123.2923969,44.5672456],[-123.2917509,44.567245],[-123.2917504,44.5675042]],[[-123.2914512,44.5674181],[-123.2914589,44.5669992],[-123.2911694,44.5669965],[-123.2911617,44.5674154],[-123.2914512,44.5674181]],[[-123.2929784,44.5674089],[-123.2929776,44.5673463],[-123.2926808,44.5673484],[-123.2926816,44.567411],[-123.2929784,44.5674089]],[[-123.277054,44.558746],[-123.276986,44.558794],[-123.277098,44.558875],[-123.277166,44.558827],[-123.277054,44.558746]],[[-123.2772171,44.5595427],[-123.2771984,44.5594614],[-123.2770329,44.5594813],[-123.2770516,44.5595626],[-123.2772171,44.5595427]],[[-123.2926137,44.5666713],[-123.2926136,44.5665546],[-123.2923293,44.5665547],[-123.2923293,44.5667078],[-123.2924737,44.5667077],[-123.2924736,44.5666714],[-123.2926137,44.5666713]],[[-123.2882472,44.5681624],[-123.2882355,44.5679767],[-123.2880735,44.56798],[-123.2880829,44.568154],[-123.2882472,44.5681624]],[[-123.2893784,44.56956],[-123.2893253,44.5694784],[-123.2892831,44.5694964],[-123.2893362,44.5695747],[-123.2893784,44.56956]],[[-123.2893483,44.5693442],[-123.2893507,44.5692333],[-123.2892867,44.569235],[-123.2892795,44.5693459],[-123.2893483,44.5693442]],[[-123.2877299,44.5638429],[-123.2877307,44.5637975],[-123.2876518,44.5637968],[-123.2876519,44.56379],[-123.2875791,44.5637893],[-123.2875782,44.5638415],[-123.2877299,44.5638429]],[[-123.283298,44.564064],[-123.2834128,44.5640627],[-123.283411,44.564016],[-123.283297,44.564017]],[[-123.2911813,44.5584381],[-123.2910056,44.5584381],[-123.2910056,44.5585155],[-123.2911813,44.5585155],[-123.2911813,44.5584381]],[[-123.2910024,44.5586637],[-123.2899441,44.5586703],[-123.2899475,44.5589487],[-123.2910058,44.5589421],[-123.2910024,44.5586637]],[[-123.2927575,44.5648999],[-123.2928,44.5648987],[-123.2927984,44.5648691],[-123.2927558,44.5648703],[-123.2927575,44.5648999]],[[-123.2925724,44.5656105],[-123.2925633,44.5656193],[-123.2925657,44.5656301],[-123.292578,44.5656366],[-123.2925932,44.5656349],[-123.2926022,44.5656261],[-123.2925999,44.5656153],[-123.2925875,44.5656089],[-123.2925724,44.5656105]],[[-123.2926659,44.5656125],[-123.292659,44.5656224],[-123.2926639,44.565633],[-123.2926779,44.565638],[-123.2926928,44.5656344],[-123.2926997,44.5656245],[-123.2926948,44.5656139],[-123.2926808,44.5656089],[-123.2926659,44.5656125]],[[-123.2926713,44.565541],[-123.292661,44.5655495],[-123.2926621,44.5655607],[-123.292674,44.5655681],[-123.2926897,44.5655673],[-123.2927001,44.5655588],[-123.292699,44.5655476],[-123.292687,44.5655402],[-123.2926713,44.565541]],[[-123.2925784,44.5655391],[-123.292565,44.5655455],[-123.2925618,44.5655567],[-123.2925707,44.5655662],[-123.2925865,44.5655685],[-123.2925999,44.5655622],[-123.2926031,44.5655509],[-123.2925942,44.5655414],[-123.2925784,44.5655391]],[[-123.2924876,44.5655386],[-123.2924729,44.5655426],[-123.2924664,44.5655527],[-123.292472,44.5655632],[-123.2924862,44.5655678],[-123.2925009,44.5655639],[-123.2925073,44.5655537],[-123.2925018,44.5655432],[-123.2924876,44.5655386]],[[-123.2924949,44.5656098],[-123.2924795,44.5656084],[-123.2924673,44.5656152],[-123.2924653,44.5656262],[-123.2924748,44.5656349],[-123.2924902,44.5656363],[-123.2925025,44.5656295],[-123.2925044,44.5656186],[-123.2924949,44.5656098]],[[-123.2923893,44.5656065],[-123.2923746,44.5656105],[-123.2923682,44.5656208],[-123.2923739,44.5656313],[-123.2923883,44.5656359],[-123.292403,44.5656318],[-123.2924094,44.5656215],[-123.2924038,44.565611],[-123.2923893,44.5656065]],[[-123.2923923,44.565537],[-123.2923774,44.5655406],[-123.2923704,44.5655507],[-123.2923755,44.5655614],[-123.2923897,44.5655664],[-123.2924046,44.5655627],[-123.2924116,44.5655526],[-123.2924065,44.565542],[-123.2923923,44.565537]],[[-123.2922938,44.565537],[-123.292279,44.5655411],[-123.2922727,44.5655515],[-123.2922785,44.5655621],[-123.2922931,44.5655666],[-123.2923079,44.5655624],[-123.2923142,44.565552],[-123.2923084,44.5655415],[-123.2922938,44.565537]],[[-123.2922921,44.5656062],[-123.2922777,44.5656103],[-123.2922715,44.5656205],[-123.2922772,44.5656307],[-123.2922914,44.5656351],[-123.2923059,44.5656311],[-123.292312,44.5656209],[-123.2923063,44.5656106],[-123.2922921,44.5656062]],[[-123.2921955,44.5656065],[-123.2921814,44.5656108],[-123.2921756,44.5656209],[-123.2921816,44.565631],[-123.2921959,44.5656351],[-123.29221,44.5656309],[-123.2922158,44.5656207],[-123.2922098,44.5656106],[-123.2921955,44.5656065]],[[-123.2921959,44.5655367],[-123.2921815,44.5655412],[-123.2921758,44.5655515],[-123.292182,44.5655618],[-123.2921965,44.5655659],[-123.2922109,44.5655614],[-123.2922167,44.5655511],[-123.2922104,44.5655408],[-123.2921959,44.5655367]],[[-123.2921986,44.5654677],[-123.2921836,44.5654714],[-123.2921768,44.5654816],[-123.292182,44.5654922],[-123.2921962,44.5654971],[-123.2922111,44.5654934],[-123.292218,44.5654832],[-123.2922128,44.5654726],[-123.2921986,44.5654677]],[[-123.2921999,44.5653994],[-123.2921851,44.5654027],[-123.2921779,44.5654124],[-123.2921825,44.5654229],[-123.2921962,44.565428],[-123.292211,44.5654248],[-123.2922182,44.565415],[-123.2922136,44.5654045],[-123.2921999,44.5653994]],[[-123.2922981,44.565398],[-123.2922818,44.5654002],[-123.2922725,44.56541],[-123.2922756,44.5654216],[-123.2922894,44.5654283],[-123.2923057,44.565426],[-123.2923151,44.5654162],[-123.2923119,44.5654046],[-123.2922981,44.565398]],[[-123.2923011,44.5654713],[-123.2922867,44.5654706],[-123.2922758,44.5654774],[-123.2922749,44.5654877],[-123.2922844,44.5654954],[-123.2922988,44.5654961],[-123.2923097,44.5654893],[-123.2923107,44.565479],[-123.2923011,44.5654713]],[[-123.2923913,44.5654706],[-123.292376,44.5654745],[-123.292369,44.565485],[-123.2923746,44.565496],[-123.2923893,44.5655009],[-123.2924047,44.565497],[-123.2924116,44.5654865],[-123.2924061,44.5654755],[-123.2923913,44.5654706]],[[-123.2924852,44.5654713],[-123.292471,44.5654757],[-123.2924653,44.565486],[-123.2924714,44.5654961],[-123.2924859,44.5655002],[-123.2925001,44.5654958],[-123.2925058,44.5654855],[-123.2924997,44.5654753],[-123.2924852,44.5654713]],[[-123.2925841,44.5654715],[-123.2925698,44.5654748],[-123.2925628,44.5654843],[-123.2925674,44.5654945],[-123.2925808,44.5654995],[-123.2925951,44.5654962],[-123.2926021,44.5654867],[-123.2925975,44.5654765],[-123.2925841,44.5654715]],[[-123.2926753,44.5654737],[-123.2926621,44.5654796],[-123.2926587,44.5654905],[-123.2926671,44.5654999],[-123.2926824,44.5655023],[-123.2926956,44.5654964],[-123.292699,44.5654855],[-123.2926906,44.5654761],[-123.2926753,44.5654737]],[[-123.292681,44.5653996],[-123.2926661,44.565403],[-123.2926589,44.565413],[-123.2926637,44.5654237],[-123.2926777,44.5654288],[-123.2926926,44.5654253],[-123.2926998,44.5654154],[-123.292695,44.5654047],[-123.292681,44.5653996]],[[-123.2925253,44.5654373],[-123.2926006,44.565438],[-123.2926009,44.5654213],[-123.2926349,44.5654216],[-123.2926352,44.5654043],[-123.2926012,44.565404],[-123.2926015,44.5653871],[-123.292537,44.5653865],[-123.2925364,44.565419],[-123.2925256,44.5654189],[-123.2925253,44.5654373]],[[-123.29165,44.5655993],[-123.2918887,44.5656014],[-123.2918947,44.5652435],[-123.2916561,44.5652415],[-123.29165,44.5655993]],[[-123.291674,44.5656611],[-123.2917215,44.5656611],[-123.2917215,44.5656222],[-123.291674,44.5656222],[-123.291674,44.5656611]],[[-123.2922495,44.5662177],[-123.2921187,44.5662185],[-123.2921214,44.5664523],[-123.2922522,44.5664516],[-123.2922495,44.5662177]],[[-123.2930689,44.5665982],[-123.2932252,44.5665984],[-123.2932256,44.566411],[-123.2932734,44.566411],[-123.2932735,44.5663829],[-123.2932257,44.5663828],[-123.2932259,44.5663194],[-123.2930696,44.5663193],[-123.2930689,44.5665982]],[[-123.293786,44.5661387],[-123.2932408,44.5661372],[-123.2932404,44.5662174],[-123.2937855,44.566219],[-123.293786,44.5661387]]],"bbox":[-123.2947318,44.5571815,-123.2680464,44.5696527]}